{"type":"FeatureCollection","name":"Beverly wards and precincts (2022)","source":"MassGIS, Wards and Precincts (2022), https://arcgisserver.digital.mass.gov/arcgisserver/rest/services/AGOL/WardsPrecincts2022/FeatureServer/0","features":[{"type":"Feature","properties":{"ward":"1","precinct":"1","district":"1-1","population_2020":3454},"geometry":{"type":"Polygon","coordinates":[[[-70.8941,42.566691],[-70.894157,42.567452],[-70.894227,42.568378],[-70.894352,42.568365],[-70.894535,42.568373],[-70.894931,42.568439],[-70.895379,42.56852],[-70.895685,42.568567],[-70.895945,42.56858],[-70.89619,42.568558],[-70.896313,42.56854],[-70.896566,42.568552],[-70.896851,42.568584],[-70.898093,42.568794],[-70.898752,42.568873],[-70.89894,42.568896],[-70.899868,42.569017],[-70.900283,42.569078],[-70.900609,42.569151],[-70.900894,42.569247],[-70.901133,42.569365],[-70.901295,42.56946],[-70.901614,42.569696],[-70.902492,42.570392],[-70.902838,42.570666],[-70.903066,42.57082],[-70.903199,42.570902],[-70.903756,42.571301],[-70.904914,42.572131],[-70.905421,42.572606],[-70.90555,42.572574],[-70.906151,42.572396],[-70.906833,42.572169],[-70.907404,42.571932],[-70.907754,42.571752],[-70.90794,42.571656],[-70.908351,42.571424],[-70.908404,42.571397],[-70.908445,42.568523],[-70.908454,42.567608],[-70.908489,42.565418],[-70.908513,42.563272],[-70.908517,42.562931],[-70.908524,42.562292],[-70.908527,42.561904],[-70.908543,42.56097],[-70.908558,42.559685],[-70.908557,42.559604],[-70.90859,42.557594],[-70.908628,42.557499],[-70.908592,42.557486],[-70.908432,42.557427],[-70.907779,42.557181],[-70.907546,42.557093],[-70.906083,42.556625],[-70.905733,42.556513],[-70.904948,42.556265],[-70.904814,42.556223],[-70.904608,42.556168],[-70.904431,42.556133],[-70.904214,42.556104],[-70.903452,42.55603],[-70.903339,42.556019],[-70.903246,42.556],[-70.903189,42.556003],[-70.9028,42.555942],[-70.902537,42.55588],[-70.902393,42.555846],[-70.902216,42.555794],[-70.901511,42.555588],[-70.901172,42.555488],[-70.900516,42.55527],[-70.900168,42.555176],[-70.900114,42.555162],[-70.899692,42.555065],[-70.899602,42.555056],[-70.899658,42.5546],[-70.899659,42.554453],[-70.899627,42.554374],[-70.899559,42.554279],[-70.899342,42.55404],[-70.898725,42.55347],[-70.898237,42.552827],[-70.898046,42.552583],[-70.897214,42.551625],[-70.897166,42.551568],[-70.896452,42.550733],[-70.895814,42.550574],[-70.895528,42.550502],[-70.895136,42.55041],[-70.894856,42.550382],[-70.894622,42.550345],[-70.893643,42.550252],[-70.893559,42.55083],[-70.893522,42.550991],[-70.893298,42.551978],[-70.893218,42.552397],[-70.89304,42.553336],[-70.892931,42.55354],[-70.892755,42.553835],[-70.89317,42.554059],[-70.893468,42.554251],[-70.893692,42.554406],[-70.893788,42.554504],[-70.893628,42.554588],[-70.893396,42.554753],[-70.893105,42.555099],[-70.892757,42.5555],[-70.892374,42.55596],[-70.89209,42.556082],[-70.891598,42.556261],[-70.891528,42.556274],[-70.891117,42.556375],[-70.890611,42.556467],[-70.890292,42.556526],[-70.890249,42.556532],[-70.889913,42.556581],[-70.889797,42.556599],[-70.889291,42.556664],[-70.889005,42.556681],[-70.888841,42.556685],[-70.888669,42.557013],[-70.88856,42.557285],[-70.888475,42.557528],[-70.888454,42.557703],[-70.888457,42.557772],[-70.888462,42.557882],[-70.888499,42.558047],[-70.888584,42.55826],[-70.888698,42.558475],[-70.888869,42.558723],[-70.888965,42.558881],[-70.888986,42.558923],[-70.889036,42.559017],[-70.889063,42.559159],[-70.889067,42.559299],[-70.889036,42.559453],[-70.889045,42.559588],[-70.889082,42.559699],[-70.889163,42.559825],[-70.889325,42.560011],[-70.88944,42.560108],[-70.889507,42.560165],[-70.889776,42.560339],[-70.88994,42.560433],[-70.890219,42.56056],[-70.890316,42.560592],[-70.89087,42.560727],[-70.891309,42.560848],[-70.891474,42.560908],[-70.89161,42.560959],[-70.891875,42.5611],[-70.892163,42.561298],[-70.892417,42.561514],[-70.892695,42.56182],[-70.892986,42.562217],[-70.893028,42.562274],[-70.893108,42.562425],[-70.893227,42.562697],[-70.893373,42.563113],[-70.893432,42.563297],[-70.893691,42.564107],[-70.893865,42.564621],[-70.89392,42.56483],[-70.893935,42.564886],[-70.894037,42.565849],[-70.8941,42.566691]]]}},{"type":"Feature","properties":{"ward":"1","precinct":"2","district":"1-2","population_2020":3557},"geometry":{"type":"Polygon","coordinates":[[[-70.888841,42.556685],[-70.889005,42.556681],[-70.889291,42.556664],[-70.889797,42.556599],[-70.889913,42.556581],[-70.890249,42.556532],[-70.890292,42.556526],[-70.890611,42.556467],[-70.891117,42.556375],[-70.891528,42.556274],[-70.891598,42.556261],[-70.89209,42.556082],[-70.892374,42.55596],[-70.892757,42.5555],[-70.893105,42.555099],[-70.893396,42.554753],[-70.893628,42.554588],[-70.893788,42.554504],[-70.893692,42.554406],[-70.893468,42.554251],[-70.89317,42.554059],[-70.892755,42.553835],[-70.892931,42.55354],[-70.89304,42.553336],[-70.893218,42.552397],[-70.893298,42.551978],[-70.893522,42.550991],[-70.893559,42.55083],[-70.893643,42.550252],[-70.894622,42.550345],[-70.894856,42.550382],[-70.895136,42.55041],[-70.895528,42.550502],[-70.895814,42.550574],[-70.896452,42.550733],[-70.897166,42.551568],[-70.897214,42.551625],[-70.898046,42.552583],[-70.898237,42.552827],[-70.898725,42.55347],[-70.899342,42.55404],[-70.899559,42.554279],[-70.899627,42.554374],[-70.899659,42.554453],[-70.899658,42.5546],[-70.899602,42.555056],[-70.899692,42.555065],[-70.900114,42.555162],[-70.900168,42.555176],[-70.900516,42.55527],[-70.901172,42.555488],[-70.901511,42.555588],[-70.902216,42.555794],[-70.902393,42.555846],[-70.902537,42.55588],[-70.9028,42.555942],[-70.903189,42.556003],[-70.903246,42.556],[-70.903339,42.556019],[-70.903452,42.55603],[-70.904214,42.556104],[-70.904431,42.556133],[-70.904608,42.556168],[-70.904814,42.556223],[-70.904948,42.556265],[-70.905733,42.556513],[-70.906083,42.556625],[-70.907546,42.557093],[-70.907779,42.557181],[-70.908432,42.557427],[-70.908592,42.557486],[-70.908628,42.557499],[-70.908901,42.556745],[-70.909177,42.555993],[-70.910839,42.55145],[-70.911314,42.550153],[-70.911468,42.549736],[-70.911512,42.54962],[-70.91157,42.549615],[-70.911628,42.549635],[-70.91166,42.549649],[-70.911672,42.549647],[-70.911677,42.549625],[-70.911637,42.549615],[-70.911476,42.549579],[-70.911317,42.549546],[-70.911216,42.549327],[-70.910876,42.548936],[-70.910907,42.548783],[-70.911518,42.548291],[-70.911588,42.548173],[-70.911588,42.54797],[-70.91138,42.54769],[-70.911101,42.547496],[-70.910823,42.547348],[-70.91056,42.547253],[-70.910142,42.547211],[-70.909717,42.547285],[-70.909501,42.54737],[-70.909075,42.547755],[-70.908913,42.547844],[-70.908457,42.547959],[-70.908132,42.547969],[-70.907506,42.547885],[-70.907093,42.547769],[-70.906841,42.547698],[-70.906493,42.54765],[-70.905836,42.547679],[-70.905542,42.547643],[-70.905001,42.547476],[-70.904792,42.547322],[-70.904181,42.547017],[-70.903849,42.546987],[-70.903381,42.547061],[-70.903308,42.547072],[-70.903022,42.546996],[-70.902558,42.546729],[-70.902404,42.546678],[-70.902264,42.546671],[-70.902163,42.546704],[-70.902071,42.546805],[-70.902071,42.546935],[-70.901886,42.547259],[-70.901816,42.547381],[-70.901483,42.547494],[-70.901228,42.547643],[-70.901089,42.54769],[-70.901042,42.547677],[-70.901011,42.547538],[-70.901197,42.54713],[-70.901205,42.546585],[-70.901259,42.546192],[-70.901229,42.54559],[-70.901113,42.545312],[-70.901005,42.545247],[-70.900858,42.545225],[-70.90078,42.545214],[-70.900525,42.545218],[-70.900324,42.545294],[-70.900069,42.545658],[-70.899945,42.545764],[-70.899883,42.545778],[-70.899783,42.545722],[-70.899744,42.545632],[-70.899783,42.545397],[-70.899907,42.545112],[-70.899915,42.545017],[-70.899814,42.544947],[-70.899265,42.544933],[-70.899095,42.544986],[-70.89901,42.545054],[-70.898902,42.545277],[-70.898878,42.545534],[-70.898832,42.545634],[-70.898778,42.545666],[-70.898561,42.545683],[-70.898221,42.545612],[-70.898051,42.545557],[-70.897951,42.545482],[-70.897936,42.545036],[-70.897843,42.544876],[-70.897804,42.544696],[-70.898129,42.543916],[-70.898075,42.543859],[-70.898013,42.54384],[-70.897882,42.543799],[-70.897696,42.543816],[-70.897604,42.543921],[-70.897475,42.544252],[-70.897425,42.544378],[-70.897348,42.544447],[-70.897286,42.544453],[-70.896954,42.544341],[-70.896668,42.544139],[-70.89632,42.543982],[-70.896119,42.543936],[-70.895339,42.543719],[-70.895145,42.543628],[-70.894883,42.543416],[-70.894816,42.543384],[-70.894596,42.543277],[-70.894427,42.543262],[-70.893927,42.543481],[-70.893885,42.5435],[-70.893266,42.543839],[-70.892872,42.544121],[-70.892802,42.544198],[-70.892802,42.544392],[-70.892902,42.544464],[-70.893003,42.544537],[-70.893227,42.544614],[-70.894217,42.544783],[-70.894387,42.544856],[-70.894719,42.545139],[-70.894719,42.545265],[-70.894525,42.545349],[-70.893921,42.545301],[-70.893637,42.545279],[-70.891974,42.54541],[-70.891417,42.545518],[-70.89117,42.545617],[-70.890837,42.54587],[-70.890104,42.546619],[-70.889979,42.546748],[-70.889661,42.547114],[-70.889669,42.547285],[-70.889769,42.547463],[-70.889924,42.547713],[-70.889885,42.547822],[-70.889792,42.547864],[-70.889437,42.547815],[-70.88929,42.547827],[-70.889181,42.547874],[-70.888995,42.548066],[-70.888833,42.548325],[-70.888787,42.548461],[-70.888794,42.548754],[-70.888809,42.548875],[-70.888894,42.549067],[-70.888942,42.549115],[-70.889041,42.549213],[-70.889358,42.549406],[-70.889358,42.549492],[-70.889226,42.549552],[-70.888577,42.549536],[-70.888244,42.549564],[-70.888191,42.549651],[-70.888156,42.549705],[-70.888167,42.549818],[-70.888291,42.549924],[-70.888291,42.550086],[-70.888004,42.550991],[-70.887795,42.551256],[-70.887261,42.551643],[-70.887176,42.55177],[-70.887183,42.551982],[-70.88743,42.552693],[-70.887623,42.552866],[-70.887994,42.553062],[-70.888582,42.553246],[-70.888984,42.553505],[-70.889254,42.553618],[-70.889579,42.553802],[-70.889788,42.554001],[-70.889942,42.554052],[-70.890035,42.554055],[-70.890043,42.554019],[-70.889633,42.553639],[-70.889626,42.553567],[-70.889726,42.553556],[-70.890082,42.553762],[-70.890623,42.553946],[-70.890716,42.554031],[-70.8908,42.554335],[-70.890978,42.554585],[-70.891187,42.55473],[-70.892122,42.55516],[-70.892509,42.555397],[-70.892493,42.555501],[-70.892246,42.555608],[-70.891565,42.555682],[-70.891109,42.55569],[-70.890104,42.555639],[-70.889995,42.555659],[-70.889849,42.555711],[-70.889709,42.555844],[-70.889662,42.556227],[-70.8896,42.556282],[-70.889407,42.556348],[-70.889121,42.556371],[-70.8889,42.556368],[-70.888841,42.556685]]]}},{"type":"Feature","properties":{"ward":"2","precinct":"1","district":"2-1","population_2020":3685},"geometry":{"type":"Polygon","coordinates":[[[-70.878499,42.551235],[-70.878711,42.551228],[-70.879287,42.551259],[-70.879818,42.551335],[-70.879916,42.551356],[-70.880502,42.551481],[-70.880723,42.550974],[-70.881572,42.551174],[-70.882101,42.551292],[-70.88239,42.550648],[-70.882663,42.550038],[-70.883429,42.550203],[-70.884002,42.550326],[-70.884262,42.550386],[-70.884552,42.550453],[-70.884929,42.550524],[-70.885167,42.550548],[-70.88527,42.550559],[-70.885586,42.550568],[-70.886402,42.550642],[-70.886578,42.549564],[-70.88726,42.549619],[-70.887271,42.549516],[-70.887278,42.549449],[-70.887634,42.548723],[-70.887642,42.548538],[-70.887472,42.54837],[-70.887117,42.54825],[-70.887032,42.548193],[-70.887024,42.548031],[-70.887101,42.547786],[-70.887194,42.54774],[-70.887473,42.547708],[-70.887535,42.547626],[-70.888002,42.546277],[-70.888193,42.545724],[-70.888209,42.545575],[-70.887861,42.545131],[-70.887861,42.54505],[-70.887962,42.544976],[-70.888038,42.54496],[-70.888351,42.544893],[-70.888511,42.544859],[-70.888684,42.544789],[-70.888975,42.544671],[-70.889193,42.544556],[-70.88957,42.54436],[-70.889814,42.544258],[-70.890429,42.543999],[-70.890475,42.543939],[-70.890468,42.543593],[-70.890252,42.542935],[-70.890283,42.54279],[-70.890438,42.542679],[-70.8905,42.542584],[-70.890623,42.542465],[-70.891396,42.542128],[-70.891551,42.542004],[-70.891621,42.541867],[-70.891636,42.541737],[-70.891598,42.54162],[-70.891513,42.54141],[-70.891382,42.541214],[-70.891181,42.541019],[-70.891011,42.540905],[-70.890791,42.540818],[-70.89057,42.540732],[-70.890115,42.540586],[-70.889945,42.540518],[-70.889859,42.540483],[-70.889697,42.540332],[-70.889504,42.540074],[-70.889403,42.540013],[-70.88911,42.540031],[-70.888027,42.540342],[-70.887857,42.540354],[-70.887679,42.540262],[-70.887654,42.540265],[-70.887308,42.540313],[-70.887138,42.540239],[-70.887046,42.540241],[-70.887018,42.540289],[-70.88698,42.540341],[-70.88693,42.540428],[-70.886715,42.540642],[-70.886444,42.540839],[-70.88654,42.541004],[-70.886703,42.541097],[-70.886862,42.541112],[-70.887014,42.541104],[-70.887038,42.541107],[-70.887194,42.541105],[-70.887385,42.541109],[-70.887044,42.542152],[-70.887143,42.542208],[-70.887081,42.542358],[-70.887064,42.542521],[-70.887096,42.542717],[-70.887117,42.543421],[-70.886822,42.543427],[-70.886599,42.54343],[-70.886494,42.543431],[-70.885984,42.543411],[-70.885566,42.543369],[-70.885022,42.543332],[-70.885018,42.544103],[-70.884514,42.543931],[-70.883697,42.543537],[-70.883124,42.543291],[-70.882847,42.543487],[-70.882694,42.543571],[-70.882113,42.543907],[-70.88173,42.544121],[-70.881216,42.544438],[-70.880908,42.5447],[-70.880651,42.545058],[-70.880554,42.545209],[-70.880348,42.545552],[-70.880177,42.54582],[-70.879984,42.546119],[-70.879576,42.546746],[-70.879449,42.546894],[-70.879347,42.547079],[-70.87908,42.547566],[-70.878875,42.547951],[-70.878701,42.548278],[-70.878491,42.548673],[-70.878422,42.548766],[-70.878349,42.548833],[-70.878235,42.549006],[-70.877996,42.549378],[-70.877866,42.549738],[-70.877855,42.549887],[-70.877859,42.55003],[-70.877886,42.550215],[-70.877942,42.550408],[-70.877989,42.55053],[-70.878091,42.550675],[-70.878266,42.550897],[-70.878499,42.551235]]]}},{"type":"Feature","properties":{"ward":"2","precinct":"2","district":"2-2","population_2020":3723},"geometry":{"type":"Polygon","coordinates":[[[-70.870697,42.547338],[-70.870939,42.547693],[-70.871284,42.547955],[-70.87066,42.54847],[-70.870557,42.548555],[-70.869581,42.549364],[-70.868778,42.550052],[-70.870301,42.550049],[-70.870729,42.550048],[-70.871066,42.550048],[-70.872106,42.550049],[-70.872479,42.550026],[-70.872726,42.549977],[-70.87317,42.549801],[-70.873337,42.549726],[-70.873561,42.549819],[-70.873668,42.54987],[-70.874684,42.550355],[-70.874108,42.550959],[-70.873223,42.551916],[-70.872966,42.552195],[-70.873613,42.55259],[-70.873901,42.552781],[-70.874007,42.552867],[-70.874161,42.552929],[-70.87421,42.552861],[-70.874303,42.552714],[-70.874378,42.552616],[-70.874493,42.552478],[-70.874645,42.552333],[-70.874875,42.552129],[-70.874962,42.552053],[-70.875481,42.551679],[-70.877097,42.552248],[-70.877911,42.552535],[-70.877993,42.552564],[-70.878711,42.552817],[-70.878743,42.552333],[-70.878761,42.552071],[-70.878742,42.551879],[-70.87872,42.551774],[-70.878678,42.551616],[-70.878612,42.551441],[-70.878532,42.551283],[-70.878499,42.551235],[-70.878266,42.550897],[-70.878091,42.550675],[-70.877989,42.55053],[-70.877942,42.550408],[-70.877886,42.550215],[-70.877859,42.55003],[-70.877855,42.549887],[-70.877866,42.549738],[-70.877996,42.549378],[-70.878235,42.549006],[-70.878349,42.548833],[-70.878422,42.548766],[-70.878491,42.548673],[-70.878701,42.548278],[-70.878875,42.547951],[-70.87908,42.547566],[-70.879347,42.547079],[-70.879449,42.546894],[-70.879576,42.546746],[-70.879984,42.546119],[-70.880177,42.54582],[-70.880348,42.545552],[-70.880554,42.545209],[-70.880651,42.545058],[-70.880908,42.5447],[-70.881216,42.544438],[-70.88173,42.544121],[-70.882113,42.543907],[-70.882694,42.543571],[-70.882847,42.543487],[-70.883124,42.543291],[-70.883697,42.543537],[-70.884514,42.543931],[-70.885018,42.544103],[-70.885022,42.543332],[-70.885566,42.543369],[-70.885984,42.543411],[-70.886494,42.543431],[-70.886599,42.54343],[-70.886822,42.543427],[-70.887117,42.543421],[-70.887096,42.542717],[-70.887064,42.542521],[-70.887081,42.542358],[-70.887143,42.542208],[-70.887044,42.542152],[-70.887385,42.541109],[-70.887194,42.541105],[-70.887038,42.541107],[-70.887014,42.541104],[-70.886862,42.541112],[-70.886703,42.541097],[-70.88654,42.541004],[-70.886444,42.540839],[-70.886715,42.540642],[-70.88693,42.540428],[-70.88698,42.540341],[-70.887018,42.540289],[-70.887046,42.540241],[-70.887022,42.540241],[-70.88618,42.540233],[-70.886141,42.540265],[-70.886063,42.540766],[-70.885908,42.540782],[-70.88587,42.540742],[-70.885677,42.540353],[-70.885097,42.540403],[-70.885066,42.540422],[-70.88505,42.540584],[-70.884818,42.540615],[-70.884695,42.540509],[-70.884138,42.540572],[-70.884107,42.54105],[-70.88362,42.54109],[-70.883566,42.540793],[-70.883458,42.5408],[-70.883442,42.541012],[-70.883295,42.541041],[-70.883179,42.540966],[-70.882584,42.540891],[-70.881742,42.54072],[-70.881348,42.54038],[-70.880382,42.539662],[-70.880258,42.539781],[-70.88022,42.539759],[-70.880173,42.539701],[-70.880189,42.539435],[-70.879825,42.53927],[-70.879653,42.539192],[-70.879625,42.539179],[-70.878666,42.539338],[-70.878341,42.539569],[-70.87865,42.539915],[-70.878274,42.540294],[-70.878147,42.540423],[-70.877613,42.541071],[-70.877481,42.541069],[-70.877435,42.541121],[-70.877284,42.541291],[-70.877056,42.541549],[-70.876867,42.541914],[-70.876273,42.543065],[-70.875945,42.543462],[-70.875453,42.543898],[-70.875174,42.544081],[-70.874493,42.54453],[-70.873728,42.545034],[-70.873611,42.545121],[-70.873009,42.54557],[-70.872531,42.545927],[-70.872455,42.546006],[-70.872323,42.546141],[-70.871936,42.54654],[-70.871828,42.546614],[-70.871488,42.546791],[-70.870697,42.547338]]]}},{"type":"Feature","properties":{"ward":"3","precinct":"1","district":"3-1","population_2020":3455},"geometry":{"type":"Polygon","coordinates":[[[-70.878402,42.556773],[-70.878457,42.556856],[-70.878623,42.55708],[-70.878795,42.557242],[-70.879021,42.557387],[-70.879252,42.557499],[-70.879454,42.557575],[-70.879522,42.557591],[-70.879614,42.557612],[-70.87987,42.557656],[-70.879936,42.557671],[-70.880029,42.557693],[-70.880169,42.557742],[-70.880314,42.557796],[-70.880412,42.557832],[-70.880226,42.558048],[-70.88002,42.558248],[-70.879976,42.558396],[-70.87983,42.559243],[-70.879787,42.559493],[-70.879735,42.559877],[-70.879646,42.560538],[-70.880744,42.560304],[-70.883034,42.559848],[-70.882922,42.559556],[-70.882864,42.559451],[-70.882827,42.559401],[-70.882781,42.559351],[-70.882668,42.559244],[-70.882263,42.558938],[-70.882203,42.558897],[-70.882926,42.558796],[-70.884766,42.558553],[-70.88464,42.558055],[-70.884473,42.557389],[-70.883791,42.55748],[-70.883849,42.557339],[-70.883994,42.55715],[-70.884641,42.556334],[-70.88461,42.556287],[-70.883831,42.555954],[-70.884233,42.555394],[-70.884346,42.55543],[-70.884401,42.555448],[-70.885244,42.555719],[-70.885463,42.55579],[-70.886325,42.556074],[-70.887663,42.556523],[-70.887953,42.556604],[-70.888449,42.556659],[-70.888497,42.556662],[-70.888841,42.556685],[-70.8889,42.556368],[-70.888827,42.556367],[-70.888673,42.556329],[-70.888603,42.556272],[-70.888564,42.556155],[-70.888519,42.555562],[-70.888411,42.555077],[-70.88821,42.554927],[-70.887993,42.554899],[-70.887831,42.554835],[-70.887699,42.554738],[-70.887607,42.554618],[-70.887352,42.554442],[-70.886903,42.554008],[-70.886301,42.553486],[-70.885922,42.553214],[-70.88586,42.553102],[-70.885868,42.552715],[-70.886093,42.552625],[-70.886186,42.55252],[-70.886286,42.552321],[-70.886348,42.552162],[-70.886487,42.551822],[-70.886728,42.551222],[-70.886968,42.550621],[-70.887105,42.55024],[-70.887231,42.549887],[-70.887244,42.549768],[-70.88726,42.549619],[-70.886578,42.549564],[-70.886402,42.550642],[-70.885586,42.550568],[-70.88527,42.550559],[-70.885167,42.550548],[-70.884929,42.550524],[-70.884552,42.550453],[-70.884262,42.550386],[-70.884002,42.550326],[-70.883429,42.550203],[-70.882663,42.550038],[-70.88239,42.550648],[-70.882101,42.551292],[-70.881572,42.551174],[-70.880723,42.550974],[-70.880502,42.551481],[-70.879916,42.551356],[-70.879818,42.551335],[-70.879287,42.551259],[-70.878711,42.551228],[-70.878499,42.551235],[-70.878532,42.551283],[-70.878612,42.551441],[-70.878678,42.551616],[-70.87872,42.551774],[-70.878742,42.551879],[-70.878761,42.552071],[-70.878743,42.552333],[-70.878711,42.552817],[-70.877993,42.552564],[-70.877911,42.552535],[-70.877097,42.552248],[-70.875481,42.551679],[-70.874962,42.552053],[-70.874875,42.552129],[-70.874645,42.552333],[-70.874493,42.552478],[-70.874693,42.552584],[-70.874963,42.552746],[-70.875222,42.552916],[-70.875404,42.553053],[-70.875592,42.553186],[-70.875726,42.553259],[-70.875769,42.553278],[-70.875671,42.553365],[-70.875611,42.553411],[-70.87548,42.553476],[-70.875152,42.553547],[-70.875068,42.553615],[-70.875075,42.553813],[-70.875122,42.553819],[-70.875182,42.553844],[-70.875261,42.553899],[-70.875428,42.554108],[-70.875537,42.554327],[-70.875609,42.554452],[-70.87569,42.554506],[-70.875757,42.55453],[-70.875863,42.554545],[-70.876018,42.554589],[-70.876085,42.554636],[-70.876262,42.554823],[-70.876312,42.554843],[-70.876363,42.554863],[-70.876473,42.554884],[-70.876979,42.55503],[-70.877196,42.555083],[-70.877703,42.555209],[-70.878304,42.555348],[-70.87826,42.555688],[-70.878208,42.556089],[-70.87821,42.556129],[-70.878221,42.556368],[-70.878238,42.556482],[-70.878271,42.556576],[-70.878402,42.556773]]]}},{"type":"Feature","properties":{"ward":"3","precinct":"2","district":"3-2","population_2020":3545},"geometry":{"type":"Polygon","coordinates":[[[-70.874348,42.56053],[-70.874507,42.560482],[-70.874417,42.560781],[-70.874983,42.561388],[-70.875343,42.561774],[-70.875647,42.562117],[-70.876157,42.562509],[-70.876265,42.562585],[-70.876468,42.562729],[-70.876671,42.562895],[-70.877861,42.564161],[-70.878018,42.564248],[-70.877564,42.56462],[-70.877415,42.564773],[-70.877337,42.564904],[-70.877269,42.565074],[-70.877213,42.565281],[-70.877089,42.565777],[-70.877075,42.565874],[-70.877029,42.566184],[-70.876965,42.56638],[-70.876915,42.566514],[-70.876892,42.566576],[-70.876814,42.566716],[-70.876638,42.566928],[-70.876429,42.567234],[-70.876278,42.567456],[-70.876075,42.567754],[-70.876009,42.567862],[-70.875877,42.568078],[-70.875868,42.568101],[-70.875825,42.568206],[-70.875798,42.568304],[-70.875777,42.568473],[-70.875747,42.568655],[-70.875717,42.568835],[-70.875664,42.569053],[-70.875621,42.569185],[-70.875564,42.569302],[-70.875425,42.56953],[-70.875175,42.569907],[-70.875155,42.569937],[-70.875124,42.569985],[-70.874748,42.570641],[-70.875182,42.57107],[-70.875522,42.5714],[-70.875645,42.571519],[-70.877087,42.572926],[-70.877689,42.573569],[-70.878135,42.574064],[-70.878415,42.57438],[-70.878609,42.5746],[-70.879079,42.575133],[-70.879199,42.575147],[-70.880062,42.575209],[-70.881164,42.575289],[-70.881823,42.575304],[-70.882193,42.575301],[-70.882569,42.575297],[-70.882943,42.575309],[-70.884297,42.575299],[-70.884926,42.575283],[-70.885022,42.575281],[-70.887296,42.575225],[-70.888225,42.575162],[-70.888874,42.575101],[-70.889229,42.575055],[-70.890939,42.574819],[-70.892133,42.574662],[-70.892128,42.574644],[-70.892177,42.574643],[-70.89228,42.574628],[-70.892319,42.574555],[-70.892388,42.574375],[-70.892499,42.57409],[-70.892626,42.573762],[-70.892851,42.573212],[-70.892973,42.572916],[-70.89312,42.572526],[-70.893156,42.57243],[-70.893232,42.57212],[-70.893208,42.571968],[-70.892638,42.571308],[-70.89236,42.571003],[-70.89214,42.570788],[-70.892335,42.570701],[-70.892698,42.570364],[-70.893059,42.569989],[-70.893233,42.569758],[-70.893306,42.569618],[-70.893332,42.569543],[-70.893333,42.569453],[-70.893294,42.569298],[-70.893183,42.568939],[-70.893056,42.568602],[-70.892628,42.567462],[-70.892448,42.567025],[-70.892353,42.566795],[-70.89317,42.566746],[-70.8941,42.566691],[-70.894037,42.565849],[-70.893935,42.564886],[-70.89392,42.56483],[-70.893865,42.564621],[-70.893691,42.564107],[-70.893432,42.563297],[-70.893373,42.563113],[-70.893227,42.562697],[-70.893108,42.562425],[-70.893028,42.562274],[-70.892986,42.562217],[-70.892695,42.56182],[-70.892417,42.561514],[-70.892163,42.561298],[-70.891875,42.5611],[-70.89161,42.560959],[-70.891474,42.560908],[-70.891309,42.560848],[-70.89087,42.560727],[-70.890316,42.560592],[-70.890219,42.56056],[-70.88994,42.560433],[-70.889776,42.560339],[-70.889507,42.560165],[-70.88944,42.560108],[-70.889325,42.560011],[-70.889163,42.559825],[-70.889082,42.559699],[-70.889045,42.559588],[-70.889036,42.559453],[-70.889067,42.559299],[-70.889063,42.559159],[-70.889036,42.559017],[-70.888986,42.558923],[-70.888965,42.558881],[-70.888869,42.558723],[-70.888698,42.558475],[-70.888584,42.55826],[-70.888499,42.558047],[-70.888462,42.557882],[-70.888457,42.557772],[-70.888454,42.557703],[-70.888475,42.557528],[-70.88856,42.557285],[-70.888669,42.557013],[-70.888841,42.556685],[-70.888497,42.556662],[-70.888449,42.556659],[-70.887953,42.556604],[-70.887663,42.556523],[-70.886325,42.556074],[-70.885463,42.55579],[-70.885244,42.555719],[-70.884401,42.555448],[-70.884346,42.55543],[-70.884233,42.555394],[-70.883831,42.555954],[-70.88461,42.556287],[-70.884641,42.556334],[-70.883994,42.55715],[-70.883849,42.557339],[-70.883791,42.55748],[-70.884473,42.557389],[-70.88464,42.558055],[-70.884766,42.558553],[-70.882926,42.558796],[-70.882203,42.558897],[-70.882263,42.558938],[-70.882668,42.559244],[-70.882781,42.559351],[-70.882827,42.559401],[-70.882864,42.559451],[-70.882922,42.559556],[-70.883034,42.559848],[-70.880744,42.560304],[-70.879646,42.560538],[-70.879735,42.559877],[-70.879787,42.559493],[-70.87983,42.559243],[-70.879976,42.558396],[-70.88002,42.558248],[-70.880226,42.558048],[-70.880412,42.557832],[-70.880314,42.557796],[-70.880169,42.557742],[-70.880029,42.557693],[-70.879936,42.557671],[-70.87987,42.557656],[-70.879614,42.557612],[-70.879522,42.557591],[-70.879454,42.557575],[-70.879252,42.557499],[-70.879021,42.557387],[-70.878795,42.557242],[-70.878623,42.55708],[-70.878457,42.556856],[-70.878402,42.556773],[-70.877941,42.556947],[-70.877709,42.557028],[-70.877573,42.557056],[-70.87752,42.557681],[-70.877491,42.558132],[-70.877494,42.558322],[-70.877511,42.558548],[-70.877589,42.559012],[-70.877556,42.559074],[-70.877549,42.559087],[-70.877408,42.559172],[-70.876219,42.559681],[-70.875435,42.559967],[-70.874342,42.560367],[-70.874219,42.560405],[-70.874348,42.56053]]]}},{"type":"Feature","properties":{"ward":"4","precinct":"1","district":"4-1","population_2020":3684},"geometry":{"type":"Polygon","coordinates":[[[-70.850228,42.551004],[-70.850236,42.551202],[-70.850244,42.551391],[-70.850257,42.552983],[-70.850206,42.553628],[-70.850181,42.554021],[-70.850054,42.554198],[-70.849829,42.554536],[-70.849829,42.554556],[-70.849013,42.554192],[-70.848972,42.554173],[-70.848483,42.553951],[-70.848244,42.553843],[-70.847506,42.553526],[-70.847475,42.553513],[-70.846988,42.553307],[-70.84672,42.5532],[-70.846672,42.553181],[-70.845683,42.552786],[-70.845471,42.552718],[-70.845205,42.552666],[-70.844326,42.552447],[-70.844118,42.552395],[-70.84356,42.552242],[-70.843115,42.552109],[-70.843004,42.55206],[-70.842867,42.551987],[-70.842681,42.55187],[-70.842445,42.551678],[-70.842303,42.551553],[-70.842123,42.551403],[-70.841976,42.551301],[-70.841836,42.551217],[-70.841624,42.551128],[-70.841405,42.55106],[-70.841074,42.550994],[-70.840603,42.55089],[-70.840247,42.550826],[-70.840001,42.550823],[-70.839799,42.550843],[-70.839637,42.550876],[-70.839386,42.550939],[-70.838557,42.551171],[-70.838489,42.55119],[-70.838405,42.551201],[-70.838319,42.551221],[-70.837896,42.551317],[-70.837575,42.551385],[-70.837292,42.551465],[-70.837024,42.551587],[-70.836458,42.551833],[-70.836256,42.551924],[-70.836025,42.551999],[-70.835782,42.55207],[-70.835596,42.552131],[-70.835412,42.552221],[-70.835372,42.552251],[-70.835281,42.552319],[-70.835066,42.552496],[-70.834855,42.552682],[-70.834706,42.552857],[-70.83452,42.553029],[-70.834251,42.553256],[-70.83408,42.553421],[-70.833923,42.553585],[-70.833839,42.553689],[-70.833708,42.554131],[-70.833627,42.554277],[-70.833493,42.554431],[-70.833343,42.554647],[-70.833225,42.554838],[-70.833101,42.555008],[-70.832981,42.555138],[-70.832187,42.555686],[-70.83202,42.555817],[-70.832121,42.555907],[-70.832192,42.556002],[-70.832348,42.556303],[-70.832424,42.556626],[-70.832449,42.556826],[-70.832433,42.556921],[-70.832356,42.557045],[-70.832179,42.557291],[-70.83177,42.557929],[-70.831713,42.558036],[-70.83167,42.558165],[-70.831649,42.558289],[-70.831636,42.558491],[-70.831592,42.558679],[-70.831557,42.558757],[-70.831922,42.558747],[-70.832611,42.558777],[-70.833513,42.558876],[-70.834465,42.559074],[-70.835188,42.559258],[-70.835713,42.559442],[-70.836199,42.559626],[-70.838294,42.560601],[-70.839395,42.561114],[-70.840036,42.561412],[-70.840627,42.561688],[-70.840977,42.561851],[-70.845053,42.563751],[-70.846353,42.564356],[-70.846557,42.564452],[-70.847985,42.564957],[-70.848466,42.564388],[-70.848961,42.563965],[-70.849254,42.563677],[-70.849324,42.563568],[-70.849339,42.563473],[-70.849285,42.563375],[-70.849061,42.563135],[-70.848929,42.562921],[-70.848875,42.5629],[-70.848829,42.562752],[-70.848604,42.562359],[-70.848341,42.561976],[-70.848315,42.56181],[-70.848513,42.56184],[-70.848753,42.56187],[-70.848795,42.561878],[-70.848899,42.561898],[-70.84903,42.561906],[-70.849301,42.561897],[-70.850606,42.561807],[-70.851298,42.561775],[-70.851339,42.561857],[-70.851404,42.562046],[-70.851444,42.562204],[-70.851475,42.562282],[-70.851531,42.562372],[-70.851683,42.562499],[-70.851776,42.562556],[-70.851884,42.562604],[-70.852288,42.562817],[-70.852575,42.562461],[-70.852795,42.562223],[-70.852982,42.56201],[-70.853096,42.561895],[-70.85326,42.561746],[-70.853663,42.561438],[-70.854069,42.561099],[-70.854379,42.560867],[-70.854584,42.560701],[-70.854622,42.560666],[-70.854767,42.560579],[-70.854864,42.560549],[-70.854968,42.560519],[-70.8552,42.560485],[-70.855413,42.560486],[-70.855669,42.560519],[-70.855844,42.56053],[-70.855945,42.560502],[-70.856077,42.56042],[-70.856178,42.560346],[-70.856235,42.560254],[-70.856249,42.56011],[-70.856251,42.559879],[-70.856271,42.559786],[-70.856374,42.559583],[-70.856456,42.559453],[-70.856538,42.559385],[-70.856627,42.559349],[-70.85692,42.559254],[-70.85719,42.559135],[-70.857612,42.558901],[-70.857989,42.55876],[-70.858187,42.558712],[-70.858513,42.558672],[-70.858726,42.558645],[-70.858883,42.558614],[-70.859216,42.558495],[-70.859429,42.558427],[-70.859681,42.558354],[-70.859819,42.558299],[-70.859945,42.558222],[-70.860271,42.557923],[-70.860974,42.55729],[-70.860372,42.557189],[-70.860555,42.5556],[-70.860632,42.554927],[-70.860853,42.552914],[-70.861118,42.552825],[-70.861248,42.552762],[-70.861419,42.55268],[-70.861633,42.552556],[-70.861891,42.552357],[-70.862056,42.552221],[-70.862659,42.551723],[-70.862771,42.55166],[-70.862842,42.551615],[-70.862803,42.551518],[-70.862779,42.551425],[-70.862761,42.551323],[-70.862789,42.551116],[-70.862807,42.550959],[-70.862842,42.550728],[-70.862905,42.550064],[-70.863044,42.548618],[-70.862539,42.548564],[-70.862215,42.548541],[-70.862318,42.547402],[-70.862333,42.54684],[-70.862109,42.546777],[-70.861869,42.546664],[-70.861815,42.546588],[-70.861854,42.546277],[-70.862062,42.545477],[-70.862062,42.545265],[-70.86203,42.544955],[-70.86193,42.544682],[-70.861852,42.544589],[-70.861674,42.544452],[-70.861489,42.544383],[-70.861431,42.544381],[-70.861187,42.544374],[-70.86104,42.544453],[-70.860894,42.544658],[-70.860376,42.545139],[-70.86009,42.545356],[-70.859959,42.545421],[-70.859717,42.545573],[-70.859542,42.545684],[-70.85908,42.546026],[-70.858885,42.546172],[-70.858599,42.54651],[-70.858498,42.54675],[-70.858413,42.546977],[-70.857993,42.547052],[-70.857749,42.547096],[-70.857555,42.547099],[-70.857524,42.547077],[-70.857261,42.546685],[-70.857253,42.546608],[-70.857106,42.546449],[-70.857014,42.546261],[-70.85689,42.546164],[-70.856758,42.546108],[-70.856495,42.546053],[-70.856278,42.546045],[-70.856063,42.546038],[-70.855908,42.546067],[-70.855483,42.546313],[-70.855452,42.546449],[-70.855344,42.546554],[-70.855243,42.54674],[-70.855282,42.547005],[-70.85512,42.547152],[-70.855097,42.547269],[-70.854988,42.547375],[-70.854904,42.547633],[-70.854927,42.547754],[-70.855043,42.547901],[-70.855283,42.548086],[-70.855392,42.548183],[-70.855391,42.548318],[-70.85533,42.548463],[-70.85499,42.548775],[-70.854217,42.549332],[-70.85298,42.550001],[-70.852826,42.550089],[-70.852092,42.550573],[-70.851782,42.550713],[-70.851751,42.550727],[-70.851202,42.550858],[-70.850538,42.550981],[-70.850228,42.551004]]]}},{"type":"Feature","properties":{"ward":"4","precinct":"2","district":"4-2","population_2020":3653},"geometry":{"type":"Polygon","coordinates":[[[-70.860271,42.557923],[-70.860226,42.558176],[-70.860263,42.558273],[-70.860312,42.558371],[-70.860409,42.558462],[-70.860492,42.558539],[-70.860832,42.558776],[-70.862188,42.559449],[-70.86379,42.560207],[-70.864954,42.560758],[-70.866339,42.561408],[-70.866902,42.561669],[-70.867628,42.562],[-70.867862,42.562119],[-70.868096,42.562239],[-70.86829,42.562395],[-70.868182,42.562494],[-70.869199,42.56218],[-70.8701,42.561861],[-70.874348,42.56053],[-70.874219,42.560405],[-70.874342,42.560367],[-70.875435,42.559967],[-70.876219,42.559681],[-70.877408,42.559172],[-70.877549,42.559087],[-70.877556,42.559074],[-70.877589,42.559012],[-70.877511,42.558548],[-70.877494,42.558322],[-70.877491,42.558132],[-70.87752,42.557681],[-70.877573,42.557056],[-70.877709,42.557028],[-70.877941,42.556947],[-70.878402,42.556773],[-70.878271,42.556576],[-70.878238,42.556482],[-70.878221,42.556368],[-70.87821,42.556129],[-70.878208,42.556089],[-70.87826,42.555688],[-70.878304,42.555348],[-70.877703,42.555209],[-70.877196,42.555083],[-70.876979,42.55503],[-70.876473,42.554884],[-70.876363,42.554863],[-70.876312,42.554843],[-70.876262,42.554823],[-70.876085,42.554636],[-70.876018,42.554589],[-70.875863,42.554545],[-70.875757,42.55453],[-70.87569,42.554506],[-70.875609,42.554452],[-70.875537,42.554327],[-70.875428,42.554108],[-70.875261,42.553899],[-70.875182,42.553844],[-70.875122,42.553819],[-70.875075,42.553813],[-70.875068,42.553615],[-70.875152,42.553547],[-70.87548,42.553476],[-70.875611,42.553411],[-70.875671,42.553365],[-70.875769,42.553278],[-70.875726,42.553259],[-70.875592,42.553186],[-70.875404,42.553053],[-70.875222,42.552916],[-70.874963,42.552746],[-70.874693,42.552584],[-70.874493,42.552478],[-70.874378,42.552616],[-70.874303,42.552714],[-70.87421,42.552861],[-70.874161,42.552929],[-70.874007,42.552867],[-70.873901,42.552781],[-70.873613,42.55259],[-70.872966,42.552195],[-70.873223,42.551916],[-70.874108,42.550959],[-70.874684,42.550355],[-70.873668,42.54987],[-70.873561,42.549819],[-70.873337,42.549726],[-70.87317,42.549801],[-70.872726,42.549977],[-70.872479,42.550026],[-70.872106,42.550049],[-70.871066,42.550048],[-70.870729,42.550048],[-70.870301,42.550049],[-70.868778,42.550052],[-70.869581,42.549364],[-70.870557,42.548555],[-70.87066,42.54847],[-70.871284,42.547955],[-70.870939,42.547693],[-70.870697,42.547338],[-70.870514,42.547464],[-70.870228,42.547613],[-70.870198,42.547663],[-70.869579,42.547997],[-70.868366,42.548463],[-70.86767,42.548596],[-70.867453,42.548406],[-70.867399,42.548263],[-70.867182,42.548167],[-70.867144,42.548073],[-70.867167,42.547852],[-70.867012,42.547756],[-70.866741,42.547733],[-70.866455,42.547648],[-70.866324,42.547578],[-70.866047,42.547336],[-70.866014,42.547308],[-70.865767,42.54715],[-70.865728,42.547101],[-70.865736,42.546948],[-70.865635,42.546828],[-70.865473,42.546772],[-70.864861,42.546305],[-70.864676,42.546254],[-70.864591,42.546305],[-70.864521,42.546405],[-70.864397,42.546501],[-70.864351,42.546624],[-70.864318,42.546668],[-70.864305,42.546687],[-70.863896,42.546847],[-70.863687,42.546882],[-70.863169,42.546904],[-70.862666,42.546903],[-70.862396,42.546858],[-70.862333,42.54684],[-70.862318,42.547402],[-70.862215,42.548541],[-70.862539,42.548564],[-70.863044,42.548618],[-70.862905,42.550064],[-70.862842,42.550728],[-70.862807,42.550959],[-70.862789,42.551116],[-70.862761,42.551323],[-70.862779,42.551425],[-70.862803,42.551518],[-70.862842,42.551615],[-70.862771,42.55166],[-70.862659,42.551723],[-70.862056,42.552221],[-70.861891,42.552357],[-70.861633,42.552556],[-70.861419,42.55268],[-70.861248,42.552762],[-70.861118,42.552825],[-70.860853,42.552914],[-70.860632,42.554927],[-70.860555,42.5556],[-70.860372,42.557189],[-70.860974,42.55729],[-70.860271,42.557923]]]}},{"type":"Feature","properties":{"ward":"5","precinct":"1","district":"5-1","population_2020":3521},"geometry":{"type":"Polygon","coordinates":[[[-70.881795,42.590927],[-70.882895,42.590903],[-70.885955,42.590915],[-70.886622,42.590919],[-70.893098,42.590935],[-70.893611,42.590941],[-70.901129,42.590982],[-70.904277,42.591061],[-70.904645,42.591069],[-70.906629,42.591118],[-70.908889,42.591177],[-70.914666,42.591325],[-70.916298,42.591367],[-70.919683,42.591454],[-70.92142,42.591499],[-70.922264,42.591521],[-70.922343,42.591522],[-70.922193,42.591316],[-70.920253,42.588759],[-70.917487,42.585101],[-70.914981,42.581786],[-70.914733,42.581458],[-70.913431,42.579742],[-70.908382,42.573058],[-70.908383,42.573046],[-70.908384,42.57296],[-70.908392,42.572246],[-70.908401,42.571551],[-70.908404,42.571397],[-70.908351,42.571424],[-70.90794,42.571656],[-70.907754,42.571752],[-70.907404,42.571932],[-70.906833,42.572169],[-70.906151,42.572396],[-70.90555,42.572574],[-70.905421,42.572606],[-70.904914,42.572131],[-70.903756,42.571301],[-70.903199,42.570902],[-70.903066,42.57082],[-70.902838,42.570666],[-70.902492,42.570392],[-70.901614,42.569696],[-70.901295,42.56946],[-70.901133,42.569365],[-70.900894,42.569247],[-70.900609,42.569151],[-70.900283,42.569078],[-70.899868,42.569017],[-70.89894,42.568896],[-70.898752,42.568873],[-70.898093,42.568794],[-70.896851,42.568584],[-70.896566,42.568552],[-70.896313,42.56854],[-70.89619,42.568558],[-70.895945,42.56858],[-70.895685,42.568567],[-70.895379,42.56852],[-70.894931,42.568439],[-70.894535,42.568373],[-70.894352,42.568365],[-70.894227,42.568378],[-70.894157,42.567452],[-70.8941,42.566691],[-70.89317,42.566746],[-70.892353,42.566795],[-70.892448,42.567025],[-70.892628,42.567462],[-70.893056,42.568602],[-70.893183,42.568939],[-70.893294,42.569298],[-70.893333,42.569453],[-70.893332,42.569543],[-70.893306,42.569618],[-70.893233,42.569758],[-70.893059,42.569989],[-70.892698,42.570364],[-70.892335,42.570701],[-70.89214,42.570788],[-70.89236,42.571003],[-70.892638,42.571308],[-70.893208,42.571968],[-70.893232,42.57212],[-70.893156,42.57243],[-70.89312,42.572526],[-70.892973,42.572916],[-70.892851,42.573212],[-70.892626,42.573762],[-70.892499,42.57409],[-70.892388,42.574375],[-70.892319,42.574555],[-70.89228,42.574628],[-70.892177,42.574643],[-70.892128,42.574644],[-70.892133,42.574662],[-70.890939,42.574819],[-70.889229,42.575055],[-70.888874,42.575101],[-70.888225,42.575162],[-70.887296,42.575225],[-70.885022,42.575281],[-70.885008,42.575398],[-70.884759,42.576794],[-70.884743,42.576887],[-70.884663,42.577343],[-70.884493,42.579014],[-70.884225,42.581245],[-70.883855,42.583144],[-70.883842,42.583203],[-70.883343,42.585542],[-70.88252,42.588545],[-70.881795,42.590927]]]}},{"type":"Feature","properties":{"ward":"5","precinct":"2","district":"5-2","population_2020":3463},"geometry":{"type":"Polygon","coordinates":[[[-70.869815,42.590844],[-70.870601,42.590852],[-70.87064,42.590852],[-70.871378,42.590855],[-70.873235,42.590858],[-70.874845,42.590889],[-70.875681,42.590866],[-70.876083,42.590877],[-70.876431,42.590877],[-70.876563,42.590879],[-70.876749,42.590872],[-70.881228,42.59092],[-70.881795,42.590927],[-70.88252,42.588545],[-70.883343,42.585542],[-70.883842,42.583203],[-70.883855,42.583144],[-70.884225,42.581245],[-70.884493,42.579014],[-70.884663,42.577343],[-70.884743,42.576887],[-70.884759,42.576794],[-70.885008,42.575398],[-70.885022,42.575281],[-70.884926,42.575283],[-70.884297,42.575299],[-70.882943,42.575309],[-70.882569,42.575297],[-70.882193,42.575301],[-70.881823,42.575304],[-70.881164,42.575289],[-70.880062,42.575209],[-70.879199,42.575147],[-70.879079,42.575133],[-70.878609,42.5746],[-70.878415,42.57438],[-70.878135,42.574064],[-70.877689,42.573569],[-70.877087,42.572926],[-70.875645,42.571519],[-70.875522,42.5714],[-70.875182,42.57107],[-70.874748,42.570641],[-70.875124,42.569985],[-70.875155,42.569937],[-70.875175,42.569907],[-70.875425,42.56953],[-70.875564,42.569302],[-70.875621,42.569185],[-70.875664,42.569053],[-70.875717,42.568835],[-70.875747,42.568655],[-70.875777,42.568473],[-70.875798,42.568304],[-70.875825,42.568206],[-70.875868,42.568101],[-70.875877,42.568078],[-70.876009,42.567862],[-70.876075,42.567754],[-70.876278,42.567456],[-70.876429,42.567234],[-70.876638,42.566928],[-70.876814,42.566716],[-70.876892,42.566576],[-70.876915,42.566514],[-70.876965,42.56638],[-70.877029,42.566184],[-70.877075,42.565874],[-70.877089,42.565777],[-70.877213,42.565281],[-70.877269,42.565074],[-70.877337,42.564904],[-70.877415,42.564773],[-70.877564,42.56462],[-70.878018,42.564248],[-70.877861,42.564161],[-70.876671,42.562895],[-70.876468,42.562729],[-70.876265,42.562585],[-70.876157,42.562509],[-70.875647,42.562117],[-70.875343,42.561774],[-70.874983,42.561388],[-70.874417,42.560781],[-70.874507,42.560482],[-70.874348,42.56053],[-70.8701,42.561861],[-70.869199,42.56218],[-70.868182,42.562494],[-70.867457,42.56316],[-70.866705,42.563828],[-70.866349,42.564145],[-70.866115,42.564347],[-70.865862,42.564521],[-70.865551,42.564678],[-70.865276,42.564816],[-70.864555,42.565181],[-70.863629,42.565648],[-70.863111,42.565908],[-70.862848,42.566024],[-70.862669,42.566087],[-70.862489,42.56614],[-70.862276,42.566193],[-70.862081,42.566253],[-70.862004,42.566277],[-70.861844,42.566341],[-70.861674,42.566418],[-70.861492,42.566525],[-70.861368,42.566606],[-70.861275,42.566688],[-70.861183,42.566779],[-70.860415,42.567691],[-70.859568,42.568697],[-70.85908,42.56928],[-70.858957,42.569433],[-70.858903,42.569515],[-70.858678,42.569916],[-70.858555,42.570086],[-70.858392,42.570243],[-70.858219,42.570409],[-70.858014,42.570619],[-70.85798,42.570662],[-70.857665,42.571067],[-70.857508,42.571269],[-70.857325,42.571505],[-70.856837,42.572129],[-70.856236,42.5729],[-70.855914,42.573297],[-70.855815,42.573418],[-70.856751,42.573487],[-70.857253,42.573561],[-70.857386,42.573599],[-70.857482,42.573646],[-70.857558,42.57371],[-70.857573,42.573782],[-70.857567,42.573854],[-70.857477,42.573979],[-70.857077,42.574152],[-70.857144,42.574572],[-70.857142,42.574699],[-70.857156,42.57516],[-70.857418,42.575548],[-70.858121,42.576218],[-70.858605,42.576736],[-70.858818,42.576891],[-70.859224,42.577424],[-70.860108,42.578094],[-70.860948,42.578494],[-70.861109,42.57875],[-70.861337,42.57909],[-70.861676,42.579242],[-70.862149,42.5793],[-70.862507,42.579295],[-70.863119,42.579054],[-70.863391,42.578956],[-70.863794,42.578853],[-70.863808,42.578849],[-70.864248,42.578662],[-70.864488,42.578595],[-70.864704,42.5787],[-70.864906,42.578867],[-70.865061,42.579085],[-70.865169,42.579313],[-70.86527,42.579429],[-70.865347,42.57945],[-70.865548,42.579433],[-70.865912,42.579306],[-70.866369,42.579411],[-70.866996,42.579806],[-70.867073,42.579827],[-70.86712,42.579979],[-70.867398,42.58029],[-70.867384,42.581078],[-70.867214,42.581392],[-70.867214,42.581509],[-70.867307,42.581633],[-70.867323,42.58202],[-70.867547,42.582444],[-70.867501,42.582675],[-70.867292,42.58293],[-70.867246,42.583035],[-70.867262,42.583079],[-70.867424,42.583194],[-70.867448,42.583284],[-70.867324,42.583749],[-70.867123,42.584036],[-70.867116,42.584108],[-70.867348,42.584325],[-70.86806,42.584687],[-70.86813,42.584767],[-70.868223,42.585099],[-70.868533,42.585526],[-70.868873,42.585899],[-70.869214,42.586132],[-70.8694,42.586205],[-70.869694,42.586273],[-70.87022,42.586251],[-70.870429,42.586301],[-70.870568,42.586218],[-70.870761,42.58599],[-70.870862,42.585988],[-70.870955,42.58604],[-70.871063,42.586291],[-70.871156,42.586384],[-70.87135,42.586439],[-70.871582,42.586422],[-70.871922,42.586349],[-70.872479,42.586043],[-70.872649,42.585986],[-70.873005,42.58598],[-70.873686,42.586072],[-70.873786,42.586053],[-70.873809,42.586007],[-70.874495,42.5861],[-70.874733,42.586136],[-70.874872,42.586183],[-70.874957,42.586389],[-70.874965,42.586668],[-70.875027,42.586933],[-70.875119,42.587057],[-70.875405,42.587246],[-70.87541,42.587257],[-70.875018,42.587338],[-70.874472,42.587453],[-70.874184,42.587506],[-70.872788,42.587791],[-70.872718,42.58894],[-70.8727,42.589141],[-70.872639,42.589842],[-70.872475,42.589825],[-70.872405,42.589857],[-70.872081,42.589876],[-70.871948,42.589942],[-70.871856,42.589988],[-70.871431,42.58999],[-70.871354,42.590023],[-70.871268,42.590164],[-70.87116,42.590193],[-70.870998,42.59016],[-70.870874,42.590171],[-70.870773,42.590285],[-70.870534,42.590316],[-70.870309,42.590464],[-70.870093,42.590494],[-70.870023,42.590527],[-70.869768,42.590792],[-70.869776,42.590819],[-70.869815,42.590844]]]}},{"type":"Feature","properties":{"ward":"6","precinct":"1","district":"6-1","population_2020":3502},"geometry":{"type":"MultiPolygon","coordinates":[[[[-70.804095,42.577828],[-70.805163,42.578786],[-70.806936,42.580363],[-70.807037,42.580473],[-70.807165,42.580634],[-70.807285,42.580778],[-70.807359,42.580871],[-70.807459,42.580993],[-70.807631,42.581205],[-70.80767,42.581253],[-70.80774,42.581339],[-70.808141,42.581832],[-70.808433,42.58219],[-70.809352,42.583321],[-70.810086,42.584227],[-70.81156,42.582355],[-70.812065,42.581716],[-70.813297,42.580148],[-70.816884,42.579619],[-70.81902,42.579295],[-70.819651,42.578581],[-70.819806,42.578404],[-70.819943,42.578251],[-70.820312,42.577831],[-70.820867,42.578229],[-70.823242,42.57994],[-70.823979,42.58047],[-70.824135,42.580582],[-70.824152,42.580572],[-70.824301,42.580457],[-70.82451,42.580296],[-70.825,42.580001],[-70.825511,42.579705],[-70.82553,42.579695],[-70.82596,42.579476],[-70.826417,42.579262],[-70.826726,42.579136],[-70.827145,42.578981],[-70.827673,42.578797],[-70.829616,42.578245],[-70.830274,42.578052],[-70.831765,42.577615],[-70.832567,42.577349],[-70.832975,42.577208],[-70.833368,42.577055],[-70.833856,42.576882],[-70.834369,42.576675],[-70.835047,42.576381],[-70.835819,42.576013],[-70.83613,42.575876],[-70.836363,42.575774],[-70.837014,42.575526],[-70.837099,42.575496],[-70.837252,42.575443],[-70.837872,42.575225],[-70.839265,42.574736],[-70.840492,42.5743],[-70.841464,42.57397],[-70.842231,42.573758],[-70.842996,42.573567],[-70.843027,42.57356],[-70.84359,42.573427],[-70.844103,42.573322],[-70.844756,42.573215],[-70.845572,42.573097],[-70.846102,42.573044],[-70.846701,42.572985],[-70.846949,42.572961],[-70.847965,42.572918],[-70.84889,42.572905],[-70.849283,42.572913],[-70.849483,42.572923],[-70.849532,42.573551],[-70.849818,42.574168],[-70.849818,42.574249],[-70.849447,42.574593],[-70.849339,42.574761],[-70.849463,42.575376],[-70.849603,42.575617],[-70.849602,42.575739],[-70.849108,42.576039],[-70.848992,42.576194],[-70.848691,42.576798],[-70.848658,42.576968],[-70.84902,42.576949],[-70.849267,42.576647],[-70.849365,42.576542],[-70.849466,42.576444],[-70.849627,42.576312],[-70.849745,42.576234],[-70.849849,42.576165],[-70.850059,42.576036],[-70.850136,42.575995],[-70.850264,42.575927],[-70.850402,42.575866],[-70.850555,42.5758],[-70.850692,42.575754],[-70.851503,42.575506],[-70.852429,42.575229],[-70.852635,42.575163],[-70.852725,42.575134],[-70.853197,42.574968],[-70.85374,42.574761],[-70.854249,42.574559],[-70.854442,42.574483],[-70.854617,42.574401],[-70.854879,42.574269],[-70.854984,42.574203],[-70.855088,42.574137],[-70.855429,42.573864],[-70.855581,42.573718],[-70.855718,42.573536],[-70.855815,42.573418],[-70.855914,42.573297],[-70.856236,42.5729],[-70.856837,42.572129],[-70.857325,42.571505],[-70.857508,42.571269],[-70.857665,42.571067],[-70.85798,42.570662],[-70.858014,42.570619],[-70.858219,42.570409],[-70.858392,42.570243],[-70.858555,42.570086],[-70.858678,42.569916],[-70.858903,42.569515],[-70.858957,42.569433],[-70.85908,42.56928],[-70.859568,42.568697],[-70.860415,42.567691],[-70.861183,42.566779],[-70.861275,42.566688],[-70.861368,42.566606],[-70.861492,42.566525],[-70.861674,42.566418],[-70.861844,42.566341],[-70.862004,42.566277],[-70.862081,42.566253],[-70.862276,42.566193],[-70.862489,42.56614],[-70.862669,42.566087],[-70.862848,42.566024],[-70.863111,42.565908],[-70.863629,42.565648],[-70.864555,42.565181],[-70.865276,42.564816],[-70.865551,42.564678],[-70.865862,42.564521],[-70.866115,42.564347],[-70.866349,42.564145],[-70.866705,42.563828],[-70.867457,42.56316],[-70.868182,42.562494],[-70.86829,42.562395],[-70.868096,42.562239],[-70.867862,42.562119],[-70.867628,42.562],[-70.866902,42.561669],[-70.866339,42.561408],[-70.864954,42.560758],[-70.86379,42.560207],[-70.862188,42.559449],[-70.860832,42.558776],[-70.860492,42.558539],[-70.860409,42.558462],[-70.860312,42.558371],[-70.860263,42.558273],[-70.860226,42.558176],[-70.860271,42.557923],[-70.859945,42.558222],[-70.859819,42.558299],[-70.859681,42.558354],[-70.859429,42.558427],[-70.859216,42.558495],[-70.858883,42.558614],[-70.858726,42.558645],[-70.858513,42.558672],[-70.858187,42.558712],[-70.857989,42.55876],[-70.857612,42.558901],[-70.85719,42.559135],[-70.85692,42.559254],[-70.856627,42.559349],[-70.856538,42.559385],[-70.856456,42.559453],[-70.856374,42.559583],[-70.856271,42.559786],[-70.856251,42.559879],[-70.856249,42.56011],[-70.856235,42.560254],[-70.856178,42.560346],[-70.856077,42.56042],[-70.855945,42.560502],[-70.855844,42.56053],[-70.855669,42.560519],[-70.855413,42.560486],[-70.8552,42.560485],[-70.854968,42.560519],[-70.854864,42.560549],[-70.854767,42.560579],[-70.854622,42.560666],[-70.854584,42.560701],[-70.854379,42.560867],[-70.854069,42.561099],[-70.853663,42.561438],[-70.85326,42.561746],[-70.853096,42.561895],[-70.852982,42.56201],[-70.852795,42.562223],[-70.852575,42.562461],[-70.852288,42.562817],[-70.851884,42.562604],[-70.851776,42.562556],[-70.851683,42.562499],[-70.851531,42.562372],[-70.851475,42.562282],[-70.851444,42.562204],[-70.851404,42.562046],[-70.851339,42.561857],[-70.851298,42.561775],[-70.850606,42.561807],[-70.849301,42.561897],[-70.84903,42.561906],[-70.848899,42.561898],[-70.848795,42.561878],[-70.848753,42.56187],[-70.848513,42.56184],[-70.848315,42.56181],[-70.848341,42.561976],[-70.848604,42.562359],[-70.848829,42.562752],[-70.848875,42.5629],[-70.848929,42.562921],[-70.849061,42.563135],[-70.849285,42.563375],[-70.849339,42.563473],[-70.849324,42.563568],[-70.849254,42.563677],[-70.848961,42.563965],[-70.848466,42.564388],[-70.847985,42.564957],[-70.846557,42.564452],[-70.846353,42.564356],[-70.845053,42.563751],[-70.840977,42.561851],[-70.840627,42.561688],[-70.840036,42.561412],[-70.839395,42.561114],[-70.838294,42.560601],[-70.836199,42.559626],[-70.835713,42.559442],[-70.835188,42.559258],[-70.834465,42.559074],[-70.833513,42.558876],[-70.832611,42.558777],[-70.831922,42.558747],[-70.831557,42.558757],[-70.831592,42.558679],[-70.831636,42.558491],[-70.831649,42.558289],[-70.83167,42.558165],[-70.831713,42.558036],[-70.83177,42.557929],[-70.832179,42.557291],[-70.832356,42.557045],[-70.832433,42.556921],[-70.832449,42.556826],[-70.832424,42.556626],[-70.832348,42.556303],[-70.832192,42.556002],[-70.832121,42.555907],[-70.83202,42.555817],[-70.832187,42.555686],[-70.832981,42.555138],[-70.833101,42.555008],[-70.833225,42.554838],[-70.833343,42.554647],[-70.833493,42.554431],[-70.833627,42.554277],[-70.833708,42.554131],[-70.833839,42.553689],[-70.833923,42.553585],[-70.83408,42.553421],[-70.834251,42.553256],[-70.83452,42.553029],[-70.834706,42.552857],[-70.834855,42.552682],[-70.835066,42.552496],[-70.835281,42.552319],[-70.835372,42.552251],[-70.835412,42.552221],[-70.835596,42.552131],[-70.835782,42.55207],[-70.836025,42.551999],[-70.836256,42.551924],[-70.836458,42.551833],[-70.837024,42.551587],[-70.837292,42.551465],[-70.837575,42.551385],[-70.837896,42.551317],[-70.838319,42.551221],[-70.838405,42.551201],[-70.838489,42.55119],[-70.838557,42.551171],[-70.839386,42.550939],[-70.839637,42.550876],[-70.839799,42.550843],[-70.840001,42.550823],[-70.840247,42.550826],[-70.840603,42.55089],[-70.841074,42.550994],[-70.841405,42.55106],[-70.841624,42.551128],[-70.841836,42.551217],[-70.841976,42.551301],[-70.842123,42.551403],[-70.842303,42.551553],[-70.842445,42.551678],[-70.842681,42.55187],[-70.842867,42.551987],[-70.843004,42.55206],[-70.843115,42.552109],[-70.84356,42.552242],[-70.844118,42.552395],[-70.844326,42.552447],[-70.845205,42.552666],[-70.845471,42.552718],[-70.845683,42.552786],[-70.846672,42.553181],[-70.84672,42.5532],[-70.846988,42.553307],[-70.847475,42.553513],[-70.847506,42.553526],[-70.848244,42.553843],[-70.848483,42.553951],[-70.848972,42.554173],[-70.849013,42.554192],[-70.849829,42.554556],[-70.849829,42.554536],[-70.850054,42.554198],[-70.850181,42.554021],[-70.850206,42.553628],[-70.850257,42.552983],[-70.850244,42.551391],[-70.850236,42.551202],[-70.850228,42.551004],[-70.849749,42.550976],[-70.849293,42.550884],[-70.848898,42.550733],[-70.848674,42.550633],[-70.848395,42.550426],[-70.848264,42.550311],[-70.848179,42.550164],[-70.848171,42.550002],[-70.848186,42.54997],[-70.84831,42.549901],[-70.848549,42.549843],[-70.848634,42.549796],[-70.848566,42.549576],[-70.848542,42.549293],[-70.848534,42.549136],[-70.848649,42.548909],[-70.848665,42.548778],[-70.84858,42.548617],[-70.848425,42.548552],[-70.848209,42.548551],[-70.847869,42.548489],[-70.847752,42.548509],[-70.847582,42.54862],[-70.84749,42.548757],[-70.84742,42.548789],[-70.846825,42.548749],[-70.846562,42.54865],[-70.846392,42.548495],[-70.84636,42.548253],[-70.84643,42.548184],[-70.846422,42.548098],[-70.846198,42.547832],[-70.845943,42.54766],[-70.845819,42.547644],[-70.84561,42.547661],[-70.845479,42.547695],[-70.845324,42.547832],[-70.844644,42.548163],[-70.844327,42.548393],[-70.844103,42.54869],[-70.844041,42.548826],[-70.844041,42.549244],[-70.843663,42.549426],[-70.843013,42.549392],[-70.842735,42.549266],[-70.842503,42.549211],[-70.842248,42.549224],[-70.8419,42.549279],[-70.841467,42.549403],[-70.841312,42.549496],[-70.841242,42.549569],[-70.841181,42.549822],[-70.841196,42.550006],[-70.841212,42.550123],[-70.840516,42.550499],[-70.840377,42.550551],[-70.83999,42.550571],[-70.839905,42.550576],[-70.839565,42.55064],[-70.839434,42.550624],[-70.839333,42.550536],[-70.839155,42.550498],[-70.839124,42.550418],[-70.838668,42.55024],[-70.838451,42.550167],[-70.838158,42.550105],[-70.837678,42.550292],[-70.837501,42.550462],[-70.837346,42.55082],[-70.837114,42.550968],[-70.83655,42.551184],[-70.8358,42.551277],[-70.835557,42.551275],[-70.835429,42.551274],[-70.835096,42.551207],[-70.83481,42.551099],[-70.834655,42.550989],[-70.834647,42.550899],[-70.834686,42.55071],[-70.834802,42.550532],[-70.834802,42.550253],[-70.834748,42.550218],[-70.834624,42.550251],[-70.834438,42.550367],[-70.834299,42.550401],[-70.833851,42.550529],[-70.833603,42.550497],[-70.832992,42.550196],[-70.832846,42.550203],[-70.832753,42.550259],[-70.832568,42.550532],[-70.832343,42.550711],[-70.832343,42.550842],[-70.832382,42.550985],[-70.832305,42.55109],[-70.83198,42.551307],[-70.83164,42.551438],[-70.830967,42.551683],[-70.830233,42.552051],[-70.829815,42.552161],[-70.828856,42.551906],[-70.828679,42.551787],[-70.828485,42.551687],[-70.828377,42.55169],[-70.82823,42.551727],[-70.827913,42.55179],[-70.827766,42.551779],[-70.827294,42.551638],[-70.827062,42.551624],[-70.826119,42.551819],[-70.825694,42.551884],[-70.825462,42.551884],[-70.825276,42.551833],[-70.824951,42.551649],[-70.824727,42.551571],[-70.824488,42.551525],[-70.82417,42.551535],[-70.823621,42.551638],[-70.823219,42.551667],[-70.822833,42.551714],[-70.82264,42.551771],[-70.822415,42.551959],[-70.822276,42.552137],[-70.821966,42.552318],[-70.821704,42.552421],[-70.819585,42.55317],[-70.816941,42.553883],[-70.816558,42.554022],[-70.816028,42.554217],[-70.81568,42.554304],[-70.815642,42.554336],[-70.815278,42.554459],[-70.814544,42.554813],[-70.813562,42.555363],[-70.813477,42.555411],[-70.81292,42.555807],[-70.812355,42.556081],[-70.811713,42.5566],[-70.810577,42.557334],[-70.809904,42.557808],[-70.807785,42.559472],[-70.806432,42.560268],[-70.805813,42.560575],[-70.80497,42.560917],[-70.804807,42.561036],[-70.804606,42.561323],[-70.804483,42.561438],[-70.804235,42.561545],[-70.80391,42.561636],[-70.803532,42.561691],[-70.803369,42.561685],[-70.803245,42.561642],[-70.803075,42.561451],[-70.802936,42.561399],[-70.802611,42.561382],[-70.802511,42.561334],[-70.802317,42.561116],[-70.802247,42.561065],[-70.802093,42.560953],[-70.802023,42.560923],[-70.801876,42.560938],[-70.80142,42.561288],[-70.800423,42.561556],[-70.800268,42.561671],[-70.799928,42.562023],[-70.799595,42.562456],[-70.799378,42.562626],[-70.798984,42.562794],[-70.798728,42.563199],[-70.798581,42.563354],[-70.798342,42.563547],[-70.798133,42.56364],[-70.797483,42.563826],[-70.797236,42.563857],[-70.797027,42.563842],[-70.796957,42.563825],[-70.796911,42.563777],[-70.796934,42.563668],[-70.796447,42.563802],[-70.795906,42.564072],[-70.79572,42.564201],[-70.794676,42.564415],[-70.79442,42.564509],[-70.793577,42.564689],[-70.793539,42.564726],[-70.793438,42.564723],[-70.793385,42.564852],[-70.793378,42.564869],[-70.793408,42.565099],[-70.793599,42.565445],[-70.79346,42.565789],[-70.793459,42.565978],[-70.793495,42.566073],[-70.793499,42.566236],[-70.793499,42.566257],[-70.793474,42.566298],[-70.793449,42.566313],[-70.79347,42.566409],[-70.793379,42.56655],[-70.7932,42.566757],[-70.793159,42.566935],[-70.793272,42.567284],[-70.793311,42.567279],[-70.793405,42.567302],[-70.793459,42.567308],[-70.793526,42.56731],[-70.793589,42.567321],[-70.793633,42.567333],[-70.793666,42.567368],[-70.793762,42.567538],[-70.793791,42.567605],[-70.793767,42.567657],[-70.793701,42.567696],[-70.793645,42.567738],[-70.793641,42.567786],[-70.793685,42.567831],[-70.793783,42.567863],[-70.793872,42.567933],[-70.793948,42.568033],[-70.793977,42.568126],[-70.793966,42.56822],[-70.793904,42.568336],[-70.793849,42.568403],[-70.793827,42.568435],[-70.793789,42.56851],[-70.793794,42.568549],[-70.793824,42.568587],[-70.793877,42.568607],[-70.793982,42.568617],[-70.794045,42.56863],[-70.794122,42.568636],[-70.794203,42.568661],[-70.794219,42.568686],[-70.794185,42.568721],[-70.794125,42.568748],[-70.794101,42.568767],[-70.794097,42.5688],[-70.794124,42.568837],[-70.79418,42.568885],[-70.794217,42.568917],[-70.79421,42.568939],[-70.794166,42.568964],[-70.794102,42.568991],[-70.794078,42.569013],[-70.794081,42.569038],[-70.794087,42.569085],[-70.794071,42.569116],[-70.794029,42.569187],[-70.794029,42.569209],[-70.794072,42.569232],[-70.794149,42.569224],[-70.794206,42.569222],[-70.794266,42.569247],[-70.794337,42.56925],[-70.794418,42.569228],[-70.794452,42.56926],[-70.794512,42.569314],[-70.794714,42.569495],[-70.795672,42.570345],[-70.795877,42.570528],[-70.796166,42.570787],[-70.796266,42.570874],[-70.798034,42.572446],[-70.798074,42.572486],[-70.804095,42.577828]]],[[[-70.796749,42.560024],[-70.796625,42.560134],[-70.796595,42.560292],[-70.796587,42.560504],[-70.79668,42.560561],[-70.797314,42.560695],[-70.79743,42.560689],[-70.79753,42.560647],[-70.797623,42.560542],[-70.797631,42.560469],[-70.797523,42.560381],[-70.797468,42.560161],[-70.797399,42.56005],[-70.797275,42.55998],[-70.796943,42.559958],[-70.796749,42.560024]]]]}},{"type":"Feature","properties":{"ward":"6","precinct":"2","district":"6-2","population_2020":3428},"geometry":{"type":"Polygon","coordinates":[[[-70.824135,42.580582],[-70.82437,42.580751],[-70.826131,42.582017],[-70.827693,42.58314],[-70.828112,42.583547],[-70.82896,42.584416],[-70.829221,42.584637],[-70.829888,42.585289],[-70.834143,42.589441],[-70.835412,42.59069],[-70.835558,42.59069],[-70.836687,42.590694],[-70.840486,42.590712],[-70.843801,42.590741],[-70.844563,42.590741],[-70.845025,42.590741],[-70.847232,42.590745],[-70.84905,42.590754],[-70.850526,42.590761],[-70.853787,42.590776],[-70.857226,42.590791],[-70.857741,42.590794],[-70.859836,42.590803],[-70.859899,42.590804],[-70.860596,42.590807],[-70.860669,42.590808],[-70.860864,42.590808],[-70.860894,42.590808],[-70.860913,42.590808],[-70.862123,42.590813],[-70.863009,42.590818],[-70.863192,42.590815],[-70.864987,42.590825],[-70.866501,42.590833],[-70.869291,42.590846],[-70.869624,42.590847],[-70.869815,42.590844],[-70.869776,42.590819],[-70.869768,42.590792],[-70.870023,42.590527],[-70.870093,42.590494],[-70.870309,42.590464],[-70.870534,42.590316],[-70.870773,42.590285],[-70.870874,42.590171],[-70.870998,42.59016],[-70.87116,42.590193],[-70.871268,42.590164],[-70.871354,42.590023],[-70.871431,42.58999],[-70.871856,42.589988],[-70.871948,42.589942],[-70.872081,42.589876],[-70.872405,42.589857],[-70.872475,42.589825],[-70.872639,42.589842],[-70.8727,42.589141],[-70.872718,42.58894],[-70.872788,42.587791],[-70.874184,42.587506],[-70.874472,42.587453],[-70.875018,42.587338],[-70.87541,42.587257],[-70.875405,42.587246],[-70.875119,42.587057],[-70.875027,42.586933],[-70.874965,42.586668],[-70.874957,42.586389],[-70.874872,42.586183],[-70.874733,42.586136],[-70.874495,42.5861],[-70.873809,42.586007],[-70.873786,42.586053],[-70.873686,42.586072],[-70.873005,42.58598],[-70.872649,42.585986],[-70.872479,42.586043],[-70.871922,42.586349],[-70.871582,42.586422],[-70.87135,42.586439],[-70.871156,42.586384],[-70.871063,42.586291],[-70.870955,42.58604],[-70.870862,42.585988],[-70.870761,42.58599],[-70.870568,42.586218],[-70.870429,42.586301],[-70.87022,42.586251],[-70.869694,42.586273],[-70.8694,42.586205],[-70.869214,42.586132],[-70.868873,42.585899],[-70.868533,42.585526],[-70.868223,42.585099],[-70.86813,42.584767],[-70.86806,42.584687],[-70.867348,42.584325],[-70.867116,42.584108],[-70.867123,42.584036],[-70.867324,42.583749],[-70.867448,42.583284],[-70.867424,42.583194],[-70.867262,42.583079],[-70.867246,42.583035],[-70.867292,42.58293],[-70.867501,42.582675],[-70.867547,42.582444],[-70.867323,42.58202],[-70.867307,42.581633],[-70.867214,42.581509],[-70.867214,42.581392],[-70.867384,42.581078],[-70.867398,42.58029],[-70.86712,42.579979],[-70.867073,42.579827],[-70.866996,42.579806],[-70.866369,42.579411],[-70.865912,42.579306],[-70.865548,42.579433],[-70.865347,42.57945],[-70.86527,42.579429],[-70.865169,42.579313],[-70.865061,42.579085],[-70.864906,42.578867],[-70.864704,42.5787],[-70.864488,42.578595],[-70.864248,42.578662],[-70.863808,42.578849],[-70.863794,42.578853],[-70.863391,42.578956],[-70.863119,42.579054],[-70.862507,42.579295],[-70.862149,42.5793],[-70.861676,42.579242],[-70.861337,42.57909],[-70.861109,42.57875],[-70.860948,42.578494],[-70.860108,42.578094],[-70.859224,42.577424],[-70.858818,42.576891],[-70.858605,42.576736],[-70.858121,42.576218],[-70.857418,42.575548],[-70.857156,42.57516],[-70.857142,42.574699],[-70.857144,42.574572],[-70.857077,42.574152],[-70.857477,42.573979],[-70.857567,42.573854],[-70.857573,42.573782],[-70.857558,42.57371],[-70.857482,42.573646],[-70.857386,42.573599],[-70.857253,42.573561],[-70.856751,42.573487],[-70.855815,42.573418],[-70.855718,42.573536],[-70.855581,42.573718],[-70.855429,42.573864],[-70.855088,42.574137],[-70.854984,42.574203],[-70.854879,42.574269],[-70.854617,42.574401],[-70.854442,42.574483],[-70.854249,42.574559],[-70.85374,42.574761],[-70.853197,42.574968],[-70.852725,42.575134],[-70.852635,42.575163],[-70.852429,42.575229],[-70.851503,42.575506],[-70.850692,42.575754],[-70.850555,42.5758],[-70.850402,42.575866],[-70.850264,42.575927],[-70.850136,42.575995],[-70.850059,42.576036],[-70.849849,42.576165],[-70.849745,42.576234],[-70.849627,42.576312],[-70.849466,42.576444],[-70.849365,42.576542],[-70.849267,42.576647],[-70.84902,42.576949],[-70.848658,42.576968],[-70.848691,42.576798],[-70.848992,42.576194],[-70.849108,42.576039],[-70.849602,42.575739],[-70.849603,42.575617],[-70.849463,42.575376],[-70.849339,42.574761],[-70.849447,42.574593],[-70.849818,42.574249],[-70.849818,42.574168],[-70.849532,42.573551],[-70.849483,42.572923],[-70.849283,42.572913],[-70.84889,42.572905],[-70.847965,42.572918],[-70.846949,42.572961],[-70.846701,42.572985],[-70.846102,42.573044],[-70.845572,42.573097],[-70.844756,42.573215],[-70.844103,42.573322],[-70.84359,42.573427],[-70.843027,42.57356],[-70.842996,42.573567],[-70.842231,42.573758],[-70.841464,42.57397],[-70.840492,42.5743],[-70.839265,42.574736],[-70.837872,42.575225],[-70.837252,42.575443],[-70.837099,42.575496],[-70.837014,42.575526],[-70.836363,42.575774],[-70.83613,42.575876],[-70.835819,42.576013],[-70.835047,42.576381],[-70.834369,42.576675],[-70.833856,42.576882],[-70.833368,42.577055],[-70.832975,42.577208],[-70.832567,42.577349],[-70.831765,42.577615],[-70.830274,42.578052],[-70.829616,42.578245],[-70.827673,42.578797],[-70.827145,42.578981],[-70.826726,42.579136],[-70.826417,42.579262],[-70.82596,42.579476],[-70.82553,42.579695],[-70.825511,42.579705],[-70.825,42.580001],[-70.82451,42.580296],[-70.824301,42.580457],[-70.824152,42.580572],[-70.824135,42.580582]]]}}]}