{"type":"FeatureCollection","name":"Malden wards and precincts (2022)","source":"MassGIS, Wards and Precincts (2022), https://arcgisserver.digital.mass.gov/arcgisserver/rest/services/AGOL/WardsPrecincts2022/FeatureServer/0","features":[{"type":"Feature","properties":{"ward":"1","precinct":"1","district":"1-1","population_2020":2682},"geometry":{"type":"Polygon","coordinates":[[[-71.062973,42.423253],[-71.06317,42.423366],[-71.063109,42.42341],[-71.062481,42.423856],[-71.062778,42.42411],[-71.062995,42.424352],[-71.063239,42.4243],[-71.063736,42.424948],[-71.06326,42.425175],[-71.062822,42.425396],[-71.06224,42.425648],[-71.062002,42.42576],[-71.061156,42.426183],[-71.061455,42.426099],[-71.061682,42.426066],[-71.061964,42.426036],[-71.062242,42.426036],[-71.062536,42.426044],[-71.062967,42.426062],[-71.063302,42.42605],[-71.06356,42.426006],[-71.063653,42.425986],[-71.063772,42.42596],[-71.063907,42.425907],[-71.064004,42.425868],[-71.064383,42.425697],[-71.064929,42.42543],[-71.065281,42.425312],[-71.065374,42.425438],[-71.065782,42.425323],[-71.066173,42.42527],[-71.066546,42.425268],[-71.066982,42.425285],[-71.067719,42.42534],[-71.06829,42.425347],[-71.068683,42.425369],[-71.069231,42.425387],[-71.071462,42.425481],[-71.072804,42.425553],[-71.073849,42.425749],[-71.074199,42.425885],[-71.07452,42.425987],[-71.074564,42.425877],[-71.075016,42.424756],[-71.075595,42.423328],[-71.076242,42.42171],[-71.076489,42.42098],[-71.076636,42.420496],[-71.076684,42.420237],[-71.076702,42.420143],[-71.076777,42.419544],[-71.076797,42.418605],[-71.076804,42.417639],[-71.075669,42.417642],[-71.074988,42.417694],[-71.073665,42.417829],[-71.073461,42.417853],[-71.073218,42.418682],[-71.073179,42.418547],[-71.073077,42.417899],[-71.072926,42.417917],[-71.072371,42.418007],[-71.072118,42.418063],[-71.071921,42.418071],[-71.071353,42.418095],[-71.07064,42.418138],[-71.069436,42.418182],[-71.068395,42.41824],[-71.067377,42.418287],[-71.067447,42.419034],[-71.067533,42.419734],[-71.06675,42.419823],[-71.066019,42.419896],[-71.065215,42.42003],[-71.06431,42.420194],[-71.06444,42.420387],[-71.064526,42.420561],[-71.064545,42.420713],[-71.064543,42.420924],[-71.064454,42.42124],[-71.06439,42.421599],[-71.064266,42.42209],[-71.06412,42.422281],[-71.063895,42.422493],[-71.063664,42.422672],[-71.06323,42.423007],[-71.062973,42.423253]]]}},{"type":"Feature","properties":{"ward":"1","precinct":"2","district":"1-2","population_2020":2814},"geometry":{"type":"MultiPolygon","coordinates":[[[[-71.07108,42.414921],[-71.070856,42.414929],[-71.07037,42.414943],[-71.069291,42.415021],[-71.06813,42.415081],[-71.067246,42.415104],[-71.066374,42.415159],[-71.065307,42.415217],[-71.064508,42.41525],[-71.064559,42.415317],[-71.06456,42.415343],[-71.064061,42.415382],[-71.063884,42.415399],[-71.062858,42.415495],[-71.062284,42.415538],[-71.061585,42.415619],[-71.06132,42.415706],[-71.060793,42.415895],[-71.060442,42.416016],[-71.060145,42.416183],[-71.059882,42.416397],[-71.06039,42.41677],[-71.060609,42.41693],[-71.061314,42.417416],[-71.061793,42.417763],[-71.062138,42.418021],[-71.06243,42.418223],[-71.062897,42.41856],[-71.063337,42.418867],[-71.063653,42.419145],[-71.063997,42.419676],[-71.064121,42.419859],[-71.06431,42.420194],[-71.065215,42.42003],[-71.066019,42.419896],[-71.06675,42.419823],[-71.067533,42.419734],[-71.067447,42.419034],[-71.067377,42.418287],[-71.068395,42.41824],[-71.069436,42.418182],[-71.07064,42.418138],[-71.071353,42.418095],[-71.071921,42.418071],[-71.072118,42.418063],[-71.072371,42.418007],[-71.072926,42.417917],[-71.073077,42.417899],[-71.07297,42.417223],[-71.072874,42.416882],[-71.072874,42.416738],[-71.072942,42.416444],[-71.072943,42.416134],[-71.072819,42.415316],[-71.072826,42.414889],[-71.07108,42.414921]]],[[[-71.073535,42.413327],[-71.073659,42.414013],[-71.073659,42.414126],[-71.07363,42.414203],[-71.073476,42.414453],[-71.073446,42.414985],[-71.073463,42.415732],[-71.073578,42.416406],[-71.073558,42.417217],[-71.073586,42.417482],[-71.073567,42.417545],[-71.07346,42.417691],[-71.07346,42.417804],[-71.073461,42.417853],[-71.073665,42.417829],[-71.074988,42.417694],[-71.075669,42.417642],[-71.076804,42.417639],[-71.076797,42.415949],[-71.076794,42.41447],[-71.076798,42.413306],[-71.076799,42.413274],[-71.076802,42.413205],[-71.076619,42.413156],[-71.076297,42.413072],[-71.076182,42.413136],[-71.07605,42.413205],[-71.075947,42.413246],[-71.075863,42.413275],[-71.075839,42.413294],[-71.075589,42.41333],[-71.075482,42.413327],[-71.075376,42.413298],[-71.075222,42.413179],[-71.075145,42.413072],[-71.074895,42.41282],[-71.074673,42.412676],[-71.074462,42.412612],[-71.074153,42.412626],[-71.073912,42.412676],[-71.073758,42.412742],[-71.073604,42.412839],[-71.073526,42.412971],[-71.073535,42.413327]]]]}},{"type":"Feature","properties":{"ward":"1","precinct":"3","district":"1-3","population_2020":2774},"geometry":{"type":"Polygon","coordinates":[[[-71.059982,42.422268],[-71.060955,42.422612],[-71.061731,42.42288],[-71.061863,42.422921],[-71.062343,42.423084],[-71.062541,42.423152],[-71.062661,42.42318],[-71.062886,42.423233],[-71.062973,42.423253],[-71.06323,42.423007],[-71.063664,42.422672],[-71.063895,42.422493],[-71.06412,42.422281],[-71.064266,42.42209],[-71.06439,42.421599],[-71.064454,42.42124],[-71.064543,42.420924],[-71.064545,42.420713],[-71.064526,42.420561],[-71.06444,42.420387],[-71.06431,42.420194],[-71.064121,42.419859],[-71.063997,42.419676],[-71.063653,42.419145],[-71.063337,42.418867],[-71.062897,42.41856],[-71.06243,42.418223],[-71.062138,42.418021],[-71.061793,42.417763],[-71.061314,42.417416],[-71.060609,42.41693],[-71.06039,42.41677],[-71.059882,42.416397],[-71.059161,42.416932],[-71.059075,42.416995],[-71.058625,42.417321],[-71.058594,42.417345],[-71.05835,42.417533],[-71.057959,42.417832],[-71.057406,42.418241],[-71.056851,42.41868],[-71.056592,42.418838],[-71.056327,42.419002],[-71.056047,42.419174],[-71.056022,42.419191],[-71.055925,42.419256],[-71.055879,42.419286],[-71.054736,42.420047],[-71.054581,42.420043],[-71.054759,42.420126],[-71.054938,42.42021],[-71.055254,42.420314],[-71.055449,42.420381],[-71.055606,42.420437],[-71.056052,42.420577],[-71.05654,42.420743],[-71.056894,42.420855],[-71.057058,42.420903],[-71.057458,42.421035],[-71.057707,42.421142],[-71.057811,42.421187],[-71.057865,42.42121],[-71.057921,42.421238],[-71.058065,42.421309],[-71.058717,42.421734],[-71.058972,42.421864],[-71.059341,42.422023],[-71.059982,42.422268]]]}},{"type":"Feature","properties":{"ward":"2","precinct":"1","district":"2-1","population_2020":2664},"geometry":{"type":"Polygon","coordinates":[[[-71.07452,42.425987],[-71.073969,42.427331],[-71.073934,42.427328],[-71.073421,42.42734],[-71.073362,42.427642],[-71.073356,42.427672],[-71.073267,42.427908],[-71.073047,42.428142],[-71.072953,42.428237],[-71.072749,42.428345],[-71.072539,42.428427],[-71.072325,42.428481],[-71.072424,42.428914],[-71.071792,42.428999],[-71.072101,42.430042],[-71.072527,42.429969],[-71.072994,42.429883],[-71.074202,42.42966],[-71.074112,42.429297],[-71.074532,42.429249],[-71.075372,42.429188],[-71.076277,42.429116],[-71.076202,42.428688],[-71.076182,42.428572],[-71.076159,42.428453],[-71.076077,42.428027],[-71.075932,42.427174],[-71.076277,42.427154],[-71.076823,42.427128],[-71.077553,42.427003],[-71.079316,42.426782],[-71.079856,42.426714],[-71.081066,42.426571],[-71.081484,42.426532],[-71.081646,42.426512],[-71.081872,42.426483],[-71.082357,42.426401],[-71.08278,42.426294],[-71.08339,42.426133],[-71.084044,42.425973],[-71.084771,42.425777],[-71.084314,42.425196],[-71.084004,42.424824],[-71.083541,42.424435],[-71.082878,42.423832],[-71.082593,42.423868],[-71.08168,42.423999],[-71.080695,42.42415],[-71.080734,42.424364],[-71.079422,42.424504],[-71.079404,42.424375],[-71.079382,42.423967],[-71.078395,42.423969],[-71.077544,42.42398],[-71.076597,42.423922],[-71.076655,42.423381],[-71.07573,42.423338],[-71.075595,42.423328],[-71.075016,42.424756],[-71.074564,42.425877],[-71.07452,42.425987]]]}},{"type":"Feature","properties":{"ward":"2","precinct":"2","district":"2-2","population_2020":2640},"geometry":{"type":"Polygon","coordinates":[[[-71.075595,42.423328],[-71.07573,42.423338],[-71.076655,42.423381],[-71.076597,42.423922],[-71.077544,42.42398],[-71.078395,42.423969],[-71.079382,42.423967],[-71.079404,42.424375],[-71.079422,42.424504],[-71.080734,42.424364],[-71.080695,42.42415],[-71.08168,42.423999],[-71.082593,42.423868],[-71.082878,42.423832],[-71.082452,42.423395],[-71.082408,42.422648],[-71.082409,42.422387],[-71.082399,42.422036],[-71.082276,42.421734],[-71.081994,42.421056],[-71.081731,42.420381],[-71.081572,42.420017],[-71.081388,42.419546],[-71.081267,42.419245],[-71.081276,42.418612],[-71.081271,42.417664],[-71.080656,42.417661],[-71.081282,42.416714],[-71.081808,42.415933],[-71.081317,42.415922],[-71.080507,42.41592],[-71.079645,42.415926],[-71.079539,42.415173],[-71.079521,42.415027],[-71.079311,42.414947],[-71.07718,42.41333],[-71.077133,42.413294],[-71.076802,42.413205],[-71.076799,42.413274],[-71.076798,42.413306],[-71.076794,42.41447],[-71.076797,42.415949],[-71.076804,42.417639],[-71.076797,42.418605],[-71.076777,42.419544],[-71.076702,42.420143],[-71.076684,42.420237],[-71.076636,42.420496],[-71.076489,42.42098],[-71.076242,42.42171],[-71.075595,42.423328]]]}},{"type":"Feature","properties":{"ward":"2","precinct":"3","district":"2-3","population_2020":2693},"geometry":{"type":"Polygon","coordinates":[[[-71.082878,42.423832],[-71.083541,42.424435],[-71.084004,42.424824],[-71.084314,42.425196],[-71.084771,42.425777],[-71.08525,42.425656],[-71.085587,42.425581],[-71.085975,42.425479],[-71.086875,42.425298],[-71.08702,42.423307],[-71.087081,42.423118],[-71.087273,42.423215],[-71.08757,42.423285],[-71.087864,42.423331],[-71.087991,42.423345],[-71.088066,42.42336],[-71.088043,42.423302],[-71.088017,42.423236],[-71.087975,42.423134],[-71.087673,42.42238],[-71.087248,42.421324],[-71.087163,42.421113],[-71.086543,42.419569],[-71.08634,42.419064],[-71.086286,42.41893],[-71.086229,42.418789],[-71.086075,42.418406],[-71.085981,42.418171],[-71.085925,42.41803],[-71.085881,42.417922],[-71.085762,42.417855],[-71.085668,42.4178],[-71.085559,42.417739],[-71.084309,42.416627],[-71.084278,42.416574],[-71.083491,42.416016],[-71.082062,42.415328],[-71.081725,42.415166],[-71.081069,42.415102],[-71.079911,42.415175],[-71.079521,42.415027],[-71.079539,42.415173],[-71.079645,42.415926],[-71.080507,42.41592],[-71.081317,42.415922],[-71.081808,42.415933],[-71.081282,42.416714],[-71.080656,42.417661],[-71.081271,42.417664],[-71.081276,42.418612],[-71.081267,42.419245],[-71.081388,42.419546],[-71.081572,42.420017],[-71.081731,42.420381],[-71.081994,42.421056],[-71.082276,42.421734],[-71.082399,42.422036],[-71.082409,42.422387],[-71.082408,42.422648],[-71.082452,42.423395],[-71.082878,42.423832]]]}},{"type":"Feature","properties":{"ward":"3","precinct":"1","district":"3-1","population_2020":2658},"geometry":{"type":"Polygon","coordinates":[[[-71.082117,42.443949],[-71.083759,42.444298],[-71.084839,42.444527],[-71.085194,42.444602],[-71.08564,42.444697],[-71.085906,42.442957],[-71.086071,42.441871],[-71.08634,42.440113],[-71.086578,42.438558],[-71.086662,42.438008],[-71.086673,42.437932],[-71.08685,42.436777],[-71.086865,42.436681],[-71.087044,42.435502],[-71.087251,42.434148],[-71.087376,42.433335],[-71.087463,42.432766],[-71.087469,42.432724],[-71.087476,42.43268],[-71.087481,42.432644],[-71.087489,42.432598],[-71.087507,42.432479],[-71.087729,42.431023],[-71.087854,42.430208],[-71.087922,42.429759],[-71.087976,42.429401],[-71.088032,42.429035],[-71.088361,42.429063],[-71.08866,42.429089],[-71.089063,42.429124],[-71.089431,42.426733],[-71.089447,42.426632],[-71.088719,42.424985],[-71.088715,42.424969],[-71.088645,42.424805],[-71.088302,42.42395],[-71.088077,42.423386],[-71.088066,42.42336],[-71.087991,42.423345],[-71.087864,42.423331],[-71.08757,42.423285],[-71.087273,42.423215],[-71.087081,42.423118],[-71.08702,42.423307],[-71.086875,42.425298],[-71.085975,42.425479],[-71.085587,42.425581],[-71.08525,42.425656],[-71.084771,42.425777],[-71.084044,42.425973],[-71.08339,42.426133],[-71.08278,42.426294],[-71.082357,42.426401],[-71.081872,42.426483],[-71.081646,42.426512],[-71.081484,42.426532],[-71.081066,42.426571],[-71.081144,42.426985],[-71.081315,42.428087],[-71.081391,42.428622],[-71.081971,42.428567],[-71.082295,42.428624],[-71.082522,42.428711],[-71.082848,42.428918],[-71.082714,42.429189],[-71.082675,42.429419],[-71.082688,42.429681],[-71.082797,42.430007],[-71.083009,42.430296],[-71.083244,42.430543],[-71.083317,42.430801],[-71.083377,42.431182],[-71.083461,42.431781],[-71.083641,42.432971],[-71.083407,42.432995],[-71.082906,42.433008],[-71.082272,42.433025],[-71.082336,42.433196],[-71.082434,42.433282],[-71.082549,42.433382],[-71.082857,42.433633],[-71.083178,42.433907],[-71.082043,42.433945],[-71.080993,42.433971],[-71.080251,42.433994],[-71.080265,42.434548],[-71.080232,42.434617],[-71.079836,42.435032],[-71.079765,42.435208],[-71.079738,42.436726],[-71.079741,42.437095],[-71.079721,42.437437],[-71.079533,42.437392],[-71.079281,42.437334],[-71.078788,42.437234],[-71.078481,42.437164],[-71.07826,42.437113],[-71.077701,42.436967],[-71.077147,42.43683],[-71.076669,42.436784],[-71.076155,42.436754],[-71.075718,42.4367],[-71.075456,42.436652],[-71.075415,42.436989],[-71.075391,42.43718],[-71.0754,42.437631],[-71.075397,42.43776],[-71.075465,42.437774],[-71.075511,42.437788],[-71.075547,42.437808],[-71.075583,42.437849],[-71.075601,42.437903],[-71.075583,42.437944],[-71.075519,42.43797],[-71.075427,42.437977],[-71.075362,42.438005],[-71.075033,42.438181],[-71.074782,42.438301],[-71.074571,42.438337],[-71.074178,42.438327],[-71.074431,42.438666],[-71.074605,42.438968],[-71.074129,42.439022],[-71.074088,42.439396],[-71.074053,42.439617],[-71.074014,42.439766],[-71.074419,42.439724],[-71.074525,42.439714],[-71.076435,42.439517],[-71.078333,42.439322],[-71.081004,42.439038],[-71.08292,42.438849],[-71.082628,42.440751],[-71.082468,42.44172],[-71.082136,42.443826],[-71.082117,42.443949]]]}},{"type":"Feature","properties":{"ward":"3","precinct":"2","district":"3-2","population_2020":2632},"geometry":{"type":"Polygon","coordinates":[[[-71.072308,42.432067],[-71.072515,42.432022],[-71.073077,42.432006],[-71.073471,42.431991],[-71.07395,42.43198],[-71.074827,42.431967],[-71.075324,42.431883],[-71.075762,42.431813],[-71.076788,42.431649],[-71.077434,42.431553],[-71.077649,42.431525],[-71.07806,42.431481],[-71.079511,42.431394],[-71.080579,42.431317],[-71.081771,42.431237],[-71.081872,42.431918],[-71.081873,42.431978],[-71.082098,42.432605],[-71.082272,42.433025],[-71.082906,42.433008],[-71.083407,42.432995],[-71.083641,42.432971],[-71.083461,42.431781],[-71.083377,42.431182],[-71.083317,42.430801],[-71.083244,42.430543],[-71.083009,42.430296],[-71.082797,42.430007],[-71.082688,42.429681],[-71.082675,42.429419],[-71.082714,42.429189],[-71.082848,42.428918],[-71.082522,42.428711],[-71.082295,42.428624],[-71.081971,42.428567],[-71.081391,42.428622],[-71.081315,42.428087],[-71.081144,42.426985],[-71.081066,42.426571],[-71.079856,42.426714],[-71.079316,42.426782],[-71.077553,42.427003],[-71.076823,42.427128],[-71.076277,42.427154],[-71.075932,42.427174],[-71.076077,42.428027],[-71.076159,42.428453],[-71.076182,42.428572],[-71.076202,42.428688],[-71.076277,42.429116],[-71.075372,42.429188],[-71.074532,42.429249],[-71.074112,42.429297],[-71.074202,42.42966],[-71.072994,42.429883],[-71.072828,42.430269],[-71.072728,42.430503],[-71.072107,42.432023],[-71.072308,42.432067]]]}},{"type":"Feature","properties":{"ward":"3","precinct":"3","district":"3-3","population_2020":2819},"geometry":{"type":"Polygon","coordinates":[[[-71.072308,42.432067],[-71.07231,42.432889],[-71.072277,42.433098],[-71.072225,42.433242],[-71.072128,42.433411],[-71.072005,42.433605],[-71.071945,42.433796],[-71.07195,42.434029],[-71.071962,42.434288],[-71.071983,42.434728],[-71.071983,42.434998],[-71.071996,42.435371],[-71.072231,42.435594],[-71.07248,42.435776],[-71.072577,42.435833],[-71.07273,42.435865],[-71.072849,42.435855],[-71.072804,42.435926],[-71.072791,42.43597],[-71.072805,42.436304],[-71.07282,42.436694],[-71.07213,42.436644],[-71.071979,42.436634],[-71.07193,42.43663],[-71.071665,42.436519],[-71.071413,42.43644],[-71.071355,42.436582],[-71.071233,42.43685],[-71.071149,42.437115],[-71.071117,42.43732],[-71.07111,42.437408],[-71.071093,42.437612],[-71.071086,42.437809],[-71.071144,42.438063],[-71.071235,42.438351],[-71.071415,42.43895],[-71.071517,42.439502],[-71.07162,42.440009],[-71.074014,42.439766],[-71.074053,42.439617],[-71.074088,42.439396],[-71.074129,42.439022],[-71.074605,42.438968],[-71.074431,42.438666],[-71.074178,42.438327],[-71.074571,42.438337],[-71.074782,42.438301],[-71.075033,42.438181],[-71.075362,42.438005],[-71.075427,42.437977],[-71.075519,42.43797],[-71.075583,42.437944],[-71.075601,42.437903],[-71.075583,42.437849],[-71.075547,42.437808],[-71.075511,42.437788],[-71.075465,42.437774],[-71.075397,42.43776],[-71.0754,42.437631],[-71.075391,42.43718],[-71.075415,42.436989],[-71.075456,42.436652],[-71.075718,42.4367],[-71.076155,42.436754],[-71.076669,42.436784],[-71.077147,42.43683],[-71.077701,42.436967],[-71.07826,42.437113],[-71.078481,42.437164],[-71.078788,42.437234],[-71.079281,42.437334],[-71.079533,42.437392],[-71.079721,42.437437],[-71.079741,42.437095],[-71.079738,42.436726],[-71.079765,42.435208],[-71.079836,42.435032],[-71.080232,42.434617],[-71.080265,42.434548],[-71.080251,42.433994],[-71.080993,42.433971],[-71.082043,42.433945],[-71.083178,42.433907],[-71.082857,42.433633],[-71.082549,42.433382],[-71.082434,42.433282],[-71.082336,42.433196],[-71.082272,42.433025],[-71.082098,42.432605],[-71.081873,42.431978],[-71.081872,42.431918],[-71.081771,42.431237],[-71.080579,42.431317],[-71.079511,42.431394],[-71.07806,42.431481],[-71.077649,42.431525],[-71.077434,42.431553],[-71.076788,42.431649],[-71.075762,42.431813],[-71.075324,42.431883],[-71.074827,42.431967],[-71.07395,42.43198],[-71.073471,42.431991],[-71.073077,42.432006],[-71.072515,42.432022],[-71.072308,42.432067]]]}},{"type":"Feature","properties":{"ward":"4","precinct":"1","district":"4-1","population_2020":2809},"geometry":{"type":"Polygon","coordinates":[[[-71.067702,42.435655],[-71.067697,42.435832],[-71.067667,42.436206],[-71.067655,42.436436],[-71.067634,42.436579],[-71.067594,42.436707],[-71.067531,42.43686],[-71.067449,42.43702],[-71.067298,42.437203],[-71.067192,42.43739],[-71.067177,42.437453],[-71.067153,42.437554],[-71.067132,42.437756],[-71.067097,42.43825],[-71.067081,42.438822],[-71.06708,42.438988],[-71.067096,42.439159],[-71.067134,42.439354],[-71.067182,42.439519],[-71.067199,42.439574],[-71.067205,42.439588],[-71.067338,42.439881],[-71.067658,42.44042],[-71.068618,42.440322],[-71.06894,42.440287],[-71.069839,42.440193],[-71.069985,42.44018],[-71.070317,42.440152],[-71.070554,42.440133],[-71.07162,42.440009],[-71.071517,42.439502],[-71.071415,42.43895],[-71.071235,42.438351],[-71.071144,42.438063],[-71.071086,42.437809],[-71.071093,42.437612],[-71.07111,42.437408],[-71.071117,42.43732],[-71.071149,42.437115],[-71.071233,42.43685],[-71.071355,42.436582],[-71.071413,42.43644],[-71.071665,42.436519],[-71.07193,42.43663],[-71.071979,42.436634],[-71.07213,42.436644],[-71.07282,42.436694],[-71.072805,42.436304],[-71.072791,42.43597],[-71.072804,42.435926],[-71.072849,42.435855],[-71.07273,42.435865],[-71.072577,42.435833],[-71.07248,42.435776],[-71.072231,42.435594],[-71.071996,42.435371],[-71.071983,42.434998],[-71.071983,42.434728],[-71.071962,42.434288],[-71.07195,42.434029],[-71.071945,42.433796],[-71.072005,42.433605],[-71.072128,42.433411],[-71.072225,42.433242],[-71.072277,42.433098],[-71.07231,42.432889],[-71.072308,42.432067],[-71.072107,42.432023],[-71.072728,42.430503],[-71.072828,42.430269],[-71.072994,42.429883],[-71.072527,42.429969],[-71.072101,42.430042],[-71.071383,42.430169],[-71.070544,42.430307],[-71.069893,42.430431],[-71.069321,42.430528],[-71.067611,42.430819],[-71.065805,42.431034],[-71.065869,42.431367],[-71.065919,42.431514],[-71.065986,42.431586],[-71.066091,42.431623],[-71.066207,42.431642],[-71.066479,42.431643],[-71.066703,42.431622],[-71.066832,42.431629],[-71.066901,42.431727],[-71.066944,42.431932],[-71.067002,42.432175],[-71.067119,42.432715],[-71.06746,42.432722],[-71.067903,42.432712],[-71.067897,42.432967],[-71.067903,42.433302],[-71.067862,42.433915],[-71.067794,42.434581],[-71.067773,42.434849],[-71.067747,42.435222],[-71.067702,42.435655]]]}},{"type":"Feature","properties":{"ward":"4","precinct":"2","district":"4-2","population_2020":2796},"geometry":{"type":"Polygon","coordinates":[[[-71.068683,42.425369],[-71.068673,42.425651],[-71.068652,42.425933],[-71.068651,42.426138],[-71.068289,42.426701],[-71.068218,42.426823],[-71.068233,42.427303],[-71.068242,42.427574],[-71.068292,42.427827],[-71.068309,42.428003],[-71.068385,42.428153],[-71.06849,42.428319],[-71.068642,42.428489],[-71.068719,42.428594],[-71.068709,42.428646],[-71.068692,42.428736],[-71.068668,42.428918],[-71.068622,42.429271],[-71.068636,42.429558],[-71.068735,42.429825],[-71.068887,42.430049],[-71.069069,42.430291],[-71.069321,42.430528],[-71.069893,42.430431],[-71.070544,42.430307],[-71.071383,42.430169],[-71.072101,42.430042],[-71.071792,42.428999],[-71.072424,42.428914],[-71.072325,42.428481],[-71.072539,42.428427],[-71.072749,42.428345],[-71.072953,42.428237],[-71.073047,42.428142],[-71.073267,42.427908],[-71.073356,42.427672],[-71.073362,42.427642],[-71.073421,42.42734],[-71.073934,42.427328],[-71.073969,42.427331],[-71.07452,42.425987],[-71.074199,42.425885],[-71.073849,42.425749],[-71.072804,42.425553],[-71.071462,42.425481],[-71.069231,42.425387],[-71.068683,42.425369]]]}},{"type":"Feature","properties":{"ward":"4","precinct":"3","district":"4-3","population_2020":2893},"geometry":{"type":"Polygon","coordinates":[[[-71.061344,42.429363],[-71.061487,42.429401],[-71.061541,42.429443],[-71.061732,42.429823],[-71.061965,42.430304],[-71.062042,42.430452],[-71.062082,42.43053],[-71.062224,42.430803],[-71.062343,42.431049],[-71.062523,42.431423],[-71.062614,42.431609],[-71.062849,42.432079],[-71.062872,42.432191],[-71.062857,42.432247],[-71.062951,42.43229],[-71.063146,42.432278],[-71.063389,42.432271],[-71.063564,42.432313],[-71.063664,42.43243],[-71.063805,42.432643],[-71.063976,42.432946],[-71.064143,42.433119],[-71.064143,42.433433],[-71.064151,42.433646],[-71.064177,42.434015],[-71.064222,42.434215],[-71.064284,42.434735],[-71.064335,42.435045],[-71.064493,42.435169],[-71.064758,42.435255],[-71.064998,42.435297],[-71.065092,42.435276],[-71.065138,42.435265],[-71.065472,42.435206],[-71.06586,42.435127],[-71.066033,42.435063],[-71.066522,42.434881],[-71.066826,42.434835],[-71.0671,42.434832],[-71.067773,42.434849],[-71.067794,42.434581],[-71.067862,42.433915],[-71.067903,42.433302],[-71.067897,42.432967],[-71.067903,42.432712],[-71.06746,42.432722],[-71.067119,42.432715],[-71.067002,42.432175],[-71.066944,42.431932],[-71.066901,42.431727],[-71.066832,42.431629],[-71.066703,42.431622],[-71.066479,42.431643],[-71.066207,42.431642],[-71.066091,42.431623],[-71.065986,42.431586],[-71.065919,42.431514],[-71.065869,42.431367],[-71.065805,42.431034],[-71.067611,42.430819],[-71.069321,42.430528],[-71.069069,42.430291],[-71.068887,42.430049],[-71.068735,42.429825],[-71.068636,42.429558],[-71.068622,42.429271],[-71.068668,42.428918],[-71.068692,42.428736],[-71.068709,42.428646],[-71.068719,42.428594],[-71.068642,42.428489],[-71.06849,42.428319],[-71.068385,42.428153],[-71.068309,42.428003],[-71.068292,42.427827],[-71.068242,42.427574],[-71.068233,42.427303],[-71.068218,42.426823],[-71.068289,42.426701],[-71.068651,42.426138],[-71.068652,42.425933],[-71.068673,42.425651],[-71.068683,42.425369],[-71.06829,42.425347],[-71.067719,42.42534],[-71.066982,42.425285],[-71.066546,42.425268],[-71.066173,42.42527],[-71.065782,42.425323],[-71.065374,42.425438],[-71.064911,42.425602],[-71.064684,42.425683],[-71.064315,42.425856],[-71.064076,42.425975],[-71.063766,42.426097],[-71.063296,42.426179],[-71.062676,42.426487],[-71.062125,42.426779],[-71.061021,42.427364],[-71.06087,42.427445],[-71.061792,42.42914],[-71.061585,42.429243],[-71.061344,42.429363]]]}},{"type":"Feature","properties":{"ward":"5","precinct":"1","district":"5-1","population_2020":2830},"geometry":{"type":"Polygon","coordinates":[[[-71.046111,42.433551],[-71.046425,42.433446],[-71.046744,42.433322],[-71.047184,42.433164],[-71.048035,42.43284],[-71.048277,42.433204],[-71.048609,42.433708],[-71.048931,42.434185],[-71.049267,42.434046],[-71.049667,42.433861],[-71.050114,42.43363],[-71.050531,42.43345],[-71.050818,42.433341],[-71.05119,42.433351],[-71.051413,42.433382],[-71.051876,42.433424],[-71.052152,42.433461],[-71.052448,42.4335],[-71.052761,42.433526],[-71.053126,42.43355],[-71.053349,42.433578],[-71.053604,42.433215],[-71.053783,42.432983],[-71.053902,42.432848],[-71.054125,42.432681],[-71.054335,42.432568],[-71.054498,42.432459],[-71.054701,42.432683],[-71.054863,42.432839],[-71.055004,42.432917],[-71.055132,42.432911],[-71.055298,42.43291],[-71.055259,42.432609],[-71.055241,42.432406],[-71.055643,42.432376],[-71.055875,42.432373],[-71.05611,42.43242],[-71.056171,42.432775],[-71.056211,42.433085],[-71.056587,42.433089],[-71.056893,42.433122],[-71.057183,42.433323],[-71.057364,42.43348],[-71.057541,42.433607],[-71.057759,42.433672],[-71.05804,42.433711],[-71.057936,42.433488],[-71.057721,42.432997],[-71.05812,42.433025],[-71.058351,42.433031],[-71.058572,42.433007],[-71.058817,42.432934],[-71.058412,42.432164],[-71.05832,42.431968],[-71.058281,42.431852],[-71.05828,42.431775],[-71.058568,42.431705],[-71.059057,42.431571],[-71.05944,42.431459],[-71.059968,42.431317],[-71.059796,42.430835],[-71.059594,42.430227],[-71.059776,42.430144],[-71.060292,42.429904],[-71.060873,42.429608],[-71.061344,42.429363],[-71.061585,42.429243],[-71.061792,42.42914],[-71.06087,42.427445],[-71.060624,42.427576],[-71.060425,42.427691],[-71.06001,42.427916],[-71.059849,42.427604],[-71.059669,42.427328],[-71.059452,42.427042],[-71.057831,42.427786],[-71.057248,42.428041],[-71.056461,42.428372],[-71.055931,42.428617],[-71.055504,42.428788],[-71.055081,42.428979],[-71.054692,42.429127],[-71.054391,42.429224],[-71.054023,42.429306],[-71.054138,42.429519],[-71.054334,42.429958],[-71.054351,42.430019],[-71.049493,42.430331],[-71.049521,42.43042],[-71.049684,42.430992],[-71.049069,42.431087],[-71.048784,42.431115],[-71.048685,42.431133],[-71.048544,42.431142],[-71.048459,42.43114],[-71.048281,42.431122],[-71.048188,42.431106],[-71.047749,42.431062],[-71.047528,42.431044],[-71.047422,42.43103],[-71.047211,42.431015],[-71.046725,42.431008],[-71.046225,42.431028],[-71.046063,42.43103],[-71.045683,42.431046],[-71.045843,42.431838],[-71.04612,42.433434],[-71.046111,42.433551]]]}},{"type":"Feature","properties":{"ward":"5","precinct":"2","district":"5-2","population_2020":2747},"geometry":{"type":"Polygon","coordinates":[[[-71.048931,42.434185],[-71.049379,42.434877],[-71.049807,42.435499],[-71.050205,42.436092],[-71.050335,42.436293],[-71.050384,42.436459],[-71.050378,42.436667],[-71.050299,42.437107],[-71.050021,42.438041],[-71.049952,42.438363],[-71.049716,42.439441],[-71.049031,42.439443],[-71.04843,42.439462],[-71.048176,42.439461],[-71.048503,42.439886],[-71.048785,42.440119],[-71.048988,42.44032],[-71.049092,42.440549],[-71.049109,42.440735],[-71.049138,42.441176],[-71.049152,42.441481],[-71.049198,42.441705],[-71.049366,42.441852],[-71.049846,42.442066],[-71.050273,42.442209],[-71.051234,42.44211],[-71.051518,42.442081],[-71.052673,42.441962],[-71.053595,42.441868],[-71.055431,42.44168],[-71.056581,42.441561],[-71.056969,42.441525],[-71.057032,42.441513],[-71.057216,42.441494],[-71.059989,42.44121],[-71.060034,42.441205],[-71.061729,42.441031],[-71.063387,42.44086],[-71.064418,42.440755],[-71.064553,42.44074],[-71.065195,42.440673],[-71.066322,42.440558],[-71.067658,42.44042],[-71.067338,42.439881],[-71.067205,42.439588],[-71.067199,42.439574],[-71.067182,42.439519],[-71.067134,42.439354],[-71.067096,42.439159],[-71.06708,42.438988],[-71.067081,42.438822],[-71.067097,42.43825],[-71.067132,42.437756],[-71.067153,42.437554],[-71.067177,42.437453],[-71.067192,42.43739],[-71.067298,42.437203],[-71.067449,42.43702],[-71.067531,42.43686],[-71.067594,42.436707],[-71.067634,42.436579],[-71.067655,42.436436],[-71.067667,42.436206],[-71.067697,42.435832],[-71.067702,42.435655],[-71.066734,42.435825],[-71.066399,42.435898],[-71.066119,42.435971],[-71.065966,42.436011],[-71.065431,42.436167],[-71.06518,42.43624],[-71.064912,42.436302],[-71.064633,42.436343],[-71.064378,42.436358],[-71.064071,42.436358],[-71.063791,42.436338],[-71.06359,42.436291],[-71.063365,42.436218],[-71.062923,42.436012],[-71.062603,42.435917],[-71.062337,42.435913],[-71.06209,42.435938],[-71.061885,42.436008],[-71.061718,42.436114],[-71.061598,42.436249],[-71.061503,42.436423],[-71.061427,42.436623],[-71.061356,42.436767],[-71.061253,42.436946],[-71.061142,42.437027],[-71.061057,42.43708],[-71.060947,42.437141],[-71.060737,42.437187],[-71.06057,42.437232],[-71.0604,42.437308],[-71.060239,42.43742],[-71.059172,42.437279],[-71.059059,42.43726],[-71.058842,42.437236],[-71.05819,42.437123],[-71.058177,42.436966],[-71.058169,42.436869],[-71.058132,42.436633],[-71.058057,42.436561],[-71.05778,42.43656],[-71.05764,42.43616],[-71.057561,42.435916],[-71.057509,42.435538],[-71.057473,42.435256],[-71.057497,42.435067],[-71.057507,42.434992],[-71.057487,42.434721],[-71.056642,42.434778],[-71.055706,42.43487],[-71.055012,42.434942],[-71.054248,42.435029],[-71.054182,42.434724],[-71.054123,42.434598],[-71.054018,42.434465],[-71.053821,42.434278],[-71.053109,42.433849],[-71.053126,42.43355],[-71.052761,42.433526],[-71.052448,42.4335],[-71.052152,42.433461],[-71.051876,42.433424],[-71.051413,42.433382],[-71.05119,42.433351],[-71.050818,42.433341],[-71.050531,42.43345],[-71.050114,42.43363],[-71.049667,42.433861],[-71.049267,42.434046],[-71.048931,42.434185]]]}},{"type":"Feature","properties":{"ward":"5","precinct":"3","district":"5-3","population_2020":2689},"geometry":{"type":"Polygon","coordinates":[[[-71.053126,42.43355],[-71.053109,42.433849],[-71.053821,42.434278],[-71.054018,42.434465],[-71.054123,42.434598],[-71.054182,42.434724],[-71.054248,42.435029],[-71.055012,42.434942],[-71.055706,42.43487],[-71.056642,42.434778],[-71.057487,42.434721],[-71.057507,42.434992],[-71.057497,42.435067],[-71.057473,42.435256],[-71.057509,42.435538],[-71.057561,42.435916],[-71.05764,42.43616],[-71.05778,42.43656],[-71.058057,42.436561],[-71.058132,42.436633],[-71.058169,42.436869],[-71.058177,42.436966],[-71.05819,42.437123],[-71.058842,42.437236],[-71.059059,42.43726],[-71.059172,42.437279],[-71.060239,42.43742],[-71.0604,42.437308],[-71.06057,42.437232],[-71.060737,42.437187],[-71.060947,42.437141],[-71.061057,42.43708],[-71.061142,42.437027],[-71.061253,42.436946],[-71.061356,42.436767],[-71.061427,42.436623],[-71.061503,42.436423],[-71.061598,42.436249],[-71.061718,42.436114],[-71.061885,42.436008],[-71.06209,42.435938],[-71.062337,42.435913],[-71.062603,42.435917],[-71.062923,42.436012],[-71.063365,42.436218],[-71.06359,42.436291],[-71.063791,42.436338],[-71.064071,42.436358],[-71.064378,42.436358],[-71.064633,42.436343],[-71.064912,42.436302],[-71.06518,42.43624],[-71.065431,42.436167],[-71.065966,42.436011],[-71.066119,42.435971],[-71.066399,42.435898],[-71.066734,42.435825],[-71.067702,42.435655],[-71.067747,42.435222],[-71.067773,42.434849],[-71.0671,42.434832],[-71.066826,42.434835],[-71.066522,42.434881],[-71.066033,42.435063],[-71.06586,42.435127],[-71.065472,42.435206],[-71.065138,42.435265],[-71.065092,42.435276],[-71.064998,42.435297],[-71.064758,42.435255],[-71.064493,42.435169],[-71.064335,42.435045],[-71.064284,42.434735],[-71.064222,42.434215],[-71.064177,42.434015],[-71.064151,42.433646],[-71.064143,42.433433],[-71.064143,42.433119],[-71.063976,42.432946],[-71.063805,42.432643],[-71.063664,42.43243],[-71.063564,42.432313],[-71.063389,42.432271],[-71.063146,42.432278],[-71.062951,42.43229],[-71.062857,42.432247],[-71.062872,42.432191],[-71.062849,42.432079],[-71.062614,42.431609],[-71.062523,42.431423],[-71.062343,42.431049],[-71.062224,42.430803],[-71.062082,42.43053],[-71.062042,42.430452],[-71.061965,42.430304],[-71.061732,42.429823],[-71.061541,42.429443],[-71.061487,42.429401],[-71.061344,42.429363],[-71.060873,42.429608],[-71.060292,42.429904],[-71.059776,42.430144],[-71.059594,42.430227],[-71.059796,42.430835],[-71.059968,42.431317],[-71.05944,42.431459],[-71.059057,42.431571],[-71.058568,42.431705],[-71.05828,42.431775],[-71.058281,42.431852],[-71.05832,42.431968],[-71.058412,42.432164],[-71.058817,42.432934],[-71.058572,42.433007],[-71.058351,42.433031],[-71.05812,42.433025],[-71.057721,42.432997],[-71.057936,42.433488],[-71.05804,42.433711],[-71.057759,42.433672],[-71.057541,42.433607],[-71.057364,42.43348],[-71.057183,42.433323],[-71.056893,42.433122],[-71.056587,42.433089],[-71.056211,42.433085],[-71.056171,42.432775],[-71.05611,42.43242],[-71.055875,42.432373],[-71.055643,42.432376],[-71.055241,42.432406],[-71.055259,42.432609],[-71.055298,42.43291],[-71.055132,42.432911],[-71.055004,42.432917],[-71.054863,42.432839],[-71.054701,42.432683],[-71.054498,42.432459],[-71.054335,42.432568],[-71.054125,42.432681],[-71.053902,42.432848],[-71.053783,42.432983],[-71.053604,42.433215],[-71.053349,42.433578],[-71.053126,42.43355]]]}},{"type":"Feature","properties":{"ward":"6","precinct":"1","district":"6-1","population_2020":2882},"geometry":{"type":"Polygon","coordinates":[[[-71.044177,42.442836],[-71.044188,42.442841],[-71.044197,42.442834],[-71.046296,42.442617],[-71.048697,42.442371],[-71.050273,42.442209],[-71.049846,42.442066],[-71.049366,42.441852],[-71.049198,42.441705],[-71.049152,42.441481],[-71.049138,42.441176],[-71.049109,42.440735],[-71.049092,42.440549],[-71.048988,42.44032],[-71.048785,42.440119],[-71.048503,42.439886],[-71.048176,42.439461],[-71.04843,42.439462],[-71.049031,42.439443],[-71.049716,42.439441],[-71.049952,42.438363],[-71.050021,42.438041],[-71.050299,42.437107],[-71.050378,42.436667],[-71.050384,42.436459],[-71.050335,42.436293],[-71.050205,42.436092],[-71.049807,42.435499],[-71.049379,42.434877],[-71.048931,42.434185],[-71.048609,42.433708],[-71.048277,42.433204],[-71.048035,42.43284],[-71.047184,42.433164],[-71.046744,42.433322],[-71.046425,42.433446],[-71.046111,42.433551],[-71.046107,42.433608],[-71.046027,42.433858],[-71.045922,42.434122],[-71.045795,42.434359],[-71.045641,42.434653],[-71.04551,42.434914],[-71.045491,42.43497],[-71.04543,42.435146],[-71.045396,42.435243],[-71.045378,42.435504],[-71.045395,42.43561],[-71.0447,42.436056],[-71.044361,42.436366],[-71.044038,42.43661],[-71.043991,42.436453],[-71.04381,42.435849],[-71.043721,42.4356],[-71.043599,42.435463],[-71.043355,42.435236],[-71.043028,42.435092],[-71.042744,42.434998],[-71.042488,42.434993],[-71.042102,42.435041],[-71.041599,42.435106],[-71.040837,42.43519],[-71.040889,42.435425],[-71.040983,42.435654],[-71.041159,42.436085],[-71.041197,42.436165],[-71.040811,42.436282],[-71.040447,42.4364],[-71.040552,42.436507],[-71.040934,42.436768],[-71.040345,42.437272],[-71.040134,42.437111],[-71.040085,42.436994],[-71.039955,42.436992],[-71.039756,42.437018],[-71.039522,42.437332],[-71.039282,42.437691],[-71.039739,42.437827],[-71.04048,42.438061],[-71.040792,42.438153],[-71.04125,42.438177],[-71.041834,42.438197],[-71.042136,42.438233],[-71.042099,42.438453],[-71.042214,42.438677],[-71.042262,42.438784],[-71.041996,42.43886],[-71.041726,42.438919],[-71.041555,42.439037],[-71.041187,42.439388],[-71.041099,42.439536],[-71.041078,42.439584],[-71.041005,42.439776],[-71.040977,42.43995],[-71.04084,42.440568],[-71.041174,42.440651],[-71.041236,42.440705],[-71.041286,42.440749],[-71.041486,42.441032],[-71.041789,42.441292],[-71.042537,42.441798],[-71.042777,42.442064],[-71.042917,42.442266],[-71.044006,42.442758],[-71.044177,42.442836]]]}},{"type":"Feature","properties":{"ward":"6","precinct":"2","district":"6-2","population_2020":2889},"geometry":{"type":"Polygon","coordinates":[[[-71.040447,42.4364],[-71.040811,42.436282],[-71.041197,42.436165],[-71.041159,42.436085],[-71.040983,42.435654],[-71.040889,42.435425],[-71.040837,42.43519],[-71.041599,42.435106],[-71.042102,42.435041],[-71.042488,42.434993],[-71.042744,42.434998],[-71.043028,42.435092],[-71.043355,42.435236],[-71.043599,42.435463],[-71.043721,42.4356],[-71.04381,42.435849],[-71.043991,42.436453],[-71.044038,42.43661],[-71.044361,42.436366],[-71.0447,42.436056],[-71.045395,42.43561],[-71.045378,42.435504],[-71.045396,42.435243],[-71.04543,42.435146],[-71.045491,42.43497],[-71.04551,42.434914],[-71.045641,42.434653],[-71.045795,42.434359],[-71.045922,42.434122],[-71.046027,42.433858],[-71.046107,42.433608],[-71.046111,42.433551],[-71.04612,42.433434],[-71.045843,42.431838],[-71.045683,42.431046],[-71.045604,42.430583],[-71.045531,42.430151],[-71.045481,42.429921],[-71.045405,42.429566],[-71.045402,42.429208],[-71.045234,42.428255],[-71.045138,42.427673],[-71.045007,42.427105],[-71.045113,42.426856],[-71.045188,42.426776],[-71.045091,42.426735],[-71.04504,42.426678],[-71.04502,42.426597],[-71.045106,42.426489],[-71.045241,42.426489],[-71.045196,42.426351],[-71.045167,42.426314],[-71.045028,42.426273],[-71.044605,42.4262],[-71.044366,42.426157],[-71.044192,42.426127],[-71.044064,42.4261],[-71.043951,42.426056],[-71.043831,42.425976],[-71.043742,42.425899],[-71.043704,42.425833],[-71.043708,42.425731],[-71.043758,42.425527],[-71.043689,42.425403],[-71.042125,42.425145],[-71.041761,42.426116],[-71.041653,42.426403],[-71.041416,42.427007],[-71.041309,42.427281],[-71.041274,42.427378],[-71.041147,42.427732],[-71.040758,42.428755],[-71.040713,42.428884],[-71.0406,42.429187],[-71.040411,42.429689],[-71.040312,42.429974],[-71.040208,42.430299],[-71.040092,42.430589],[-71.039974,42.430928],[-71.039956,42.430974],[-71.039825,42.431303],[-71.03973,42.431588],[-71.039516,42.432143],[-71.03942,42.432423],[-71.039321,42.432678],[-71.03848,42.432536],[-71.037831,42.431966],[-71.037723,42.431884],[-71.03746,42.431653],[-71.03728,42.431585],[-71.037038,42.431577],[-71.03683,42.431613],[-71.03669,42.431661],[-71.036586,42.431703],[-71.036449,42.431781],[-71.036282,42.431957],[-71.036226,42.432101],[-71.036209,42.432196],[-71.036206,42.432245],[-71.036234,42.432778],[-71.036278,42.433359],[-71.036262,42.434113],[-71.036692,42.434133],[-71.03747,42.434245],[-71.037991,42.434277],[-71.038344,42.434261],[-71.038628,42.434247],[-71.038756,42.434222],[-71.038551,42.434782],[-71.039049,42.434872],[-71.039448,42.434949],[-71.039831,42.435023],[-71.03985,42.43507],[-71.039985,42.435669],[-71.040007,42.435869],[-71.040066,42.436419],[-71.040447,42.4364]]]}},{"type":"Feature","properties":{"ward":"6","precinct":"3","district":"6-3","population_2020":2714},"geometry":{"type":"Polygon","coordinates":[[[-71.030382,42.442644],[-71.030307,42.442735],[-71.030231,42.442824],[-71.029707,42.443433],[-71.029139,42.444106],[-71.029069,42.444188],[-71.028896,42.444386],[-71.028878,42.444406],[-71.029366,42.444356],[-71.030757,42.444198],[-71.030915,42.444179],[-71.032018,42.444053],[-71.033681,42.443913],[-71.035553,42.44372],[-71.036829,42.44359],[-71.042849,42.442972],[-71.044177,42.442836],[-71.044006,42.442758],[-71.042917,42.442266],[-71.042777,42.442064],[-71.042537,42.441798],[-71.041789,42.441292],[-71.041486,42.441032],[-71.041286,42.440749],[-71.041236,42.440705],[-71.041174,42.440651],[-71.04084,42.440568],[-71.040977,42.43995],[-71.041005,42.439776],[-71.041078,42.439584],[-71.041099,42.439536],[-71.041187,42.439388],[-71.041555,42.439037],[-71.041726,42.438919],[-71.041996,42.43886],[-71.042262,42.438784],[-71.042214,42.438677],[-71.042099,42.438453],[-71.042136,42.438233],[-71.041834,42.438197],[-71.04125,42.438177],[-71.040792,42.438153],[-71.04048,42.438061],[-71.039739,42.437827],[-71.039282,42.437691],[-71.039522,42.437332],[-71.039756,42.437018],[-71.039955,42.436992],[-71.040085,42.436994],[-71.040134,42.437111],[-71.040345,42.437272],[-71.040934,42.436768],[-71.040552,42.436507],[-71.040447,42.4364],[-71.040066,42.436419],[-71.040007,42.435869],[-71.039985,42.435669],[-71.03985,42.43507],[-71.039831,42.435023],[-71.039448,42.434949],[-71.039049,42.434872],[-71.038551,42.434782],[-71.038349,42.43532],[-71.03821,42.435688],[-71.037958,42.436162],[-71.037721,42.436558],[-71.037506,42.436699],[-71.03713,42.436865],[-71.036931,42.436943],[-71.03662,42.437067],[-71.035678,42.437439],[-71.035055,42.437685],[-71.034541,42.437894],[-71.033917,42.438148],[-71.033778,42.438242],[-71.0336,42.438362],[-71.033512,42.438458],[-71.032585,42.439468],[-71.032124,42.439977],[-71.032076,42.440052],[-71.031914,42.440302],[-71.031555,42.440888],[-71.031224,42.441428],[-71.030775,42.442165],[-71.030382,42.442644]]]}},{"type":"Feature","properties":{"ward":"7","precinct":"1","district":"7-1","population_2020":2792},"geometry":{"type":"Polygon","coordinates":[[[-71.055813,42.427225],[-71.056072,42.427659],[-71.056461,42.428372],[-71.057248,42.428041],[-71.057831,42.427786],[-71.059452,42.427042],[-71.059669,42.427328],[-71.059849,42.427604],[-71.06001,42.427916],[-71.060425,42.427691],[-71.060624,42.427576],[-71.06087,42.427445],[-71.061021,42.427364],[-71.062125,42.426779],[-71.062676,42.426487],[-71.063296,42.426179],[-71.063766,42.426097],[-71.064076,42.425975],[-71.064315,42.425856],[-71.064684,42.425683],[-71.064911,42.425602],[-71.065374,42.425438],[-71.065281,42.425312],[-71.064929,42.42543],[-71.064383,42.425697],[-71.064004,42.425868],[-71.063907,42.425907],[-71.063772,42.42596],[-71.063653,42.425986],[-71.06356,42.426006],[-71.063302,42.42605],[-71.062967,42.426062],[-71.062536,42.426044],[-71.062242,42.426036],[-71.061964,42.426036],[-71.061682,42.426066],[-71.061455,42.426099],[-71.061156,42.426183],[-71.062002,42.42576],[-71.06224,42.425648],[-71.062822,42.425396],[-71.06326,42.425175],[-71.063736,42.424948],[-71.063239,42.4243],[-71.062995,42.424352],[-71.062778,42.42411],[-71.062481,42.423856],[-71.063109,42.42341],[-71.06317,42.423366],[-71.062973,42.423253],[-71.062886,42.423233],[-71.062661,42.42318],[-71.062541,42.423152],[-71.062343,42.423084],[-71.061863,42.422921],[-71.061731,42.42288],[-71.060955,42.422612],[-71.059982,42.422268],[-71.059397,42.422719],[-71.058976,42.423042],[-71.058776,42.423193],[-71.058361,42.423506],[-71.057713,42.424015],[-71.057196,42.424372],[-71.056857,42.424107],[-71.056294,42.423681],[-71.055547,42.423137],[-71.054864,42.42368],[-71.054136,42.424236],[-71.053392,42.424781],[-71.053573,42.42491],[-71.054055,42.425253],[-71.054781,42.425783],[-71.055065,42.426045],[-71.055432,42.426603],[-71.055813,42.427225]]]}},{"type":"Feature","properties":{"ward":"7","precinct":"2","district":"7-2","population_2020":2682},"geometry":{"type":"Polygon","coordinates":[[[-71.045683,42.431046],[-71.046063,42.43103],[-71.046225,42.431028],[-71.046725,42.431008],[-71.047211,42.431015],[-71.047422,42.43103],[-71.047528,42.431044],[-71.047749,42.431062],[-71.048188,42.431106],[-71.048281,42.431122],[-71.048459,42.43114],[-71.048544,42.431142],[-71.048685,42.431133],[-71.048784,42.431115],[-71.049069,42.431087],[-71.049684,42.430992],[-71.049521,42.43042],[-71.049493,42.430331],[-71.054351,42.430019],[-71.054334,42.429958],[-71.054138,42.429519],[-71.054023,42.429306],[-71.054391,42.429224],[-71.054692,42.429127],[-71.055081,42.428979],[-71.055504,42.428788],[-71.055931,42.428617],[-71.056461,42.428372],[-71.056072,42.427659],[-71.055813,42.427225],[-71.054919,42.42748],[-71.054206,42.42763],[-71.053917,42.42766],[-71.05365,42.427617],[-71.053197,42.427426],[-71.052893,42.427267],[-71.051768,42.426514],[-71.052293,42.426159],[-71.052605,42.4259],[-71.052094,42.425537],[-71.05151,42.425129],[-71.051079,42.424793],[-71.050749,42.424563],[-71.050543,42.424403],[-71.050069,42.424047],[-71.049516,42.423668],[-71.049099,42.423341],[-71.049276,42.423216],[-71.049463,42.423199],[-71.049959,42.423193],[-71.050532,42.423167],[-71.050881,42.422938],[-71.050682,42.422772],[-71.050664,42.422757],[-71.050473,42.422896],[-71.048897,42.42299],[-71.048737,42.422999],[-71.047271,42.423088],[-71.046698,42.423121],[-71.045714,42.423177],[-71.044814,42.423233],[-71.044319,42.42326],[-71.043973,42.42328],[-71.043492,42.42331],[-71.042794,42.42335],[-71.041673,42.423416],[-71.040935,42.423459],[-71.03955,42.423542],[-71.039178,42.423564],[-71.037574,42.423659],[-71.036602,42.423716],[-71.036545,42.423722],[-71.036628,42.423737],[-71.036724,42.423754],[-71.036989,42.423802],[-71.03797,42.423979],[-71.039848,42.424324],[-71.039887,42.424346],[-71.039887,42.424391],[-71.03987,42.424418],[-71.04005,42.424456],[-71.040534,42.424559],[-71.041829,42.424819],[-71.04208,42.424803],[-71.042261,42.424795],[-71.042142,42.425101],[-71.042125,42.425145],[-71.043689,42.425403],[-71.043758,42.425527],[-71.043708,42.425731],[-71.043704,42.425833],[-71.043742,42.425899],[-71.043831,42.425976],[-71.043951,42.426056],[-71.044064,42.4261],[-71.044192,42.426127],[-71.044366,42.426157],[-71.044605,42.4262],[-71.045028,42.426273],[-71.045167,42.426314],[-71.045196,42.426351],[-71.045241,42.426489],[-71.045106,42.426489],[-71.04502,42.426597],[-71.04504,42.426678],[-71.045091,42.426735],[-71.045188,42.426776],[-71.045113,42.426856],[-71.045007,42.427105],[-71.045138,42.427673],[-71.045234,42.428255],[-71.045402,42.429208],[-71.045405,42.429566],[-71.045481,42.429921],[-71.045531,42.430151],[-71.045604,42.430583],[-71.045683,42.431046]]]}},{"type":"Feature","properties":{"ward":"7","precinct":"3","district":"7-3","population_2020":2680},"geometry":{"type":"Polygon","coordinates":[[[-71.050664,42.422757],[-71.050682,42.422772],[-71.050881,42.422938],[-71.050532,42.423167],[-71.049959,42.423193],[-71.049463,42.423199],[-71.049276,42.423216],[-71.049099,42.423341],[-71.049516,42.423668],[-71.050069,42.424047],[-71.050543,42.424403],[-71.050749,42.424563],[-71.051079,42.424793],[-71.05151,42.425129],[-71.052094,42.425537],[-71.052605,42.4259],[-71.052293,42.426159],[-71.051768,42.426514],[-71.052893,42.427267],[-71.053197,42.427426],[-71.05365,42.427617],[-71.053917,42.42766],[-71.054206,42.42763],[-71.054919,42.42748],[-71.055813,42.427225],[-71.055432,42.426603],[-71.055065,42.426045],[-71.054781,42.425783],[-71.054055,42.425253],[-71.053573,42.42491],[-71.053392,42.424781],[-71.054136,42.424236],[-71.054864,42.42368],[-71.055547,42.423137],[-71.056294,42.423681],[-71.056857,42.424107],[-71.057196,42.424372],[-71.057713,42.424015],[-71.058361,42.423506],[-71.058776,42.423193],[-71.058976,42.423042],[-71.059397,42.422719],[-71.059982,42.422268],[-71.059341,42.422023],[-71.058972,42.421864],[-71.058717,42.421734],[-71.058065,42.421309],[-71.057921,42.421238],[-71.057865,42.42121],[-71.057811,42.421187],[-71.057707,42.421142],[-71.057458,42.421035],[-71.057058,42.420903],[-71.056894,42.420855],[-71.05654,42.420743],[-71.056052,42.420577],[-71.055606,42.420437],[-71.055449,42.420381],[-71.055254,42.420314],[-71.054938,42.42021],[-71.054759,42.420126],[-71.054581,42.420043],[-71.054384,42.420036],[-71.052834,42.421172],[-71.050664,42.422757]]]}},{"type":"Feature","properties":{"ward":"8","precinct":"1","district":"8-1","population_2020":2848},"geometry":{"type":"Polygon","coordinates":[[[-71.024044,42.431652],[-71.024113,42.431665],[-71.024471,42.431741],[-71.025338,42.43211],[-71.02589,42.432356],[-71.025998,42.432401],[-71.026583,42.432646],[-71.02702,42.432848],[-71.026997,42.433017],[-71.026964,42.433329],[-71.0269,42.434064],[-71.026882,42.434294],[-71.026835,42.434761],[-71.026828,42.434837],[-71.026773,42.435258],[-71.026783,42.435356],[-71.02681,42.435612],[-71.026847,42.435957],[-71.026898,42.436349],[-71.026992,42.436483],[-71.027447,42.43617],[-71.028032,42.435801],[-71.028132,42.435738],[-71.028663,42.435478],[-71.029034,42.435339],[-71.029433,42.43519],[-71.029928,42.435046],[-71.031158,42.434751],[-71.03132,42.434732],[-71.031654,42.434692],[-71.031715,42.434684],[-71.032346,42.434641],[-71.033063,42.434594],[-71.033783,42.434548],[-71.033916,42.434517],[-71.034208,42.434449],[-71.034431,42.434397],[-71.035068,42.434229],[-71.035572,42.434145],[-71.036127,42.434108],[-71.036262,42.434113],[-71.036278,42.433359],[-71.036234,42.432778],[-71.036206,42.432245],[-71.036209,42.432196],[-71.036226,42.432101],[-71.036282,42.431957],[-71.036449,42.431781],[-71.036586,42.431703],[-71.03669,42.431661],[-71.03683,42.431613],[-71.037038,42.431577],[-71.03728,42.431585],[-71.03746,42.431653],[-71.037723,42.431884],[-71.037831,42.431966],[-71.03848,42.432536],[-71.039321,42.432678],[-71.03942,42.432423],[-71.039516,42.432143],[-71.03973,42.431588],[-71.039825,42.431303],[-71.039956,42.430974],[-71.039974,42.430928],[-71.040092,42.430589],[-71.040208,42.430299],[-71.040312,42.429974],[-71.040411,42.429689],[-71.0406,42.429187],[-71.040713,42.428884],[-71.040758,42.428755],[-71.041147,42.427732],[-71.041274,42.427378],[-71.041309,42.427281],[-71.041416,42.427007],[-71.041653,42.426403],[-71.041761,42.426116],[-71.042125,42.425145],[-71.042142,42.425101],[-71.042261,42.424795],[-71.04208,42.424803],[-71.041829,42.424819],[-71.040534,42.424559],[-71.04005,42.424456],[-71.03987,42.424418],[-71.039887,42.424391],[-71.039887,42.424346],[-71.039848,42.424324],[-71.03797,42.423979],[-71.036989,42.423802],[-71.036724,42.423754],[-71.036628,42.423737],[-71.036545,42.423722],[-71.036231,42.423739],[-71.035939,42.423756],[-71.035839,42.423762],[-71.035517,42.423794],[-71.034971,42.423839],[-71.034845,42.42385],[-71.034761,42.423855],[-71.034622,42.423865],[-71.034517,42.423873],[-71.034347,42.423887],[-71.03372,42.423914],[-71.032498,42.423977],[-71.031034,42.424053],[-71.030989,42.424051],[-71.030894,42.424057],[-71.030683,42.424062],[-71.030354,42.424081],[-71.028228,42.424211],[-71.028185,42.424291],[-71.027394,42.425698],[-71.02724,42.425973],[-71.027177,42.426086],[-71.027109,42.426208],[-71.026852,42.426665],[-71.026136,42.427942],[-71.025892,42.428377],[-71.025829,42.428493],[-71.025722,42.428681],[-71.025629,42.428851],[-71.02553,42.429024],[-71.025411,42.429236],[-71.025369,42.429311],[-71.025268,42.429492],[-71.025167,42.429669],[-71.025106,42.42978],[-71.024998,42.429982],[-71.02493,42.430094],[-71.024089,42.431591],[-71.024044,42.431652]]]}},{"type":"Feature","properties":{"ward":"8","precinct":"2","district":"8-2","population_2020":2864},"geometry":{"type":"Polygon","coordinates":[[[-71.024044,42.431652],[-71.023037,42.433469],[-71.023003,42.43353],[-71.022396,42.434616],[-71.022282,42.434821],[-71.022219,42.434934],[-71.022188,42.434987],[-71.022162,42.435031],[-71.022058,42.435224],[-71.021753,42.435775],[-71.021628,42.436008],[-71.021582,42.436081],[-71.02155,42.436137],[-71.021533,42.436166],[-71.021349,42.436514],[-71.021287,42.436617],[-71.021154,42.436859],[-71.021123,42.436914],[-71.021118,42.436923],[-71.021061,42.437026],[-71.021006,42.437126],[-71.020682,42.437711],[-71.020378,42.438259],[-71.021056,42.43906],[-71.021169,42.439194],[-71.021222,42.439256],[-71.021666,42.439782],[-71.022553,42.440832],[-71.023139,42.441525],[-71.024997,42.443724],[-71.025573,42.444406],[-71.025666,42.444515],[-71.025698,42.444553],[-71.025837,42.444718],[-71.026424,42.444657],[-71.028543,42.44444],[-71.028878,42.444406],[-71.028896,42.444386],[-71.029069,42.444188],[-71.029139,42.444106],[-71.029707,42.443433],[-71.030231,42.442824],[-71.030307,42.442735],[-71.030382,42.442644],[-71.02953,42.441502],[-71.029438,42.441511],[-71.02929,42.441507],[-71.029095,42.441469],[-71.028967,42.44143],[-71.028847,42.441354],[-71.028742,42.441229],[-71.028734,42.44121],[-71.028671,42.441055],[-71.028626,42.440692],[-71.02858,42.440376],[-71.02855,42.440218],[-71.028509,42.440071],[-71.028397,42.439825],[-71.028388,42.439805],[-71.028238,42.439574],[-71.028117,42.43943],[-71.028051,42.439339],[-71.028016,42.439259],[-71.028,42.439207],[-71.028005,42.439126],[-71.028034,42.439079],[-71.028115,42.438983],[-71.028142,42.438909],[-71.028141,42.438819],[-71.028124,42.438732],[-71.02803,42.438497],[-71.028006,42.438376],[-71.028001,42.438229],[-71.028014,42.438057],[-71.027638,42.437952],[-71.027379,42.437922],[-71.027115,42.437961],[-71.026832,42.438049],[-71.026534,42.438147],[-71.026312,42.43819],[-71.026017,42.438142],[-71.025356,42.437856],[-71.025155,42.437702],[-71.025123,42.437637],[-71.025386,42.437367],[-71.025772,42.437189],[-71.026172,42.436984],[-71.026337,42.436899],[-71.02684,42.436588],[-71.026992,42.436483],[-71.026898,42.436349],[-71.026847,42.435957],[-71.02681,42.435612],[-71.026783,42.435356],[-71.026773,42.435258],[-71.026828,42.434837],[-71.026835,42.434761],[-71.026882,42.434294],[-71.0269,42.434064],[-71.026964,42.433329],[-71.026997,42.433017],[-71.02702,42.432848],[-71.026583,42.432646],[-71.025998,42.432401],[-71.02589,42.432356],[-71.025338,42.43211],[-71.024471,42.431741],[-71.024113,42.431665],[-71.024044,42.431652]]]}},{"type":"Feature","properties":{"ward":"8","precinct":"3","district":"8-3","population_2020":2772},"geometry":{"type":"Polygon","coordinates":[[[-71.026992,42.436483],[-71.02684,42.436588],[-71.026337,42.436899],[-71.026172,42.436984],[-71.025772,42.437189],[-71.025386,42.437367],[-71.025123,42.437637],[-71.025155,42.437702],[-71.025356,42.437856],[-71.026017,42.438142],[-71.026312,42.43819],[-71.026534,42.438147],[-71.026832,42.438049],[-71.027115,42.437961],[-71.027379,42.437922],[-71.027638,42.437952],[-71.028014,42.438057],[-71.028001,42.438229],[-71.028006,42.438376],[-71.02803,42.438497],[-71.028124,42.438732],[-71.028141,42.438819],[-71.028142,42.438909],[-71.028115,42.438983],[-71.028034,42.439079],[-71.028005,42.439126],[-71.028,42.439207],[-71.028016,42.439259],[-71.028051,42.439339],[-71.028117,42.43943],[-71.028238,42.439574],[-71.028388,42.439805],[-71.028397,42.439825],[-71.028509,42.440071],[-71.02855,42.440218],[-71.02858,42.440376],[-71.028626,42.440692],[-71.028671,42.441055],[-71.028734,42.44121],[-71.028742,42.441229],[-71.028847,42.441354],[-71.028967,42.44143],[-71.029095,42.441469],[-71.02929,42.441507],[-71.029438,42.441511],[-71.02953,42.441502],[-71.030382,42.442644],[-71.030775,42.442165],[-71.031224,42.441428],[-71.031555,42.440888],[-71.031914,42.440302],[-71.032076,42.440052],[-71.032124,42.439977],[-71.032585,42.439468],[-71.033512,42.438458],[-71.0336,42.438362],[-71.033778,42.438242],[-71.033917,42.438148],[-71.034541,42.437894],[-71.035055,42.437685],[-71.035678,42.437439],[-71.03662,42.437067],[-71.036931,42.436943],[-71.03713,42.436865],[-71.037506,42.436699],[-71.037721,42.436558],[-71.037958,42.436162],[-71.03821,42.435688],[-71.038349,42.43532],[-71.038551,42.434782],[-71.038756,42.434222],[-71.038628,42.434247],[-71.038344,42.434261],[-71.037991,42.434277],[-71.03747,42.434245],[-71.036692,42.434133],[-71.036262,42.434113],[-71.036127,42.434108],[-71.035572,42.434145],[-71.035068,42.434229],[-71.034431,42.434397],[-71.034208,42.434449],[-71.033916,42.434517],[-71.033783,42.434548],[-71.033063,42.434594],[-71.032346,42.434641],[-71.031715,42.434684],[-71.031654,42.434692],[-71.03132,42.434732],[-71.031158,42.434751],[-71.029928,42.435046],[-71.029433,42.43519],[-71.029034,42.435339],[-71.028663,42.435478],[-71.028132,42.435738],[-71.028032,42.435801],[-71.027447,42.43617],[-71.026992,42.436483]]]}}]}