{"type":"FeatureCollection","features":[{"type":"Feature","properties":{"ward":"1","district":"1","population_2020":9696},"geometry":{"type":"Polygon","coordinates":[[[-71.440585,43.018388],[-71.440746,43.01842],[-71.442043,43.018656],[-71.443324,43.0189],[-71.444636,43.019137],[-71.445918,43.019381],[-71.447199,43.019602],[-71.448496,43.019846],[-71.449778,43.020068],[-71.450097,43.021731],[-71.450983,43.026057],[-71.451764,43.029696],[-71.452875,43.034968],[-71.453563,43.038195],[-71.453699,43.038897],[-71.454387,43.042109],[-71.454785,43.044009],[-71.455715,43.043253],[-71.456277,43.04291],[-71.457177,43.042398],[-71.458065,43.041971],[-71.459466,43.041353],[-71.460642,43.040896],[-71.461541,43.040499],[-71.462459,43.040125],[-71.463601,43.039591],[-71.464748,43.039072],[-71.465542,43.038752],[-71.466976,43.038241],[-71.468103,43.037821],[-71.469249,43.037417],[-71.470395,43.036997],[-71.471324,43.036638],[-71.472271,43.036265],[-71.472758,43.036051],[-71.473553,43.035578],[-71.47398,43.035281],[-71.475569,43.033786],[-71.477583,43.031353],[-71.478914,43.02924],[-71.479421,43.027903],[-71.480225,43.025292],[-71.480095,43.023777],[-71.479811,43.022411],[-71.479135,43.020566],[-71.47654,43.015746],[-71.474895,43.012628],[-71.473607,43.010304],[-71.47287,43.008863],[-71.471903,43.009043],[-71.471248,43.009165],[-71.470607,43.009272],[-71.4696,43.009402],[-71.468791,43.009478],[-71.46783,43.009539],[-71.467845,43.009394],[-71.467876,43.009242],[-71.467997,43.007964],[-71.468028,43.007639],[-71.468105,43.00696],[-71.468194,43.005976],[-71.467616,43.006037],[-71.466148,43.006201],[-71.465389,43.00635],[-71.464808,43.006419],[-71.464168,43.00648],[-71.464061,43.00648],[-71.463589,43.006535],[-71.463023,43.006602],[-71.462062,43.006686],[-71.461894,43.006693],[-71.461726,43.006724],[-71.46122,43.006771],[-71.46107,43.006785],[-71.460811,43.006815],[-71.460315,43.00686],[-71.459956,43.006892],[-71.459349,43.006956],[-71.459086,43.006983],[-71.458934,43.006999],[-71.458812,43.007006],[-71.457866,43.007098],[-71.456797,43.007205],[-71.456599,43.007227],[-71.455851,43.007304],[-71.455318,43.007357],[-71.45492,43.007395],[-71.45486,43.007411],[-71.454051,43.007487],[-71.453929,43.007495],[-71.453608,43.007533],[-71.453013,43.007594],[-71.452784,43.007617],[-71.452098,43.007693],[-71.451518,43.007762],[-71.451136,43.007792],[-71.450251,43.007876],[-71.449336,43.007967],[-71.448405,43.008059],[-71.447307,43.008174],[-71.445857,43.008311],[-71.445017,43.008395],[-71.444178,43.008471],[-71.443614,43.008517],[-71.443461,43.008532],[-71.443263,43.00854],[-71.442469,43.009249],[-71.442301,43.009387],[-71.442194,43.00947],[-71.441126,43.010401],[-71.440638,43.010844],[-71.440074,43.01137],[-71.439768,43.011668],[-71.439463,43.01195],[-71.439296,43.012011],[-71.439097,43.012125],[-71.438578,43.012225],[-71.438334,43.012248],[-71.437922,43.012225],[-71.437449,43.012148],[-71.437205,43.012064],[-71.437144,43.012171],[-71.436823,43.012736],[-71.436381,43.013422],[-71.436375,43.013432],[-71.436511,43.013601],[-71.436839,43.013979],[-71.438764,43.016227],[-71.439778,43.017434],[-71.440585,43.018388]]],"crs":null}},{"type":"Feature","properties":{"ward":"2","district":"2","population_2020":9677},"geometry":{"type":"Polygon","coordinates":[[[-71.431651,43.016703],[-71.432656,43.016894],[-71.433665,43.017092],[-71.434734,43.017291],[-71.435784,43.017489],[-71.436852,43.017687],[-71.438149,43.017924],[-71.439449,43.018168],[-71.440232,43.01832],[-71.440585,43.018388],[-71.439778,43.017434],[-71.438764,43.016227],[-71.436839,43.013979],[-71.436511,43.013601],[-71.436375,43.013432],[-71.436381,43.013422],[-71.436823,43.012736],[-71.437144,43.012171],[-71.437205,43.012064],[-71.437449,43.012148],[-71.437922,43.012225],[-71.438334,43.012248],[-71.438578,43.012225],[-71.439097,43.012125],[-71.439296,43.012011],[-71.439463,43.01195],[-71.439768,43.011668],[-71.440074,43.01137],[-71.440638,43.010844],[-71.441126,43.010401],[-71.442194,43.00947],[-71.442301,43.009387],[-71.442469,43.009249],[-71.443263,43.00854],[-71.443461,43.008532],[-71.443614,43.008517],[-71.444178,43.008471],[-71.445017,43.008395],[-71.445857,43.008311],[-71.447307,43.008174],[-71.448405,43.008059],[-71.449336,43.007967],[-71.450251,43.007876],[-71.451136,43.007792],[-71.451518,43.007762],[-71.452098,43.007693],[-71.452784,43.007617],[-71.453013,43.007594],[-71.453608,43.007533],[-71.453929,43.007495],[-71.454051,43.007487],[-71.45486,43.007411],[-71.45492,43.007395],[-71.455318,43.007357],[-71.455851,43.007304],[-71.456599,43.007227],[-71.456797,43.007205],[-71.457866,43.007098],[-71.458812,43.007006],[-71.458934,43.006999],[-71.459086,43.006983],[-71.459349,43.006956],[-71.459956,43.006892],[-71.459727,43.005915],[-71.459529,43.005145],[-71.4593,43.003718],[-71.459184,43.003085],[-71.459102,43.002635],[-71.459101,43.002581],[-71.459057,43.002304],[-71.458995,43.001917],[-71.458931,43.001571],[-71.458873,43.001254],[-71.458857,43.001139],[-71.4588,43.000822],[-71.45872,43.000376],[-71.458522,42.999186],[-71.458422,42.998895],[-71.458339,42.998484],[-71.45827,42.99816],[-71.458186,42.997767],[-71.458108,42.997454],[-71.458033,42.997012],[-71.457881,42.996188],[-71.457409,42.996244],[-71.456903,42.996291],[-71.456416,42.996347],[-71.455897,42.996394],[-71.455897,42.996394],[-71.454896,42.996517],[-71.454422,42.996564],[-71.453807,42.996623],[-71.453349,42.996653],[-71.452616,42.99673],[-71.452052,42.996791],[-71.45196,42.996791],[-71.451182,42.996874],[-71.450633,42.996928],[-71.450328,42.996951],[-71.449519,42.997035],[-71.449275,42.997065],[-71.44868,42.997111],[-71.448671,42.996752],[-71.448666,42.99622],[-71.448652,42.995539],[-71.447509,42.995541],[-71.44636,42.995524],[-71.446238,42.995529],[-71.445048,42.995522],[-71.445048,42.995517],[-71.44314,42.995501],[-71.441478,42.995509],[-71.43998,42.995526],[-71.439435,42.995539],[-71.438576,42.995641],[-71.437763,42.995872],[-71.437151,42.996079],[-71.435727,42.996713],[-71.435571,42.99678],[-71.434901,42.997098],[-71.433447,42.997785],[-71.433233,42.997875],[-71.431029,42.998924],[-71.430235,42.999298],[-71.430072,42.999373],[-71.429948,42.99943],[-71.429434,42.999664],[-71.429289,42.999586],[-71.429092,42.999677],[-71.428865,42.999783],[-71.428435,42.999976],[-71.42717,43.000559],[-71.426231,43.000986],[-71.425796,43.001185],[-71.425106,43.001474],[-71.425104,43.001475],[-71.423833,43.001948],[-71.422546,43.002421],[-71.422365,43.002496],[-71.421875,43.002699],[-71.421733,43.002758],[-71.421411,43.002918],[-71.420709,43.003288],[-71.418924,43.004344],[-71.418009,43.004923],[-71.417551,43.005168],[-71.41659,43.005679],[-71.416024,43.005979],[-71.415613,43.006175],[-71.415339,43.006281],[-71.41485,43.006358],[-71.414026,43.006457],[-71.413614,43.006533],[-71.413446,43.006549],[-71.412561,43.00664],[-71.41131,43.006747],[-71.410043,43.006861],[-71.409921,43.006877],[-71.409229,43.006954],[-71.408701,43.007014],[-71.408079,43.007093],[-71.407495,43.007166],[-71.406061,43.007327],[-71.404657,43.007495],[-71.403166,43.00768],[-71.401819,43.007823],[-71.400796,43.007945],[-71.399774,43.008067],[-71.398752,43.008181],[-71.397317,43.008357],[-71.39596,43.008524],[-71.395868,43.008532],[-71.394433,43.0087],[-71.392984,43.008883],[-71.39274,43.008914],[-71.392268,43.008967],[-71.392269,43.00897],[-71.392297,43.009112],[-71.392389,43.009318],[-71.392539,43.009333],[-71.393379,43.009486],[-71.39422,43.009661],[-71.395639,43.009936],[-71.397074,43.010203],[-71.397866,43.010363],[-71.398676,43.010531],[-71.399928,43.01076],[-71.401176,43.010989],[-71.402427,43.011225],[-71.403678,43.011469],[-71.405023,43.011721],[-71.406365,43.011981],[-71.407709,43.012232],[-71.409036,43.012492],[-71.410377,43.012744],[-71.411599,43.012972],[-71.412835,43.013201],[-71.414147,43.013445],[-71.415477,43.013697],[-71.416788,43.013933],[-71.418114,43.014178],[-71.419396,43.014422],[-71.420692,43.014666],[-71.421993,43.014895],[-71.424586,43.015383],[-71.425912,43.015635],[-71.427257,43.015879],[-71.428613,43.016146],[-71.42994,43.01639],[-71.430523,43.01652],[-71.430642,43.016505],[-71.431651,43.016703]]],"crs":null}},{"type":"Feature","properties":{"ward":"3","district":"3","population_2020":9611},"geometry":{"type":"Polygon","coordinates":[[[-71.459956,43.006892],[-71.460315,43.00686],[-71.460811,43.006815],[-71.46107,43.006785],[-71.46122,43.006771],[-71.461726,43.006724],[-71.461894,43.006693],[-71.462062,43.006686],[-71.463023,43.006602],[-71.463589,43.006535],[-71.464061,43.00648],[-71.464168,43.00648],[-71.464808,43.006419],[-71.465389,43.00635],[-71.466148,43.006201],[-71.467616,43.006037],[-71.468194,43.005976],[-71.468105,43.00696],[-71.468028,43.007639],[-71.467997,43.007964],[-71.467876,43.009242],[-71.467845,43.009394],[-71.46783,43.009539],[-71.468791,43.009478],[-71.4696,43.009402],[-71.470607,43.009272],[-71.471248,43.009165],[-71.471903,43.009043],[-71.47287,43.008863],[-71.472874,43.008862],[-71.472615,43.008243],[-71.471864,43.007074],[-71.470412,43.005498],[-71.469648,43.00412],[-71.469528,43.003739],[-71.469514,43.003695],[-71.469745,43.003289],[-71.470629,43.003014],[-71.47134,43.002772],[-71.472198,43.002383],[-71.472653,43.002155],[-71.472993,43.001898],[-71.473212,43.001761],[-71.47372,43.001204],[-71.47393,43.00048],[-71.473802,42.999994],[-71.472896,42.998983],[-71.471795,42.9982],[-71.470992,42.997779],[-71.47028,42.997263],[-71.469412,42.996652],[-71.469298,42.995728],[-71.46939,42.994207],[-71.469396,42.994065],[-71.469672,42.991637],[-71.470337,42.98666],[-71.469632,42.985455],[-71.469548,42.985311],[-71.468461,42.983024],[-71.468496,42.980649],[-71.468782,42.979938],[-71.469121,42.979086],[-71.469922,42.977484],[-71.471426,42.974799],[-71.471751,42.974201],[-71.47137,42.97407],[-71.470241,42.973659],[-71.469737,42.973491],[-71.469356,42.973376],[-71.468981,42.973329],[-71.468669,42.973329],[-71.468105,42.973371],[-71.46682,42.973497],[-71.465788,42.973581],[-71.464951,42.973665],[-71.464406,42.973722],[-71.464075,42.97375],[-71.463725,42.973763],[-71.463044,42.973762],[-71.461876,42.97376],[-71.461214,42.97373],[-71.460864,42.973715],[-71.460592,42.9737],[-71.460242,42.973643],[-71.459755,42.973542],[-71.459328,42.973412],[-71.459113,42.973337],[-71.458901,42.973286],[-71.458277,42.97314],[-71.457952,42.973144],[-71.457829,42.973168],[-71.457738,42.973225],[-71.457673,42.973296],[-71.45764,42.973377],[-71.457646,42.973563],[-71.457678,42.97362],[-71.458189,42.974202],[-71.458402,42.974437],[-71.459042,42.975142],[-71.459302,42.975449],[-71.459623,42.975812],[-71.460152,42.976413],[-71.460547,42.97694],[-71.460811,42.977351],[-71.461432,42.978204],[-71.461677,42.978581],[-71.4618,42.978805],[-71.461925,42.979113],[-71.461964,42.979367],[-71.461956,42.979867],[-71.46196,42.98062],[-71.461972,42.981349],[-71.460227,42.981351],[-71.459305,42.981349],[-71.458793,42.981343],[-71.45743,42.981331],[-71.457436,42.981717],[-71.457434,42.982089],[-71.45742,42.982451],[-71.457432,42.982817],[-71.457414,42.983194],[-71.457407,42.98356],[-71.457412,42.983942],[-71.457409,42.984666],[-71.457428,42.985047],[-71.45742,42.985423],[-71.457425,42.98579],[-71.457424,42.986152],[-71.457429,42.986538],[-71.457441,42.986904],[-71.45742,42.987262],[-71.457425,42.987657],[-71.457424,42.988019],[-71.457429,42.988372],[-71.457435,42.988696],[-71.45744,42.989048],[-71.457432,42.989381],[-71.457437,42.989824],[-71.45743,42.990201],[-71.457442,42.990572],[-71.457447,42.990958],[-71.457438,42.991811],[-71.457441,42.99274],[-71.457408,42.993139],[-71.457408,42.993205],[-71.457398,42.993611],[-71.457468,42.994016],[-71.457512,42.994253],[-71.457563,42.994607],[-71.457698,42.995303],[-71.457881,42.996188],[-71.457881,42.996188],[-71.458033,42.997012],[-71.458108,42.997454],[-71.458186,42.997767],[-71.45827,42.99816],[-71.458339,42.998484],[-71.458422,42.998895],[-71.458522,42.999186],[-71.45872,43.000376],[-71.4588,43.000822],[-71.458857,43.001139],[-71.458873,43.001254],[-71.458931,43.001571],[-71.458995,43.001917],[-71.459057,43.002304],[-71.459101,43.002581],[-71.459102,43.002635],[-71.459184,43.003085],[-71.4593,43.003718],[-71.459529,43.005145],[-71.459727,43.005915],[-71.459956,43.006892]]],"crs":null}},{"type":"Feature","properties":{"ward":"4","district":"4","population_2020":9643},"geometry":{"type":"Polygon","coordinates":[[[-71.421903,43.000838],[-71.422097,43.00091],[-71.422288,43.000994],[-71.422441,43.001082],[-71.422577,43.001173],[-71.423088,43.001593],[-71.42417,43.000775],[-71.425106,43.001474],[-71.425796,43.001185],[-71.426231,43.000986],[-71.42717,43.000559],[-71.428435,42.999976],[-71.428865,42.999783],[-71.429092,42.999677],[-71.429289,42.999586],[-71.429434,42.999664],[-71.429948,42.99943],[-71.430072,42.999373],[-71.430235,42.999298],[-71.431029,42.998924],[-71.433233,42.997875],[-71.433447,42.997785],[-71.434901,42.997098],[-71.435571,42.99678],[-71.435727,42.996713],[-71.437151,42.996079],[-71.437763,42.995872],[-71.438576,42.995641],[-71.439435,42.995539],[-71.43998,42.995526],[-71.441478,42.995509],[-71.44314,42.995501],[-71.445048,42.995517],[-71.445048,42.995522],[-71.446238,42.995529],[-71.44636,42.995524],[-71.447509,42.995541],[-71.448652,42.995539],[-71.448666,42.99622],[-71.448671,42.996752],[-71.44868,42.997111],[-71.449275,42.997065],[-71.449519,42.997035],[-71.450328,42.996951],[-71.450633,42.996928],[-71.451182,42.996874],[-71.45196,42.996791],[-71.452052,42.996791],[-71.452616,42.99673],[-71.453349,42.996653],[-71.453807,42.996623],[-71.454422,42.996564],[-71.454896,42.996517],[-71.455897,42.996394],[-71.455897,42.996394],[-71.456416,42.996347],[-71.456903,42.996291],[-71.457409,42.996244],[-71.457881,42.996188],[-71.457881,42.996188],[-71.457698,42.995303],[-71.457563,42.994607],[-71.457512,42.994253],[-71.457468,42.994016],[-71.457398,42.993611],[-71.457408,42.993205],[-71.457408,42.993139],[-71.457441,42.99274],[-71.457438,42.991811],[-71.457447,42.990958],[-71.457442,42.990572],[-71.45743,42.990201],[-71.457437,42.989824],[-71.457432,42.989381],[-71.457011,42.989382],[-71.455408,42.989383],[-71.454441,42.989376],[-71.453007,42.989383],[-71.451644,42.989395],[-71.450749,42.989388],[-71.449523,42.989386],[-71.448212,42.989383],[-71.446317,42.989389],[-71.444987,42.989396],[-71.444085,42.989399],[-71.44293,42.989402],[-71.441178,42.989393],[-71.440081,42.989406],[-71.440089,42.988719],[-71.440086,42.988038],[-71.437887,42.988087],[-71.436595,42.988093],[-71.436161,42.9881],[-71.43583,42.988106],[-71.434464,42.988124],[-71.434579,42.987751],[-71.434694,42.987378],[-71.433316,42.987464],[-71.432354,42.987551],[-71.431853,42.98759],[-71.431432,42.987621],[-71.430511,42.98769],[-71.429841,42.987751],[-71.429686,42.987784],[-71.429537,42.987889],[-71.429524,42.987903],[-71.429453,42.987895],[-71.428873,42.987803],[-71.427759,42.987735],[-71.427439,42.987712],[-71.426691,42.987666],[-71.426538,42.987651],[-71.425974,42.98762],[-71.425333,42.987582],[-71.425135,42.987567],[-71.42428,42.987506],[-71.424128,42.987498],[-71.423502,42.98746],[-71.423365,42.987452],[-71.422876,42.987414],[-71.422541,42.987399],[-71.422418,42.987384],[-71.421625,42.987345],[-71.421518,42.987338],[-71.420496,42.987269],[-71.420495,42.987269],[-71.420374,42.987262],[-71.419245,42.987223],[-71.418801,42.987221],[-71.418334,42.98726],[-71.417154,42.987475],[-71.417008,42.987556],[-71.41663,42.987645],[-71.416104,42.987752],[-71.416056,42.987761],[-71.416053,42.988074],[-71.416053,42.988074],[-71.416082,42.988531],[-71.416134,42.988913],[-71.416197,42.989299],[-71.416305,42.98979],[-71.417232,42.993135],[-71.417289,42.993449],[-71.417322,42.993722],[-71.417322,42.993723],[-71.417292,42.994029],[-71.417281,42.994241],[-71.417228,42.994469],[-71.417116,42.994793],[-71.416999,42.994998],[-71.416894,42.995178],[-71.416809,42.995317],[-71.416659,42.995483],[-71.416516,42.995644],[-71.416333,42.99582],[-71.416105,42.99601],[-71.415806,42.996238],[-71.415363,42.996547],[-71.414575,42.997073],[-71.413912,42.997541],[-71.413913,42.997544],[-71.414108,42.998082],[-71.414586,43.000215],[-71.41491,43.000166],[-71.416242,43.000104],[-71.416682,43.000065],[-71.417065,43.000061],[-71.417496,43.000097],[-71.417668,43.000115],[-71.418381,43.000226],[-71.419454,43.000392],[-71.419627,43.000419],[-71.420577,43.000569],[-71.420663,43.000582],[-71.421313,43.000689],[-71.421637,43.000757],[-71.421903,43.000838]]],"crs":null}},{"type":"Feature","properties":{"ward":"5","district":"5","population_2020":9631},"geometry":{"type":"Polygon","coordinates":[[[-71.440081,42.989406],[-71.441178,42.989393],[-71.442009,42.98939],[-71.44293,42.989402],[-71.444085,42.989399],[-71.444987,42.989396],[-71.446317,42.989389],[-71.448212,42.989383],[-71.449523,42.989386],[-71.450749,42.989388],[-71.451644,42.989395],[-71.453007,42.989383],[-71.454441,42.989376],[-71.455408,42.989383],[-71.457011,42.989382],[-71.457432,42.989381],[-71.45744,42.989048],[-71.457435,42.988696],[-71.457429,42.988372],[-71.457424,42.988019],[-71.457425,42.987657],[-71.45742,42.987262],[-71.457441,42.986904],[-71.457429,42.986538],[-71.457424,42.986152],[-71.457425,42.98579],[-71.45742,42.985423],[-71.457428,42.985047],[-71.457409,42.984666],[-71.457412,42.983942],[-71.457407,42.98356],[-71.457414,42.983194],[-71.457432,42.982817],[-71.45742,42.982451],[-71.457434,42.982089],[-71.457436,42.981717],[-71.45743,42.981331],[-71.456599,42.981318],[-71.455439,42.981334],[-71.455317,42.981341],[-71.452845,42.981318],[-71.452754,42.981326],[-71.451579,42.981326],[-71.450679,42.981334],[-71.450419,42.981326],[-71.448939,42.981334],[-71.448115,42.981341],[-71.446253,42.981357],[-71.444911,42.981357],[-71.444544,42.981357],[-71.444372,42.981357],[-71.443064,42.981364],[-71.442194,42.981372],[-71.441599,42.981372],[-71.441386,42.981379],[-71.440272,42.981364],[-71.439708,42.981364],[-71.439158,42.981364],[-71.439005,42.981357],[-71.438074,42.981349],[-71.437617,42.981349],[-71.436793,42.981341],[-71.435564,42.981327],[-71.435465,42.981326],[-71.435038,42.981326],[-71.434397,42.981326],[-71.434134,42.98121],[-71.433374,42.980876],[-71.433299,42.980845],[-71.4322,42.980365],[-71.432121,42.980341],[-71.431954,42.98029],[-71.431798,42.98029],[-71.431582,42.980343],[-71.431421,42.980372],[-71.430048,42.980662],[-71.429819,42.980716],[-71.429426,42.980772],[-71.42956,42.981486],[-71.428623,42.981594],[-71.427695,42.981697],[-71.427873,42.982553],[-71.427851,42.982554],[-71.427027,42.982615],[-71.426935,42.982638],[-71.426097,42.982707],[-71.425989,42.982722],[-71.425102,42.982782],[-71.424739,42.982844],[-71.424189,42.982928],[-71.423229,42.983083],[-71.422184,42.983272],[-71.422555,42.98452],[-71.422555,42.98452],[-71.421627,42.984661],[-71.42074,42.98482],[-71.419848,42.984962],[-71.419849,42.984965],[-71.420039,42.985663],[-71.420374,42.986659],[-71.420496,42.987269],[-71.421518,42.987338],[-71.421625,42.987345],[-71.422418,42.987384],[-71.422541,42.987399],[-71.422876,42.987414],[-71.423365,42.987452],[-71.423502,42.98746],[-71.424128,42.987498],[-71.42428,42.987506],[-71.425135,42.987567],[-71.425333,42.987582],[-71.425974,42.98762],[-71.426538,42.987651],[-71.426691,42.987666],[-71.427439,42.987712],[-71.427759,42.987735],[-71.428873,42.987803],[-71.429453,42.987895],[-71.429524,42.987903],[-71.429537,42.987889],[-71.429686,42.987784],[-71.429841,42.987751],[-71.430511,42.98769],[-71.431432,42.987621],[-71.431853,42.98759],[-71.432354,42.987551],[-71.433316,42.987464],[-71.434694,42.987378],[-71.434579,42.987751],[-71.434464,42.988124],[-71.43583,42.988106],[-71.436161,42.9881],[-71.436595,42.988093],[-71.437887,42.988087],[-71.440086,42.988038],[-71.440089,42.988719],[-71.440081,42.989406]]],"crs":null}},{"type":"Feature","properties":{"ward":"6","district":"6","population_2020":9583},"geometry":{"type":"Polygon","coordinates":[[[-71.390677,43.002574],[-71.391413,43.005267],[-71.392205,43.008647],[-71.392268,43.008967],[-71.392269,43.00897],[-71.39274,43.008917],[-71.392984,43.008886],[-71.394433,43.008703],[-71.395868,43.008535],[-71.39596,43.008527],[-71.397317,43.00836],[-71.398752,43.008184],[-71.399774,43.00807],[-71.400796,43.007948],[-71.401819,43.007826],[-71.403166,43.007683],[-71.404657,43.007498],[-71.406061,43.00733],[-71.407495,43.007169],[-71.408079,43.007095],[-71.408701,43.007017],[-71.409229,43.006957],[-71.409921,43.006879],[-71.410043,43.006864],[-71.41131,43.00675],[-71.412561,43.006643],[-71.413446,43.006551],[-71.413614,43.006536],[-71.414026,43.00646],[-71.41485,43.006361],[-71.415339,43.006284],[-71.415613,43.006178],[-71.416024,43.005982],[-71.41659,43.005682],[-71.417551,43.005171],[-71.418009,43.004926],[-71.418924,43.004347],[-71.420709,43.003291],[-71.421411,43.002921],[-71.421875,43.002699],[-71.421974,43.002652],[-71.422365,43.002496],[-71.422546,43.002424],[-71.423833,43.001951],[-71.425106,43.001477],[-71.425104,43.001475],[-71.42417,43.000778],[-71.423088,43.001596],[-71.422577,43.001176],[-71.422441,43.001085],[-71.422288,43.000997],[-71.422097,43.000913],[-71.421903,43.000841],[-71.421637,43.00076],[-71.421313,43.000692],[-71.420663,43.000585],[-71.420577,43.000572],[-71.419627,43.000422],[-71.419454,43.000395],[-71.418381,43.000229],[-71.417668,43.000118],[-71.417496,43.0001],[-71.417065,43.000064],[-71.416682,43.000068],[-71.416242,43.000107],[-71.41491,43.000169],[-71.414586,43.000218],[-71.414108,42.998085],[-71.413912,42.997544],[-71.413913,42.997544],[-71.414575,42.997076],[-71.415363,42.99655],[-71.415806,42.996241],[-71.416105,42.996013],[-71.416333,42.995823],[-71.416516,42.995647],[-71.416659,42.995486],[-71.416809,42.99532],[-71.416894,42.995181],[-71.416999,42.995],[-71.417116,42.994796],[-71.417228,42.994472],[-71.417281,42.994244],[-71.417292,42.994032],[-71.417322,42.993725],[-71.417322,42.993723],[-71.417289,42.993452],[-71.417232,42.993138],[-71.416305,42.989793],[-71.416197,42.989302],[-71.416134,42.988916],[-71.416082,42.988534],[-71.416053,42.988077],[-71.416053,42.988074],[-71.416056,42.987763],[-71.41663,42.987645],[-71.417008,42.987559],[-71.417154,42.987478],[-71.418334,42.98726],[-71.418801,42.987221],[-71.419245,42.987226],[-71.420374,42.987262],[-71.420496,42.987272],[-71.420495,42.987269],[-71.420374,42.986662],[-71.420039,42.985666],[-71.419848,42.984965],[-71.419849,42.984965],[-71.42074,42.984823],[-71.421627,42.984664],[-71.422555,42.984523],[-71.422555,42.98452],[-71.422184,42.983275],[-71.421838,42.982153],[-71.421479,42.980796],[-71.421408,42.98062],[-71.421337,42.980477],[-71.421339,42.980477],[-71.422002,42.980579],[-71.422083,42.980337],[-71.422312,42.979559],[-71.422632,42.978529],[-71.422861,42.977743],[-71.422998,42.977301],[-71.423883,42.977293],[-71.424005,42.977285],[-71.424219,42.976557],[-71.424228,42.976357],[-71.424228,42.976357],[-71.424213,42.976314],[-71.423916,42.975494],[-71.423725,42.97501],[-71.423144,42.974294],[-71.422808,42.973913],[-71.422617,42.973514],[-71.422366,42.97285],[-71.422453,42.972834],[-71.422879,42.972756],[-71.423625,42.972638],[-71.423975,42.972601],[-71.425001,42.972388],[-71.425556,42.972315],[-71.425549,42.972305],[-71.424784,42.971342],[-71.424387,42.97077],[-71.423922,42.970002],[-71.423922,42.969999],[-71.422546,42.967429],[-71.422134,42.966647],[-71.42178,42.96596],[-71.421548,42.965465],[-71.42131,42.964964],[-71.421015,42.964343],[-71.420727,42.96374],[-71.420476,42.963263],[-71.420161,42.96271],[-71.420031,42.962523],[-71.419896,42.962347],[-71.419741,42.962223],[-71.419191,42.961888],[-71.41901,42.961783],[-71.418741,42.961617],[-71.418586,42.961517],[-71.418515,42.96145],[-71.417466,42.961648],[-71.416999,42.961723],[-71.416629,42.961765],[-71.416337,42.961796],[-71.416039,42.961791],[-71.415747,42.961771],[-71.41546,42.961742],[-71.414995,42.961679],[-71.414496,42.961554],[-71.414023,42.961415],[-71.412682,42.961045],[-71.411426,42.960713],[-71.410052,42.960344],[-71.409722,42.960243],[-71.409502,42.960166],[-71.408997,42.95997],[-71.408563,42.959759],[-71.408168,42.959549],[-71.407838,42.959324],[-71.407593,42.959138],[-71.407373,42.958926],[-71.406977,42.95852],[-71.406382,42.957863],[-71.405704,42.957095],[-71.404927,42.95623],[-71.404333,42.955562],[-71.403959,42.955171],[-71.4035,42.954722],[-71.4035,42.954725],[-71.403132,42.954391],[-71.402984,42.954247],[-71.402609,42.953956],[-71.401574,42.953191],[-71.40034,42.952269],[-71.398945,42.951217],[-71.397884,42.950412],[-71.396892,42.949696],[-71.39556,42.948702],[-71.394268,42.947727],[-71.392923,42.946714],[-71.391566,42.945696],[-71.38894,42.943724],[-71.387613,42.942732],[-71.387108,42.942313],[-71.386437,42.94171],[-71.385995,42.941191],[-71.385832,42.940995],[-71.385503,42.940523],[-71.385007,42.939779],[-71.384087,42.938372],[-71.384079,42.938359],[-71.382684,42.938513],[-71.381235,42.938666],[-71.37983,42.938834],[-71.37841,42.938979],[-71.377939,42.939024],[-71.376688,42.939185],[-71.375436,42.93933],[-71.375831,42.941127],[-71.376076,42.942226],[-71.376503,42.944202],[-71.376687,42.944896],[-71.377023,42.946445],[-71.377067,42.946651],[-71.377192,42.947177],[-71.377249,42.94762],[-71.377297,42.947727],[-71.377783,42.950031],[-71.377908,42.95061],[-71.377952,42.950763],[-71.378577,42.95354],[-71.378867,42.954753],[-71.378929,42.954952],[-71.380288,42.960933],[-71.380332,42.961101],[-71.380335,42.961238],[-71.380408,42.961581],[-71.380456,42.961765],[-71.380591,42.962344],[-71.380668,42.962588],[-71.380745,42.963008],[-71.381478,42.966029],[-71.381508,42.96606],[-71.381768,42.967143],[-71.382165,42.968661],[-71.382271,42.969203],[-71.38241,42.969752],[-71.382652,42.970706],[-71.382715,42.970881],[-71.382729,42.971019],[-71.38285,42.971515],[-71.382865,42.971591],[-71.383154,42.972797],[-71.383203,42.97288],[-71.383279,42.973315],[-71.383797,42.97536],[-71.384178,42.976916],[-71.384241,42.977023],[-71.384241,42.977026],[-71.384241,42.977153],[-71.384835,42.979556],[-71.384894,42.979686],[-71.384971,42.980136],[-71.385734,42.983157],[-71.387169,42.988917],[-71.388421,42.993914],[-71.388513,42.994166],[-71.388818,42.995425],[-71.389398,42.997737],[-71.389472,42.998004],[-71.389582,42.998469],[-71.389993,43.000079],[-71.389997,43.000086],[-71.390677,43.002574]]],"crs":null}},{"type":"Feature","properties":{"ward":"7","district":"7","population_2020":9644},"geometry":{"type":"Polygon","coordinates":[[[-71.421408,42.980617],[-71.421479,42.980793],[-71.421838,42.98215],[-71.422184,42.983272],[-71.423229,42.983083],[-71.424189,42.982928],[-71.424739,42.982844],[-71.425102,42.982782],[-71.425989,42.982722],[-71.426097,42.982707],[-71.426935,42.982638],[-71.427027,42.982615],[-71.427851,42.982554],[-71.427873,42.982553],[-71.427695,42.981697],[-71.428623,42.981594],[-71.42956,42.981486],[-71.429426,42.980772],[-71.429819,42.980716],[-71.430048,42.980662],[-71.431421,42.980372],[-71.431582,42.980343],[-71.431798,42.98029],[-71.431954,42.98029],[-71.432121,42.980341],[-71.4322,42.980365],[-71.433299,42.980845],[-71.433374,42.980876],[-71.434134,42.98121],[-71.434397,42.981326],[-71.435038,42.981326],[-71.435465,42.981326],[-71.435564,42.981327],[-71.436793,42.981341],[-71.437617,42.981349],[-71.438074,42.981349],[-71.439005,42.981357],[-71.439158,42.981364],[-71.439708,42.981364],[-71.440272,42.981364],[-71.441386,42.981379],[-71.441599,42.981372],[-71.442194,42.981372],[-71.443064,42.981364],[-71.444372,42.981357],[-71.444544,42.981357],[-71.444911,42.981357],[-71.446253,42.981357],[-71.448115,42.981341],[-71.448939,42.981334],[-71.450419,42.981326],[-71.450679,42.981334],[-71.451579,42.981326],[-71.452754,42.981326],[-71.452845,42.981318],[-71.455317,42.981341],[-71.455439,42.981334],[-71.456599,42.981318],[-71.45743,42.981331],[-71.458793,42.981343],[-71.459305,42.981349],[-71.460227,42.981351],[-71.461972,42.981349],[-71.46196,42.98062],[-71.461956,42.979867],[-71.461964,42.979367],[-71.461925,42.979113],[-71.4618,42.978805],[-71.461677,42.978581],[-71.461432,42.978204],[-71.460811,42.977351],[-71.460669,42.97736],[-71.460007,42.977363],[-71.459313,42.977367],[-71.458796,42.977366],[-71.457432,42.977368],[-71.457062,42.977377],[-71.456083,42.97737],[-71.455401,42.977374],[-71.455404,42.976917],[-71.4554,42.976485],[-71.455396,42.975587],[-71.455403,42.975069],[-71.455407,42.973782],[-71.455407,42.973779],[-71.455367,42.973779],[-71.455299,42.973774],[-71.454432,42.97375],[-71.453624,42.97375],[-71.452907,42.97375],[-71.452281,42.973742],[-71.450968,42.973735],[-71.450679,42.973742],[-71.448145,42.973689],[-71.446925,42.973689],[-71.446833,42.973697],[-71.446315,42.973689],[-71.446314,42.973094],[-71.44633,42.9724],[-71.44633,42.971698],[-71.44633,42.971011],[-71.446314,42.970401],[-71.446345,42.969699],[-71.445719,42.96976],[-71.444255,42.96989],[-71.442789,42.970035],[-71.442683,42.97005],[-71.441477,42.970164],[-71.44015,42.970302],[-71.439723,42.970355],[-71.438822,42.970447],[-71.438075,42.970531],[-71.43809,42.97108],[-71.438105,42.971667],[-71.438105,42.973399],[-71.437846,42.973369],[-71.437556,42.973331],[-71.437052,42.973254],[-71.436121,42.97314],[-71.435862,42.973109],[-71.43577,42.973102],[-71.435343,42.973132],[-71.435221,42.973155],[-71.434321,42.973224],[-71.43403,42.973262],[-71.433604,42.973315],[-71.433329,42.973338],[-71.432413,42.973422],[-71.431314,42.973521],[-71.430185,42.97362],[-71.429041,42.973727],[-71.428203,42.973794],[-71.427736,42.973865],[-71.4275,42.974017],[-71.427195,42.973735],[-71.427036,42.973592],[-71.426615,42.973216],[-71.426013,42.972704],[-71.425556,42.972315],[-71.425001,42.972388],[-71.423975,42.972601],[-71.423625,42.972638],[-71.422879,42.972756],[-71.422453,42.972834],[-71.422366,42.97285],[-71.422617,42.973511],[-71.422808,42.97391],[-71.423144,42.974292],[-71.423725,42.975007],[-71.423916,42.975491],[-71.424213,42.976311],[-71.424228,42.976354],[-71.424228,42.976357],[-71.424219,42.976554],[-71.424005,42.977283],[-71.423883,42.97729],[-71.422998,42.977298],[-71.422861,42.97774],[-71.422632,42.978526],[-71.422312,42.979556],[-71.422083,42.980334],[-71.422002,42.980576],[-71.421337,42.980474],[-71.421339,42.980477],[-71.421408,42.980617]]],"crs":null}},{"type":"Feature","properties":{"ward":"8","district":"8","population_2020":9622},"geometry":{"type":"Polygon","coordinates":[[[-71.425556,42.972315],[-71.426013,42.972704],[-71.426615,42.973216],[-71.427036,42.973592],[-71.427195,42.973735],[-71.4275,42.974017],[-71.427736,42.973865],[-71.428203,42.973794],[-71.429041,42.973727],[-71.430185,42.97362],[-71.431314,42.973521],[-71.432413,42.973422],[-71.433329,42.973338],[-71.433604,42.973315],[-71.43403,42.973262],[-71.434321,42.973224],[-71.435221,42.973155],[-71.435343,42.973132],[-71.43577,42.973102],[-71.435862,42.973109],[-71.436121,42.97314],[-71.437052,42.973254],[-71.437556,42.973331],[-71.437846,42.973369],[-71.438105,42.973399],[-71.438105,42.971667],[-71.43809,42.97108],[-71.438075,42.970531],[-71.438822,42.970447],[-71.439723,42.970355],[-71.44015,42.970302],[-71.441477,42.970164],[-71.442683,42.97005],[-71.442789,42.970035],[-71.444255,42.96989],[-71.445719,42.96976],[-71.446345,42.969699],[-71.44633,42.968852],[-71.44633,42.968509],[-71.446342,42.968306],[-71.446387,42.968302],[-71.447814,42.968152],[-71.448138,42.968172],[-71.448417,42.968153],[-71.449261,42.96804],[-71.450434,42.967891],[-71.450741,42.967869],[-71.45078,42.967615],[-71.450315,42.967223],[-71.450257,42.967206],[-71.450288,42.967203],[-71.449681,42.966741],[-71.449351,42.966497],[-71.448717,42.96602],[-71.448432,42.965824],[-71.448044,42.965586],[-71.447733,42.965414],[-71.447182,42.965155],[-71.446956,42.965054],[-71.446444,42.964858],[-71.445304,42.964432],[-71.444413,42.964102],[-71.444419,42.96406],[-71.444432,42.963974],[-71.443888,42.963773],[-71.443254,42.96349],[-71.441674,42.962744],[-71.440502,42.962194],[-71.439906,42.961907],[-71.439194,42.961525],[-71.438586,42.961138],[-71.438176,42.960865],[-71.437881,42.960617],[-71.437597,42.96035],[-71.43742,42.960149],[-71.437226,42.9599],[-71.437003,42.959553],[-71.436861,42.959276],[-71.436681,42.958828],[-71.436566,42.958499],[-71.436431,42.95807],[-71.436272,42.957389],[-71.436195,42.957083],[-71.436487,42.956979],[-71.437292,42.956704],[-71.438458,42.956304],[-71.440857,42.955475],[-71.442013,42.955096],[-71.443312,42.954627],[-71.443942,42.954398],[-71.444672,42.954144],[-71.444923,42.954057],[-71.445663,42.953801],[-71.446115,42.953646],[-71.446812,42.953408],[-71.448474,42.952844],[-71.449173,42.952591],[-71.449543,42.952439],[-71.450023,42.952235],[-71.450264,42.952112],[-71.450589,42.951941],[-71.450901,42.951761],[-71.451232,42.951557],[-71.451642,42.951271],[-71.452383,42.950711],[-71.453872,42.949604],[-71.454255,42.949342],[-71.454625,42.949119],[-71.455145,42.948834],[-71.455665,42.948592],[-71.456074,42.948412],[-71.456457,42.94827],[-71.456905,42.948123],[-71.457307,42.948],[-71.457723,42.947896],[-71.458229,42.947792],[-71.459514,42.947543],[-71.460644,42.947329],[-71.460596,42.947261],[-71.460473,42.947048],[-71.460429,42.946941],[-71.460367,42.946597],[-71.460324,42.94601],[-71.46017,42.945049],[-71.460049,42.944446],[-71.460023,42.944351],[-71.459437,42.94218],[-71.458813,42.939991],[-71.458413,42.93896],[-71.458231,42.938625],[-71.458231,42.938548],[-71.457864,42.937862],[-71.457805,42.93777],[-71.457333,42.936985],[-71.45727,42.93687],[-71.457043,42.936588],[-71.4566,42.936107],[-71.456217,42.935565],[-71.456036,42.935192],[-71.455913,42.933986],[-71.455576,42.933185],[-71.455484,42.932773],[-71.455379,42.93185],[-71.455316,42.93169],[-71.455135,42.930935],[-71.454966,42.930378],[-71.454721,42.929874],[-71.454568,42.929699],[-71.454479,42.929561],[-71.454096,42.929035],[-71.4537,42.928203],[-71.453456,42.92757],[-71.453472,42.927051],[-71.453548,42.925808],[-71.453823,42.922779],[-71.45399,42.920818],[-71.454095,42.919567],[-71.454067,42.919147],[-71.454019,42.918987],[-71.453928,42.918254],[-71.45373,42.917354],[-71.453394,42.916187],[-71.453165,42.915539],[-71.453181,42.915172],[-71.453257,42.914707],[-71.453136,42.914211],[-71.453121,42.914165],[-71.452815,42.91312],[-71.452587,42.912151],[-71.452539,42.911838],[-71.45257,42.911579],[-71.452555,42.911541],[-71.452572,42.911075],[-71.452599,42.910633],[-71.452676,42.910183],[-71.453073,42.90739],[-71.453241,42.906444],[-71.453255,42.905506],[-71.453332,42.904972],[-71.453408,42.90459],[-71.452538,42.903492],[-71.451762,42.902485],[-71.451565,42.90221],[-71.451412,42.902042],[-71.450023,42.900265],[-71.449945,42.900158],[-71.449168,42.899196],[-71.448618,42.898487],[-71.448559,42.89838],[-71.448421,42.898243],[-71.447656,42.897274],[-71.447184,42.896664],[-71.446025,42.895199],[-71.445977,42.895122],[-71.444926,42.893787],[-71.444833,42.893627],[-71.44468,42.89349],[-71.444056,42.892651],[-71.443993,42.89259],[-71.442712,42.890942],[-71.4423,42.890408],[-71.443001,42.893406],[-71.443612,42.896],[-71.443659,42.896198],[-71.443765,42.89677],[-71.444544,42.900242],[-71.445323,42.903721],[-71.445749,42.905788],[-71.446619,42.909794],[-71.447489,42.913784],[-71.447519,42.913853],[-71.447611,42.914318],[-71.44807,42.916401],[-71.448129,42.916591],[-71.448525,42.918484],[-71.449886,42.924396],[-71.449915,42.92461],[-71.449992,42.925014],[-71.450051,42.92519],[-71.450249,42.926181],[-71.450389,42.926769],[-71.450448,42.926967],[-71.450448,42.927021],[-71.451272,42.930637],[-71.451349,42.930934],[-71.450023,42.931072],[-71.44897,42.931194],[-71.447565,42.931346],[-71.446161,42.931507],[-71.444741,42.931644],[-71.44334,42.931812],[-71.441921,42.931957],[-71.440516,42.932109],[-71.439097,42.932262],[-71.437692,42.932414],[-71.436288,42.93256],[-71.434883,42.93272],[-71.433468,42.932865],[-71.432063,42.933032],[-71.430901,42.933154],[-71.429743,42.933277],[-71.428566,42.933414],[-71.428417,42.933498],[-71.428338,42.933536],[-71.427468,42.933635],[-71.427225,42.933666],[-71.426157,42.933673],[-71.424935,42.933826],[-71.424875,42.933811],[-71.423594,42.933956],[-71.422298,42.934101],[-71.421013,42.93423],[-71.419731,42.934375],[-71.418435,42.93452],[-71.417154,42.93465],[-71.415842,42.934795],[-71.414512,42.934955],[-71.413186,42.935085],[-71.41189,42.93523],[-71.410564,42.935375],[-71.409234,42.93552],[-71.407922,42.93568],[-71.406611,42.93581],[-71.40583,42.935901],[-71.405479,42.935954],[-71.404276,42.936084],[-71.403054,42.936214],[-71.401818,42.936344],[-71.400615,42.936489],[-71.400398,42.936511],[-71.39918,42.936649],[-71.397958,42.936801],[-71.396751,42.936946],[-71.395515,42.937099],[-71.395347,42.937091],[-71.395074,42.937129],[-71.393945,42.937267],[-71.392832,42.937381],[-71.3917,42.937503],[-71.391412,42.937541],[-71.389948,42.937702],[-71.388498,42.937869],[-71.387033,42.938022],[-71.385599,42.93819],[-71.384298,42.938332],[-71.384134,42.93835],[-71.384079,42.938356],[-71.384087,42.938369],[-71.385007,42.939776],[-71.385503,42.94052],[-71.385832,42.940992],[-71.385995,42.941188],[-71.386437,42.941707],[-71.387108,42.94231],[-71.387613,42.942729],[-71.38894,42.943721],[-71.391566,42.945693],[-71.392923,42.946711],[-71.394268,42.947724],[-71.39556,42.948699],[-71.396892,42.949693],[-71.397884,42.95041],[-71.398945,42.951214],[-71.40034,42.952266],[-71.401574,42.953188],[-71.402609,42.953953],[-71.402984,42.954244],[-71.403132,42.954388],[-71.4035,42.954722],[-71.403959,42.955171],[-71.404333,42.955562],[-71.404927,42.95623],[-71.405704,42.957095],[-71.406382,42.957863],[-71.406977,42.95852],[-71.407373,42.958926],[-71.407593,42.959138],[-71.407838,42.959324],[-71.408168,42.959549],[-71.408563,42.959759],[-71.408997,42.95997],[-71.409502,42.960166],[-71.409722,42.960243],[-71.410052,42.960344],[-71.411426,42.960713],[-71.412682,42.961045],[-71.414023,42.961415],[-71.414496,42.961554],[-71.414995,42.961679],[-71.41546,42.961742],[-71.415747,42.961771],[-71.416039,42.961791],[-71.416337,42.961796],[-71.416629,42.961765],[-71.416999,42.961723],[-71.417466,42.961648],[-71.418515,42.96145],[-71.418586,42.961517],[-71.418741,42.961617],[-71.41901,42.961783],[-71.419191,42.961888],[-71.419741,42.962223],[-71.419896,42.962347],[-71.420031,42.962523],[-71.420161,42.96271],[-71.420476,42.963263],[-71.420727,42.96374],[-71.421015,42.964343],[-71.42131,42.964964],[-71.421548,42.965465],[-71.42178,42.96596],[-71.422134,42.966647],[-71.422546,42.967429],[-71.423922,42.969999],[-71.424387,42.970767],[-71.424784,42.971339],[-71.425549,42.972305],[-71.425556,42.972315]]],"crs":null}},{"type":"Feature","properties":{"ward":"9","district":"9","population_2020":9627},"geometry":{"type":"Polygon","coordinates":[[[-71.446345,42.969699],[-71.446314,42.970401],[-71.44633,42.971011],[-71.44633,42.971698],[-71.44633,42.9724],[-71.446314,42.973094],[-71.446315,42.973689],[-71.446833,42.973697],[-71.446925,42.973689],[-71.448145,42.973689],[-71.450679,42.973742],[-71.450968,42.973735],[-71.452281,42.973742],[-71.452907,42.97375],[-71.453624,42.97375],[-71.454432,42.97375],[-71.455299,42.973774],[-71.455367,42.973779],[-71.455407,42.973779],[-71.455407,42.973782],[-71.455403,42.975069],[-71.455396,42.975587],[-71.4554,42.976485],[-71.455404,42.976917],[-71.455401,42.977374],[-71.456083,42.97737],[-71.457062,42.977377],[-71.457432,42.977368],[-71.458796,42.977366],[-71.459313,42.977367],[-71.460007,42.977363],[-71.460669,42.97736],[-71.460811,42.977351],[-71.460547,42.97694],[-71.460152,42.976413],[-71.459623,42.975812],[-71.459302,42.975449],[-71.459042,42.975142],[-71.458402,42.974437],[-71.458189,42.974202],[-71.457678,42.97362],[-71.457646,42.973563],[-71.45764,42.973377],[-71.457673,42.973296],[-71.457738,42.973225],[-71.457829,42.973168],[-71.457952,42.973144],[-71.458277,42.97314],[-71.458901,42.973286],[-71.459113,42.973337],[-71.459328,42.973412],[-71.459755,42.973542],[-71.460242,42.973643],[-71.460592,42.9737],[-71.460864,42.973715],[-71.461214,42.97373],[-71.461876,42.97376],[-71.463044,42.973762],[-71.463725,42.973763],[-71.464075,42.97375],[-71.464406,42.973722],[-71.464951,42.973665],[-71.465788,42.973581],[-71.46682,42.973497],[-71.468105,42.973371],[-71.468669,42.973329],[-71.468981,42.973329],[-71.469356,42.973376],[-71.469737,42.973491],[-71.470241,42.973659],[-71.47137,42.97407],[-71.471751,42.974201],[-71.472348,42.973103],[-71.473325,42.971184],[-71.474083,42.969606],[-71.474123,42.969092],[-71.474134,42.96905],[-71.474239,42.96902],[-71.474513,42.9686],[-71.474758,42.967776],[-71.474864,42.967494],[-71.475109,42.967013],[-71.475216,42.96654],[-71.475222,42.966454],[-71.4752,42.966456],[-71.475216,42.966044],[-71.475169,42.965472],[-71.475033,42.964969],[-71.474131,42.961818],[-71.473734,42.960765],[-71.473705,42.960673],[-71.473627,42.960521],[-71.473123,42.959209],[-71.472986,42.958774],[-71.472652,42.956988],[-71.472515,42.956493],[-71.4723,42.955897],[-71.472118,42.955577],[-71.471613,42.95473],[-71.471308,42.954326],[-71.471003,42.954036],[-71.470377,42.95354],[-71.470302,42.953517],[-71.469538,42.953029],[-71.469266,42.952838],[-71.468408,42.952289],[-71.468349,42.952274],[-71.468181,42.952136],[-71.468103,42.952121],[-71.467204,42.951648],[-71.466913,42.951534],[-71.465786,42.951167],[-71.465618,42.951076],[-71.46548,42.951038],[-71.464488,42.950656],[-71.464335,42.950549],[-71.464152,42.950489],[-71.463496,42.950145],[-71.463131,42.949893],[-71.462609,42.949489],[-71.462397,42.949268],[-71.460949,42.947765],[-71.460644,42.947329],[-71.459514,42.947543],[-71.458229,42.947792],[-71.457723,42.947896],[-71.457307,42.948],[-71.456905,42.948123],[-71.456457,42.94827],[-71.456074,42.948412],[-71.455665,42.948592],[-71.455145,42.948834],[-71.454625,42.949119],[-71.454255,42.949342],[-71.453872,42.949604],[-71.452383,42.950711],[-71.451642,42.951271],[-71.451232,42.951557],[-71.450901,42.951761],[-71.450589,42.951941],[-71.450264,42.952112],[-71.450023,42.952235],[-71.449543,42.952439],[-71.449173,42.952591],[-71.448474,42.952844],[-71.446812,42.953408],[-71.446115,42.953646],[-71.445663,42.953801],[-71.444923,42.954057],[-71.444672,42.954144],[-71.443942,42.954398],[-71.443312,42.954627],[-71.442013,42.955096],[-71.440857,42.955475],[-71.438458,42.956304],[-71.437292,42.956704],[-71.436487,42.956979],[-71.436195,42.957083],[-71.436272,42.957389],[-71.436431,42.95807],[-71.436566,42.958499],[-71.436681,42.958828],[-71.436861,42.959276],[-71.437003,42.959553],[-71.437226,42.9599],[-71.43742,42.960149],[-71.437597,42.96035],[-71.437881,42.960617],[-71.438176,42.960865],[-71.438586,42.961138],[-71.439194,42.961525],[-71.439906,42.961907],[-71.440502,42.962194],[-71.441674,42.962744],[-71.443254,42.96349],[-71.443888,42.963773],[-71.444432,42.963974],[-71.444419,42.96406],[-71.444413,42.964102],[-71.445304,42.964432],[-71.446444,42.964858],[-71.446956,42.965054],[-71.447182,42.965155],[-71.447733,42.965414],[-71.448044,42.965586],[-71.448432,42.965824],[-71.448717,42.96602],[-71.449351,42.966497],[-71.449681,42.966741],[-71.450288,42.967203],[-71.450257,42.967206],[-71.450315,42.967223],[-71.45078,42.967615],[-71.450741,42.967869],[-71.450434,42.967891],[-71.449261,42.96804],[-71.448417,42.968153],[-71.448138,42.968172],[-71.447814,42.968152],[-71.446387,42.968302],[-71.446342,42.968306],[-71.44633,42.968509],[-71.44633,42.968852],[-71.446345,42.969699]]],"crs":null}},{"type":"Feature","properties":{"ward":"10","district":"10","population_2020":9608},"geometry":{"type":"Polygon","coordinates":[[[-71.498337,42.996978],[-71.498847,42.997166],[-71.499072,42.99734],[-71.499307,42.997664],[-71.499619,42.998039],[-71.500006,42.998255],[-71.500433,42.998371],[-71.500446,42.998374],[-71.499523,42.995015],[-71.499508,42.994959],[-71.498517,42.991053],[-71.497508,42.987124],[-71.49638,42.982676],[-71.495404,42.982775],[-71.494425,42.98289],[-71.493846,42.979922],[-71.493681,42.979098],[-71.493647,42.978915],[-71.493434,42.977794],[-71.49322,42.976695],[-71.493006,42.97568],[-71.492823,42.974559],[-71.492657,42.973735],[-71.492564,42.97343],[-71.492428,42.972651],[-71.492366,42.972324],[-71.492336,42.972247],[-71.492078,42.970897],[-71.490793,42.964343],[-71.489466,42.964519],[-71.488124,42.964694],[-71.486783,42.964854],[-71.485437,42.96503],[-71.48411,42.965213],[-71.482769,42.965388],[-71.481991,42.965472],[-71.48121,42.965571],[-71.480571,42.96564],[-71.480649,42.965869],[-71.479808,42.965961],[-71.478937,42.966052],[-71.478313,42.966129],[-71.477091,42.966266],[-71.47662,42.966304],[-71.475222,42.966454],[-71.475216,42.96654],[-71.475109,42.967013],[-71.474864,42.967494],[-71.474758,42.967776],[-71.474513,42.9686],[-71.474239,42.96902],[-71.474134,42.96905],[-71.474123,42.969092],[-71.474083,42.969606],[-71.473325,42.971184],[-71.472348,42.973103],[-71.471751,42.974201],[-71.471426,42.974799],[-71.469922,42.977484],[-71.469121,42.979086],[-71.468782,42.979938],[-71.468496,42.980649],[-71.468461,42.983024],[-71.469548,42.985311],[-71.469632,42.985455],[-71.470432,42.985148],[-71.470621,42.985075],[-71.470921,42.984964],[-71.471184,42.98487],[-71.471366,42.985253],[-71.472156,42.985049],[-71.472389,42.985054],[-71.473116,42.985041],[-71.473921,42.985004],[-71.473939,42.985281],[-71.473964,42.985676],[-71.474321,42.985643],[-71.475256,42.98553],[-71.475287,42.985902],[-71.475305,42.986269],[-71.476292,42.986161],[-71.476316,42.986647],[-71.476848,42.986624],[-71.477342,42.98662],[-71.477311,42.986053],[-71.477294,42.985305],[-71.477462,42.985286],[-71.477794,42.985239],[-71.478287,42.985197],[-71.478611,42.985155],[-71.478787,42.985136],[-71.479293,42.985085],[-71.479682,42.985033],[-71.479535,42.984323],[-71.47932,42.983615],[-71.479427,42.983546],[-71.47958,42.983394],[-71.479992,42.982837],[-71.479999,42.98283],[-71.480055,42.982852],[-71.480217,42.982909],[-71.480708,42.983149],[-71.480978,42.983263],[-71.481002,42.983449],[-71.481084,42.983624],[-71.481278,42.983746],[-71.481584,42.983925],[-71.481793,42.984147],[-71.481958,42.98433],[-71.482281,42.984538],[-71.482508,42.984688],[-71.482669,42.985015],[-71.482896,42.985189],[-71.483341,42.985392],[-71.483608,42.985553],[-71.483713,42.98572],[-71.483761,42.985964],[-71.483858,42.986184],[-71.484125,42.986417],[-71.484546,42.986692],[-71.484756,42.986865],[-71.485153,42.987092],[-71.485428,42.987342],[-71.485865,42.987718],[-71.486132,42.987784],[-71.486457,42.987719],[-71.486781,42.987701],[-71.487008,42.987732],[-71.487243,42.987827],[-71.487843,42.988156],[-71.488248,42.988388],[-71.488515,42.98846],[-71.488701,42.988479],[-71.488937,42.988455],[-71.489172,42.988378],[-71.489391,42.988384],[-71.489537,42.988486],[-71.489925,42.988736],[-71.490144,42.988957],[-71.490362,42.989243],[-71.490596,42.989512],[-71.490985,42.989744],[-71.491414,42.989936],[-71.49169,42.990115],[-71.491917,42.990198],[-71.492516,42.990295],[-71.493043,42.990438],[-71.493376,42.990522],[-71.49357,42.990677],[-71.493926,42.990874],[-71.494283,42.991024],[-71.494825,42.991263],[-71.495117,42.991412],[-71.495262,42.991769],[-71.495415,42.992276],[-71.49552,42.993025],[-71.495522,42.993071],[-71.495525,42.993144],[-71.495531,42.993323],[-71.495481,42.993625],[-71.495473,42.993674],[-71.495412,42.994029],[-71.495302,42.994374],[-71.495175,42.99459],[-71.495096,42.994683],[-71.494998,42.994784],[-71.494958,42.994928],[-71.494957,42.995123],[-71.495045,42.99531],[-71.49525,42.995519],[-71.495584,42.995786],[-71.495936,42.99619],[-71.496317,42.996608],[-71.496542,42.996796],[-71.496719,42.996911],[-71.496875,42.996962],[-71.497386,42.996991],[-71.49768,42.996956],[-71.497974,42.996942],[-71.498337,42.996978]]],"crs":null}},{"type":"Feature","properties":{"ward":"11","district":"11","population_2020":9665},"geometry":{"type":"Polygon","coordinates":[[[-71.475913,43.005346],[-71.476159,43.005375],[-71.476341,43.005414],[-71.476484,43.005469],[-71.476615,43.005522],[-71.476841,43.005612],[-71.477028,43.005667],[-71.477203,43.005701],[-71.477321,43.00571],[-71.477434,43.005693],[-71.477657,43.005671],[-71.478846,43.005432],[-71.47964,43.005259],[-71.48048,43.005091],[-71.481097,43.004958],[-71.481166,43.004944],[-71.481243,43.004929],[-71.48118,43.003749],[-71.481136,43.002917],[-71.481057,43.001173],[-71.481052,43.000888],[-71.480947,42.999034],[-71.481453,42.999016],[-71.481972,42.999012],[-71.482466,42.999004],[-71.482972,42.999],[-71.483445,42.998995],[-71.483978,42.998963],[-71.484431,42.998797],[-71.484913,42.998617],[-71.485367,42.998468],[-71.48582,42.998301],[-71.486243,42.998147],[-71.486694,42.997919],[-71.486739,42.997815],[-71.48666,42.996714],[-71.487137,42.996704],[-71.487346,42.996699],[-71.487606,42.996707],[-71.488084,42.996692],[-71.488568,42.996676],[-71.488857,42.996669],[-71.489513,42.996653],[-71.490185,42.99663],[-71.490338,42.996638],[-71.490459,42.996638],[-71.490536,42.997714],[-71.490575,42.997864],[-71.4908,42.99834],[-71.49091,42.998498],[-71.491149,42.998812],[-71.491266,42.998922],[-71.491421,42.999022],[-71.491622,42.999108],[-71.491823,42.999156],[-71.492226,42.999181],[-71.492563,42.999167],[-71.493387,42.999149],[-71.493647,42.99915],[-71.493816,42.999169],[-71.493939,42.999198],[-71.494502,42.999413],[-71.494626,42.999451],[-71.494788,42.999475],[-71.494931,42.999461],[-71.495084,42.999418],[-71.495223,42.999362],[-71.495653,42.999076],[-71.495906,42.998829],[-71.496426,42.999066],[-71.497034,42.999321],[-71.49728,42.99946],[-71.497524,42.999613],[-71.49783,42.999858],[-71.498031,43.000114],[-71.498193,43.000409],[-71.498386,43.000819],[-71.498522,43.001129],[-71.498684,43.001324],[-71.498936,43.001468],[-71.499513,43.001659],[-71.499915,43.001765],[-71.500317,43.001838],[-71.500966,43.001918],[-71.501388,43.001955],[-71.50134,43.001757],[-71.501248,43.001299],[-71.500915,43.000079],[-71.500446,42.998374],[-71.500006,42.998255],[-71.499619,42.998039],[-71.499307,42.997664],[-71.499072,42.99734],[-71.498847,42.997166],[-71.498337,42.996978],[-71.497974,42.996942],[-71.49768,42.996956],[-71.497386,42.996991],[-71.496875,42.996962],[-71.496719,42.996911],[-71.496542,42.996796],[-71.496317,42.996608],[-71.495936,42.99619],[-71.495584,42.995786],[-71.49525,42.995519],[-71.495045,42.99531],[-71.494957,42.995123],[-71.494958,42.994928],[-71.494998,42.994784],[-71.495096,42.994683],[-71.495175,42.99459],[-71.495302,42.994374],[-71.495412,42.994029],[-71.495473,42.993674],[-71.495481,42.993625],[-71.495531,42.993323],[-71.495525,42.993144],[-71.495522,42.993071],[-71.49552,42.993025],[-71.495415,42.992276],[-71.495262,42.991769],[-71.495117,42.991412],[-71.494825,42.991263],[-71.494283,42.991024],[-71.493926,42.990874],[-71.49357,42.990677],[-71.493376,42.990522],[-71.493043,42.990438],[-71.492516,42.990295],[-71.491917,42.990198],[-71.49169,42.990115],[-71.491414,42.989936],[-71.490985,42.989744],[-71.490596,42.989512],[-71.490362,42.989243],[-71.490144,42.988957],[-71.489925,42.988736],[-71.489537,42.988486],[-71.489391,42.988384],[-71.489172,42.988378],[-71.488937,42.988455],[-71.488701,42.988479],[-71.488515,42.98846],[-71.488248,42.988388],[-71.487843,42.988156],[-71.487243,42.987827],[-71.487008,42.987732],[-71.486781,42.987701],[-71.486457,42.987719],[-71.486132,42.987784],[-71.485865,42.987718],[-71.485428,42.987342],[-71.485153,42.987092],[-71.484756,42.986865],[-71.484546,42.986692],[-71.484125,42.986417],[-71.483858,42.986184],[-71.483761,42.985964],[-71.483713,42.98572],[-71.483608,42.985553],[-71.483341,42.985392],[-71.482896,42.985189],[-71.482669,42.985015],[-71.482508,42.984688],[-71.482281,42.984538],[-71.481958,42.98433],[-71.481793,42.984147],[-71.481584,42.983925],[-71.481278,42.983746],[-71.481084,42.983624],[-71.481002,42.983449],[-71.480978,42.983263],[-71.480708,42.983149],[-71.480217,42.982909],[-71.480055,42.982852],[-71.479999,42.98283],[-71.479992,42.982837],[-71.47958,42.983394],[-71.479427,42.983546],[-71.47932,42.983615],[-71.479535,42.984323],[-71.479682,42.985033],[-71.479293,42.985085],[-71.478787,42.985136],[-71.478611,42.985155],[-71.478287,42.985197],[-71.477794,42.985239],[-71.477462,42.985286],[-71.477294,42.985305],[-71.477311,42.986053],[-71.477342,42.98662],[-71.476848,42.986624],[-71.476316,42.986647],[-71.476292,42.986161],[-71.475305,42.986269],[-71.475287,42.985902],[-71.475256,42.98553],[-71.474321,42.985643],[-71.473964,42.985676],[-71.473939,42.985281],[-71.473921,42.985004],[-71.473116,42.985041],[-71.472389,42.985054],[-71.472156,42.985049],[-71.471366,42.985253],[-71.471184,42.98487],[-71.470921,42.984964],[-71.470621,42.985075],[-71.470432,42.985148],[-71.469632,42.985455],[-71.470337,42.98666],[-71.469672,42.991637],[-71.469396,42.994065],[-71.46939,42.994207],[-71.469298,42.995728],[-71.469412,42.996652],[-71.47028,42.997263],[-71.470992,42.997779],[-71.471795,42.9982],[-71.472896,42.998983],[-71.473802,42.999994],[-71.47393,43.00048],[-71.47372,43.001204],[-71.473212,43.001761],[-71.472993,43.001898],[-71.472653,43.002155],[-71.472198,43.002383],[-71.47134,43.002772],[-71.470629,43.003014],[-71.469745,43.003289],[-71.469514,43.003695],[-71.469528,43.003739],[-71.470692,43.004059],[-71.471119,43.004176],[-71.471922,43.004368],[-71.472532,43.004491],[-71.47299,43.004589],[-71.473269,43.004657],[-71.473501,43.004726],[-71.4737,43.0048],[-71.474024,43.004923],[-71.47422,43.005022],[-71.474482,43.005158],[-71.474571,43.00521],[-71.474645,43.005254],[-71.474776,43.005307],[-71.474901,43.005331],[-71.47508,43.005352],[-71.475351,43.00535],[-71.475524,43.005346],[-71.475737,43.005341],[-71.475913,43.005346]]],"crs":null}},{"type":"Feature","properties":{"ward":"12","district":"12","population_2020":9637},"geometry":{"type":"Polygon","coordinates":[[[-71.47398,43.035281],[-71.475046,43.03644],[-71.476116,43.037592],[-71.477521,43.03808],[-71.478832,43.038523],[-71.47955,43.038828],[-71.479687,43.039133],[-71.479732,43.039225],[-71.479855,43.039301],[-71.480176,43.03953],[-71.480967,43.040049],[-71.481748,43.04056],[-71.482371,43.040903],[-71.483577,43.041719],[-71.483789,43.042162],[-71.484217,43.043001],[-71.484324,43.043497],[-71.484356,43.043955],[-71.484415,43.044146],[-71.485301,43.04558],[-71.486172,43.047022],[-71.487178,43.048601],[-71.488187,43.050188],[-71.489178,43.051783],[-71.490368,43.051653],[-71.491528,43.051539],[-71.492703,43.051424],[-71.493923,43.05131],[-71.495158,43.051203],[-71.496378,43.051081],[-71.497602,43.050966],[-71.498563,43.050875],[-71.499529,43.050784],[-71.49954,43.050783],[-71.500393,43.050707],[-71.501276,43.050623],[-71.502698,43.050493],[-71.504102,43.050371],[-71.505505,43.050257],[-71.506923,43.050135],[-71.50973,43.049875],[-71.511152,43.049761],[-71.51257,43.049631],[-71.512768,43.049623],[-71.511365,43.043802],[-71.509929,43.037737],[-71.508482,43.031664],[-71.507427,43.027277],[-71.507017,43.025584],[-71.505582,43.019518],[-71.504132,43.013445],[-71.503718,43.011668],[-71.502697,43.00738],[-71.501388,43.001955],[-71.500966,43.001918],[-71.500317,43.001838],[-71.499915,43.001765],[-71.499513,43.001659],[-71.498936,43.001468],[-71.498684,43.001324],[-71.498522,43.001129],[-71.498386,43.000819],[-71.498193,43.000409],[-71.498031,43.000114],[-71.49783,42.999858],[-71.497524,42.999613],[-71.49728,42.99946],[-71.497034,42.999321],[-71.496426,42.999066],[-71.495906,42.998829],[-71.495653,42.999076],[-71.495223,42.999362],[-71.495084,42.999418],[-71.494931,42.999461],[-71.494788,42.999475],[-71.494626,42.999451],[-71.494502,42.999413],[-71.493939,42.999198],[-71.493816,42.999169],[-71.493647,42.99915],[-71.493387,42.999149],[-71.492563,42.999167],[-71.492226,42.999181],[-71.491823,42.999156],[-71.491622,42.999108],[-71.491421,42.999022],[-71.491266,42.998922],[-71.491149,42.998812],[-71.49091,42.998498],[-71.4908,42.99834],[-71.490575,42.997864],[-71.490536,42.997714],[-71.490459,42.996638],[-71.490338,42.996638],[-71.490185,42.99663],[-71.489513,42.996653],[-71.488857,42.996669],[-71.488568,42.996676],[-71.488084,42.996692],[-71.487606,42.996707],[-71.487346,42.996699],[-71.487137,42.996704],[-71.48666,42.996714],[-71.486739,42.997815],[-71.486694,42.997919],[-71.486243,42.998147],[-71.48582,42.998301],[-71.485367,42.998468],[-71.484913,42.998617],[-71.484431,42.998797],[-71.483978,42.998963],[-71.483445,42.998995],[-71.482972,42.999],[-71.482466,42.999004],[-71.481972,42.999012],[-71.481453,42.999016],[-71.480947,42.999034],[-71.481052,43.000888],[-71.481057,43.001173],[-71.481136,43.002917],[-71.48118,43.003749],[-71.481243,43.004929],[-71.481166,43.004944],[-71.481097,43.004958],[-71.48048,43.005091],[-71.47964,43.005259],[-71.478846,43.005432],[-71.477657,43.005671],[-71.477434,43.005693],[-71.477321,43.00571],[-71.477203,43.005701],[-71.477028,43.005667],[-71.476841,43.005612],[-71.476615,43.005522],[-71.476484,43.005469],[-71.476341,43.005414],[-71.476159,43.005375],[-71.475913,43.005346],[-71.475737,43.005341],[-71.475524,43.005346],[-71.475351,43.00535],[-71.47508,43.005352],[-71.474901,43.005331],[-71.474776,43.005307],[-71.474645,43.005254],[-71.474571,43.00521],[-71.474482,43.005158],[-71.47422,43.005022],[-71.474024,43.004923],[-71.4737,43.0048],[-71.473501,43.004726],[-71.473269,43.004657],[-71.47299,43.004589],[-71.472532,43.004491],[-71.471922,43.004368],[-71.471119,43.004176],[-71.470692,43.004059],[-71.469528,43.003739],[-71.469648,43.00412],[-71.470412,43.005498],[-71.471864,43.007074],[-71.472615,43.008243],[-71.472874,43.008862],[-71.47287,43.008863],[-71.473607,43.010304],[-71.474895,43.012628],[-71.47654,43.015746],[-71.479135,43.020566],[-71.479811,43.022411],[-71.480095,43.023777],[-71.480225,43.025292],[-71.479421,43.027903],[-71.478914,43.02924],[-71.477583,43.031353],[-71.475569,43.033786],[-71.47398,43.035281]]],"crs":null}}]}