{"type":"FeatureCollection","name":"Lewiston wards (2020)","source":"City of Lewiston GIS, Wards - City Council, https://maps2.lewistonmaine.gov/arcgis/rest/services/Public/Wards_council/MapServer/0; population from the 2020 Census (U.S. Census Bureau)","features":[{"type":"Feature","properties":{"ward":"1","population_2020":5496},"geometry":{"type":"Polygon","coordinates":[[[-70.197209,44.1189],[-70.197354,44.118906],[-70.19761,44.118935],[-70.197989,44.118988],[-70.198886,44.119111],[-70.199723,44.119238],[-70.2011,44.119423],[-70.201628,44.119486],[-70.202511,44.1196],[-70.203501,44.119741],[-70.203647,44.119767],[-70.203123,44.120567],[-70.202793,44.121106],[-70.202436,44.121629],[-70.202255,44.121905],[-70.202113,44.122181],[-70.201987,44.122502],[-70.201853,44.122965],[-70.201743,44.123361],[-70.2017,44.123487],[-70.201637,44.123743],[-70.201536,44.12417],[-70.201425,44.124565],[-70.198915,44.126794],[-70.198121,44.127466],[-70.19786,44.12769],[-70.191859,44.13305],[-70.19145,44.133399],[-70.190971,44.133786],[-70.190426,44.134221],[-70.189873,44.134602],[-70.189294,44.134988],[-70.188518,44.135465],[-70.187783,44.135887],[-70.18651,44.136601],[-70.185486,44.137161],[-70.182728,44.138638],[-70.180927,44.139608],[-70.178829,44.140769],[-70.175996,44.142304],[-70.175128,44.142763],[-70.17426,44.143232],[-70.173683,44.143552],[-70.173153,44.143839],[-70.172261,44.144303],[-70.171567,44.144678],[-70.171047,44.144976],[-70.169799,44.145749],[-70.169403,44.146029],[-70.169105,44.146255],[-70.168535,44.146702],[-70.167999,44.147136],[-70.167784,44.147327],[-70.167585,44.147535],[-70.167247,44.147886],[-70.166652,44.148565],[-70.166068,44.149292],[-70.165631,44.149834],[-70.165466,44.150039],[-70.165465,44.15004],[-70.18439,44.159688],[-70.199753,44.167516],[-70.199728,44.167453],[-70.199853,44.167263],[-70.200053,44.167117],[-70.200315,44.166821],[-70.200615,44.16657],[-70.200954,44.166283],[-70.201315,44.166005],[-70.201508,44.165755],[-70.201741,44.165442],[-70.201811,44.165297],[-70.201898,44.165053],[-70.201924,44.164729],[-70.201982,44.164409],[-70.202039,44.164053],[-70.20212,44.163665],[-70.202277,44.163253],[-70.202372,44.16296],[-70.202515,44.162522],[-70.202678,44.162254],[-70.202903,44.16191],[-70.203128,44.161556],[-70.203291,44.161293],[-70.2036,44.160899],[-70.204057,44.160286],[-70.204387,44.160048],[-70.204596,44.159776],[-70.204899,44.159282],[-70.205132,44.158902],[-70.205341,44.158638],[-70.205644,44.158145],[-70.206061,44.157658],[-70.206355,44.157255],[-70.206697,44.156652],[-70.207038,44.156235],[-70.207355,44.155808],[-70.207888,44.155145],[-70.208159,44.154787],[-70.208592,44.154269],[-70.209148,44.153624],[-70.209488,44.153193],[-70.209573,44.153079],[-70.20979,44.152739],[-70.210122,44.152331],[-70.210347,44.152027],[-70.210533,44.151791],[-70.210642,44.151546],[-70.210705,44.151384],[-70.210754,44.151118],[-70.210681,44.150812],[-70.210361,44.150221],[-70.210205,44.149908],[-70.210086,44.149684],[-70.209923,44.149299],[-70.209737,44.148886],[-70.209497,44.148551],[-70.209273,44.148198],[-70.208837,44.147771],[-70.208588,44.147508],[-70.20825,44.147169],[-70.207888,44.14688],[-70.207601,44.146663],[-70.207299,44.146486],[-70.206981,44.146269],[-70.206634,44.146011],[-70.206272,44.145731],[-70.205775,44.145323],[-70.205543,44.144974],[-70.205205,44.14459],[-70.204619,44.143908],[-70.204287,44.143628],[-70.20407,44.14331],[-70.203838,44.142975],[-70.203435,44.142286],[-70.203264,44.141946],[-70.203003,44.141539],[-70.202696,44.14111],[-70.202562,44.140841],[-70.202375,44.140555],[-70.202187,44.140323],[-70.202083,44.140198],[-70.201916,44.140087],[-70.20172,44.139923],[-70.201426,44.13971],[-70.201162,44.139542],[-70.200981,44.139381],[-70.200883,44.139261],[-70.200957,44.138211],[-70.201228,44.137209],[-70.201511,44.136481],[-70.201773,44.136159],[-70.201975,44.135851],[-70.202115,44.135575],[-70.202194,44.135326],[-70.202244,44.134984],[-70.202271,44.134664],[-70.202313,44.134303],[-70.20238,44.133848],[-70.202452,44.133509],[-70.202547,44.133234],[-70.203052,44.132405],[-70.203775,44.131735],[-70.203776,44.131735],[-70.204436,44.131166],[-70.205082,44.130641],[-70.205528,44.130245],[-70.206044,44.129767],[-70.206498,44.129379],[-70.206853,44.128993],[-70.207139,44.12863],[-70.207471,44.128163],[-70.207911,44.127708],[-70.208075,44.127323],[-70.208185,44.127048],[-70.208257,44.126754],[-70.208276,44.126466],[-70.208333,44.126195],[-70.20842,44.125911],[-70.208537,44.125675],[-70.208653,44.125463],[-70.208739,44.125273],[-70.208786,44.125097],[-70.208801,44.125083],[-70.209399,44.124572],[-70.2099,44.124126],[-70.21007,44.123876],[-70.210105,44.123696],[-70.210084,44.123377],[-70.210047,44.123035],[-70.210056,44.122733],[-70.210111,44.122404],[-70.210228,44.122164],[-70.210451,44.121842],[-70.210935,44.121315],[-70.211829,44.120284],[-70.212753,44.119229],[-70.213142,44.118888],[-70.213509,44.118591],[-70.2139,44.11833],[-70.214517,44.117991],[-70.215074,44.117674],[-70.215677,44.117366],[-70.215969,44.117156],[-70.216194,44.116982],[-70.21653,44.116601],[-70.216803,44.116157],[-70.216925,44.115768],[-70.216964,44.115466],[-70.216974,44.115169],[-70.216856,44.114567],[-70.216746,44.113956],[-70.216692,44.113547],[-70.216715,44.11311],[-70.216783,44.112709],[-70.216867,44.112334],[-70.217087,44.111868],[-70.217263,44.11152],[-70.217643,44.111124],[-70.217987,44.110805],[-70.218355,44.110558],[-70.218799,44.110265],[-70.219189,44.110023],[-70.219656,44.109734],[-70.220076,44.109419],[-70.220518,44.109036],[-70.220989,44.108626],[-70.221325,44.108303],[-70.221669,44.107966],[-70.222093,44.107453],[-70.222433,44.106963],[-70.22264,44.106627],[-70.222897,44.106184],[-70.223291,44.105274],[-70.223398,44.104895],[-70.223423,44.104638],[-70.223421,44.104485],[-70.223445,44.104183],[-70.223403,44.103945],[-70.22329,44.103627],[-70.223155,44.103322],[-70.222972,44.102901],[-70.222814,44.102574],[-70.222663,44.102252],[-70.222534,44.101866],[-70.222451,44.101516],[-70.222441,44.10143],[-70.22172,44.101537],[-70.221528,44.101581],[-70.221477,44.101586],[-70.22129,44.101602],[-70.220193,44.101765],[-70.219574,44.101876],[-70.219109,44.101966],[-70.218816,44.10203],[-70.218643,44.10208],[-70.218148,44.10222],[-70.21767,44.102392],[-70.217276,44.102559],[-70.217013,44.102676],[-70.216824,44.102785],[-70.21656,44.102929],[-70.216255,44.103119],[-70.216028,44.103269],[-70.215807,44.103424],[-70.215646,44.10354],[-70.215503,44.103656],[-70.215372,44.103768],[-70.215258,44.103871],[-70.215145,44.103979],[-70.214972,44.104177],[-70.214793,44.104379],[-70.214653,44.104556],[-70.214494,44.104496],[-70.212364,44.10378],[-70.211498,44.103358],[-70.210843,44.103056],[-70.209796,44.102572],[-70.20975,44.102531],[-70.209011,44.103363],[-70.208614,44.10381],[-70.208521,44.10391],[-70.207989,44.104482],[-70.20745,44.105063],[-70.206858,44.105699],[-70.20593,44.105238],[-70.20504,44.104796],[-70.204213,44.104385],[-70.203433,44.103999],[-70.202832,44.103703],[-70.202525,44.10356],[-70.202524,44.10356],[-70.200773,44.105394],[-70.19942,44.106792],[-70.199166,44.107067],[-70.199053,44.107186],[-70.199061,44.10719],[-70.200769,44.1081],[-70.202873,44.109214],[-70.203277,44.109407],[-70.203278,44.109407],[-70.203278,44.109407],[-70.203027,44.109664],[-70.202889,44.109807],[-70.202484,44.110225],[-70.202321,44.110389],[-70.20232,44.110389],[-70.202172,44.110538],[-70.201893,44.110818],[-70.201566,44.111145],[-70.20119,44.111523],[-70.200896,44.111819],[-70.200843,44.111871],[-70.20072,44.111999],[-70.20049,44.112238],[-70.200129,44.112589],[-70.19978,44.112951],[-70.199654,44.113077],[-70.199458,44.113274],[-70.199302,44.113436],[-70.199109,44.113627],[-70.19895,44.113792],[-70.198838,44.113905],[-70.198684,44.114059],[-70.198569,44.114175],[-70.198393,44.114354],[-70.198288,44.114462],[-70.198124,44.114627],[-70.198034,44.114718],[-70.197923,44.11483],[-70.197776,44.114975],[-70.197651,44.1151],[-70.197519,44.115233],[-70.197382,44.115372],[-70.197234,44.11552],[-70.197088,44.115666],[-70.196921,44.115834],[-70.19678,44.115976],[-70.196623,44.116135],[-70.196522,44.116238],[-70.196478,44.116282],[-70.196382,44.11638],[-70.196244,44.116521],[-70.196075,44.116693],[-70.195931,44.116839],[-70.195886,44.116885],[-70.195797,44.116979],[-70.195656,44.117122],[-70.195501,44.117281],[-70.195475,44.117307],[-70.195347,44.117447],[-70.19532,44.117476],[-70.195181,44.117604],[-70.195108,44.11768],[-70.195026,44.117763],[-70.194903,44.11789],[-70.194791,44.118001],[-70.194779,44.118013],[-70.19465,44.118141],[-70.194534,44.118261],[-70.194387,44.118426],[-70.194375,44.118438],[-70.194375,44.118438],[-70.194375,44.118438],[-70.194714,44.119056],[-70.194939,44.119079],[-70.195285,44.119104],[-70.195584,44.119101],[-70.195894,44.119065],[-70.196447,44.118977],[-70.196992,44.118908],[-70.197146,44.118898],[-70.197209,44.1189]]]}},{"type":"Feature","properties":{"ward":"2","population_2020":5472},"geometry":{"type":"Polygon","coordinates":[[[-70.201425,44.124565],[-70.201536,44.12417],[-70.201637,44.123743],[-70.2017,44.123487],[-70.201743,44.123361],[-70.201853,44.122965],[-70.201987,44.122502],[-70.202113,44.122181],[-70.202255,44.121905],[-70.202436,44.121629],[-70.202793,44.121106],[-70.203123,44.120567],[-70.203647,44.119767],[-70.203501,44.119741],[-70.202511,44.1196],[-70.201628,44.119486],[-70.2011,44.119423],[-70.199723,44.119238],[-70.198886,44.119111],[-70.197989,44.118988],[-70.19761,44.118935],[-70.197354,44.118906],[-70.197209,44.1189],[-70.197146,44.118898],[-70.196992,44.118908],[-70.196447,44.118977],[-70.195894,44.119065],[-70.195584,44.119101],[-70.195285,44.119104],[-70.194939,44.119079],[-70.194714,44.119056],[-70.194375,44.118438],[-70.194375,44.118438],[-70.194375,44.118438],[-70.194387,44.118426],[-70.194534,44.118261],[-70.19465,44.118141],[-70.194779,44.118013],[-70.194791,44.118001],[-70.194903,44.11789],[-70.195026,44.117763],[-70.195108,44.11768],[-70.195181,44.117604],[-70.19532,44.117476],[-70.195347,44.117447],[-70.195475,44.117307],[-70.195501,44.117281],[-70.195656,44.117122],[-70.195797,44.116979],[-70.195886,44.116885],[-70.195931,44.116839],[-70.196075,44.116693],[-70.196244,44.116521],[-70.196382,44.11638],[-70.196478,44.116282],[-70.196522,44.116238],[-70.196623,44.116135],[-70.19678,44.115976],[-70.196921,44.115834],[-70.197088,44.115666],[-70.197234,44.11552],[-70.197382,44.115372],[-70.197519,44.115233],[-70.197651,44.1151],[-70.197776,44.114975],[-70.197923,44.11483],[-70.198034,44.114718],[-70.198124,44.114627],[-70.198288,44.114462],[-70.198393,44.114354],[-70.198569,44.114175],[-70.198684,44.114059],[-70.198838,44.113905],[-70.19895,44.113792],[-70.199109,44.113627],[-70.199302,44.113436],[-70.199458,44.113274],[-70.199654,44.113077],[-70.19978,44.112951],[-70.200129,44.112589],[-70.20049,44.112238],[-70.20072,44.111999],[-70.200843,44.111871],[-70.200896,44.111819],[-70.20119,44.111523],[-70.201566,44.111145],[-70.201893,44.110818],[-70.202172,44.110538],[-70.20232,44.110389],[-70.202321,44.110389],[-70.202484,44.110225],[-70.202889,44.109807],[-70.203027,44.109664],[-70.203278,44.109407],[-70.203278,44.109407],[-70.203277,44.109407],[-70.202873,44.109214],[-70.200769,44.1081],[-70.199061,44.10719],[-70.199053,44.107186],[-70.199166,44.107067],[-70.19942,44.106792],[-70.200773,44.105394],[-70.202524,44.10356],[-70.200365,44.102495],[-70.200189,44.102405],[-70.198729,44.101689],[-70.198377,44.101523],[-70.198128,44.101395],[-70.197317,44.101005],[-70.197082,44.10091],[-70.19708,44.100909],[-70.195369,44.101058],[-70.193847,44.101199],[-70.190817,44.101471],[-70.188912,44.101646],[-70.187239,44.101793],[-70.186427,44.101862],[-70.185744,44.101924],[-70.184873,44.101997],[-70.18407,44.102074],[-70.18339,44.102168],[-70.182526,44.102294],[-70.182309,44.102325],[-70.181637,44.102422],[-70.181393,44.102459],[-70.180349,44.102609],[-70.179927,44.10267],[-70.179072,44.102795],[-70.178365,44.102898],[-70.177945,44.102954],[-70.177483,44.103004],[-70.177167,44.103034],[-70.176904,44.103054],[-70.176484,44.103085],[-70.174794,44.103211],[-70.174339,44.103248],[-70.174118,44.103259],[-70.173993,44.103261],[-70.17392,44.103258],[-70.173859,44.103375],[-70.17351,44.103741],[-70.173356,44.103908],[-70.172789,44.104516],[-70.172475,44.104838],[-70.172348,44.104976],[-70.171667,44.105684],[-70.171375,44.105962],[-70.171199,44.106155],[-70.170763,44.106602],[-70.16957,44.107842],[-70.169442,44.107971],[-70.169324,44.108065],[-70.169214,44.108133],[-70.169053,44.108216],[-70.168715,44.108355],[-70.168246,44.108535],[-70.167051,44.10901],[-70.166738,44.109122],[-70.166572,44.109163],[-70.166418,44.109196],[-70.166112,44.109244],[-70.165919,44.109259],[-70.164696,44.10929],[-70.164002,44.109301],[-70.163751,44.109305],[-70.163545,44.109315],[-70.163383,44.109339],[-70.163133,44.109412],[-70.162501,44.109659],[-70.161717,44.109986],[-70.160822,44.110333],[-70.160688,44.11039],[-70.160576,44.11045],[-70.160466,44.110521],[-70.160388,44.110592],[-70.160192,44.110794],[-70.158572,44.112573],[-70.158209,44.112962],[-70.157838,44.113349],[-70.157787,44.113407],[-70.157694,44.113544],[-70.157624,44.113695],[-70.157563,44.113873],[-70.157528,44.114016],[-70.157507,44.114194],[-70.157504,44.114292],[-70.157513,44.114444],[-70.157563,44.114754],[-70.157747,44.11559],[-70.157891,44.11619],[-70.157999,44.116679],[-70.158032,44.116838],[-70.158099,44.117095],[-70.15828,44.118295],[-70.158327,44.118726],[-70.158331,44.118889],[-70.158325,44.118989],[-70.158287,44.119183],[-70.158243,44.119338],[-70.158162,44.119557],[-70.158063,44.119785],[-70.157967,44.11995],[-70.157797,44.120149],[-70.157091,44.120897],[-70.156883,44.121109],[-70.156366,44.121658],[-70.155319,44.122796],[-70.155116,44.122997],[-70.154413,44.123731],[-70.154199,44.123961],[-70.153925,44.124234],[-70.153152,44.125036],[-70.152482,44.125717],[-70.152191,44.126033],[-70.151999,44.126259],[-70.151652,44.12669],[-70.151238,44.12719],[-70.150941,44.127529],[-70.15069,44.127785],[-70.150133,44.128304],[-70.149945,44.128488],[-70.149728,44.128726],[-70.149512,44.128979],[-70.149071,44.129461],[-70.149056,44.129479],[-70.148763,44.12981],[-70.148451,44.130136],[-70.148251,44.130333],[-70.148167,44.130416],[-70.148107,44.130492],[-70.147991,44.130607],[-70.146938,44.131706],[-70.145947,44.13276],[-70.145097,44.133709],[-70.144978,44.133848],[-70.144521,44.134319],[-70.144253,44.134578],[-70.143755,44.135077],[-70.143467,44.135389],[-70.143211,44.135683],[-70.143013,44.135891],[-70.142817,44.136076],[-70.142711,44.136164],[-70.142483,44.136337],[-70.142354,44.136417],[-70.141661,44.136812],[-70.14139,44.136984],[-70.14127,44.137072],[-70.140791,44.137454],[-70.140203,44.137984],[-70.163787,44.149184],[-70.163882,44.149232],[-70.165465,44.15004],[-70.165466,44.150039],[-70.165631,44.149834],[-70.166068,44.149292],[-70.166652,44.148565],[-70.167247,44.147886],[-70.167585,44.147535],[-70.167784,44.147327],[-70.167999,44.147136],[-70.168535,44.146702],[-70.169105,44.146255],[-70.169403,44.146029],[-70.169799,44.145749],[-70.171047,44.144976],[-70.171567,44.144678],[-70.172261,44.144303],[-70.173153,44.143839],[-70.173683,44.143552],[-70.17426,44.143232],[-70.175128,44.142763],[-70.175996,44.142304],[-70.178829,44.140769],[-70.180927,44.139608],[-70.182728,44.138638],[-70.185486,44.137161],[-70.18651,44.136601],[-70.187783,44.135887],[-70.188518,44.135465],[-70.189294,44.134988],[-70.189873,44.134602],[-70.190426,44.134221],[-70.190971,44.133786],[-70.19145,44.133399],[-70.191859,44.13305],[-70.19786,44.12769],[-70.198121,44.127466],[-70.198915,44.126794],[-70.201425,44.124565]]]}},{"type":"Feature","properties":{"ward":"3","population_2020":5336},"geometry":{"type":"Polygon","coordinates":[[[-70.202524,44.10356],[-70.202525,44.10356],[-70.202832,44.103703],[-70.203433,44.103999],[-70.204213,44.104385],[-70.20504,44.104796],[-70.20593,44.105238],[-70.206858,44.105699],[-70.20745,44.105063],[-70.207989,44.104482],[-70.208521,44.10391],[-70.208614,44.10381],[-70.209011,44.103363],[-70.20975,44.102531],[-70.209796,44.102572],[-70.210843,44.103056],[-70.211498,44.103358],[-70.212364,44.10378],[-70.214494,44.104496],[-70.214653,44.104556],[-70.214793,44.104379],[-70.214972,44.104177],[-70.215145,44.103979],[-70.215258,44.103871],[-70.215372,44.103768],[-70.215503,44.103656],[-70.215646,44.10354],[-70.215807,44.103424],[-70.216028,44.103269],[-70.216255,44.103119],[-70.21656,44.102929],[-70.216824,44.102785],[-70.217013,44.102676],[-70.217276,44.102559],[-70.21767,44.102392],[-70.218148,44.10222],[-70.218643,44.10208],[-70.218816,44.10203],[-70.219109,44.101966],[-70.219574,44.101876],[-70.220193,44.101765],[-70.22129,44.101602],[-70.221477,44.101586],[-70.221528,44.101581],[-70.22172,44.101537],[-70.222441,44.10143],[-70.222406,44.101156],[-70.222375,44.100675],[-70.222366,44.100211],[-70.222422,44.099549],[-70.222508,44.098918],[-70.222625,44.098273],[-70.222745,44.09779],[-70.222942,44.097324],[-70.223177,44.09688],[-70.223494,44.096341],[-70.223758,44.095875],[-70.223943,44.095607],[-70.224117,44.095141],[-70.224193,44.094731],[-70.224246,44.094321],[-70.224262,44.093942],[-70.224254,44.093551],[-70.224186,44.093151],[-70.224069,44.092626],[-70.224065,44.092604],[-70.223943,44.091979],[-70.223886,44.091795],[-70.223769,44.091598],[-70.223279,44.091027],[-70.222905,44.09059],[-70.22258,44.090256],[-70.222193,44.089945],[-70.221708,44.08963],[-70.221346,44.089395],[-70.221161,44.089644],[-70.220955,44.089906],[-70.220332,44.0907],[-70.220238,44.090778],[-70.220138,44.090834],[-70.220053,44.090861],[-70.219708,44.09096],[-70.219345,44.091047],[-70.219154,44.091106],[-70.21872,44.091252],[-70.218239,44.091396],[-70.217386,44.091674],[-70.217333,44.091691],[-70.21683,44.09185],[-70.216809,44.091897],[-70.216787,44.091908],[-70.216541,44.091996],[-70.216299,44.092071],[-70.216111,44.092134],[-70.21597,44.09218],[-70.215735,44.092256],[-70.215499,44.092321],[-70.215216,44.092415],[-70.214734,44.092574],[-70.215132,44.093212],[-70.214241,44.093502],[-70.213386,44.093781],[-70.212516,44.094069],[-70.2128,44.094541],[-70.213119,44.095056],[-70.212259,44.095334],[-70.211392,44.095614],[-70.210522,44.095893],[-70.209658,44.096169],[-70.209203,44.096317],[-70.208792,44.096447],[-70.207922,44.09673],[-70.207063,44.097004],[-70.206793,44.097091],[-70.206183,44.097288],[-70.205309,44.097569],[-70.205936,44.098577],[-70.206617,44.099667],[-70.206463,44.099717],[-70.206239,44.099802],[-70.206056,44.099945],[-70.205922,44.100067],[-70.205867,44.100128],[-70.205481,44.10016],[-70.203952,44.100298],[-70.202545,44.100426],[-70.201525,44.100517],[-70.199369,44.100705],[-70.199218,44.100719],[-70.19708,44.100909],[-70.197082,44.10091],[-70.197317,44.101005],[-70.198128,44.101395],[-70.198377,44.101523],[-70.198729,44.101689],[-70.200189,44.102405],[-70.200365,44.102495],[-70.202524,44.10356]]]}},{"type":"Feature","properties":{"ward":"4","population_2020":5128},"geometry":{"type":"Polygon","coordinates":[[[-70.148911,44.106013],[-70.14862,44.106347],[-70.148979,44.108224],[-70.149077,44.109007],[-70.148893,44.10953],[-70.148098,44.111447],[-70.146545,44.115957],[-70.146325,44.11666],[-70.14642,44.118059],[-70.146914,44.120147],[-70.147435,44.122246],[-70.147507,44.122528],[-70.14772,44.124424],[-70.147853,44.126262],[-70.147883,44.12724],[-70.148118,44.128886],[-70.148131,44.129021],[-70.148137,44.129272],[-70.148569,44.129345],[-70.149071,44.129461],[-70.149512,44.128979],[-70.149728,44.128726],[-70.149945,44.128488],[-70.150133,44.128304],[-70.15069,44.127785],[-70.150941,44.127529],[-70.151238,44.12719],[-70.151652,44.12669],[-70.151999,44.126259],[-70.152191,44.126033],[-70.152482,44.125717],[-70.153152,44.125036],[-70.153925,44.124234],[-70.154199,44.123961],[-70.154413,44.123731],[-70.155116,44.122997],[-70.155319,44.122796],[-70.156366,44.121658],[-70.156883,44.121109],[-70.157091,44.120897],[-70.157797,44.120149],[-70.157967,44.11995],[-70.158063,44.119785],[-70.158162,44.119557],[-70.158243,44.119338],[-70.158287,44.119183],[-70.158325,44.118989],[-70.158331,44.118889],[-70.158327,44.118726],[-70.15828,44.118295],[-70.158099,44.117095],[-70.158032,44.116838],[-70.157999,44.116679],[-70.157891,44.11619],[-70.157747,44.11559],[-70.157563,44.114754],[-70.157513,44.114444],[-70.157504,44.114292],[-70.157507,44.114194],[-70.157528,44.114016],[-70.157563,44.113873],[-70.157624,44.113695],[-70.157694,44.113544],[-70.157787,44.113407],[-70.157838,44.113349],[-70.158209,44.112962],[-70.158572,44.112573],[-70.160192,44.110794],[-70.160388,44.110592],[-70.160466,44.110521],[-70.160576,44.11045],[-70.160688,44.11039],[-70.160822,44.110333],[-70.161717,44.109986],[-70.162501,44.109659],[-70.163133,44.109412],[-70.163383,44.109339],[-70.163545,44.109315],[-70.163751,44.109305],[-70.164002,44.109301],[-70.164696,44.10929],[-70.165919,44.109259],[-70.166112,44.109244],[-70.166418,44.109196],[-70.166572,44.109163],[-70.166738,44.109122],[-70.167051,44.10901],[-70.168246,44.108535],[-70.168715,44.108355],[-70.169053,44.108216],[-70.169214,44.108133],[-70.169324,44.108065],[-70.169442,44.107971],[-70.16957,44.107842],[-70.170763,44.106602],[-70.171199,44.106155],[-70.171375,44.105962],[-70.171667,44.105684],[-70.172348,44.104976],[-70.172475,44.104838],[-70.172789,44.104516],[-70.173356,44.103908],[-70.17351,44.103741],[-70.173859,44.103375],[-70.17392,44.103258],[-70.173993,44.103261],[-70.174118,44.103259],[-70.174339,44.103248],[-70.174794,44.103211],[-70.176484,44.103085],[-70.176904,44.103054],[-70.177167,44.103034],[-70.177483,44.103004],[-70.177945,44.102954],[-70.178365,44.102898],[-70.179072,44.102795],[-70.179927,44.10267],[-70.180349,44.102609],[-70.181393,44.102459],[-70.181637,44.102422],[-70.182309,44.102325],[-70.182526,44.102294],[-70.18339,44.102168],[-70.18407,44.102074],[-70.184873,44.101997],[-70.185744,44.101924],[-70.186427,44.101862],[-70.187239,44.101793],[-70.188912,44.101646],[-70.190817,44.101471],[-70.193847,44.101199],[-70.194794,44.10017],[-70.195048,44.099889],[-70.195283,44.09964],[-70.195764,44.099125],[-70.195832,44.099053],[-70.196233,44.098618],[-70.196297,44.098543],[-70.196677,44.098069],[-70.196759,44.097967],[-70.193656,44.096419],[-70.192309,44.095739],[-70.19279,44.095178],[-70.193283,44.094607],[-70.193782,44.093993],[-70.193011,44.09359],[-70.192413,44.093291],[-70.191767,44.092978],[-70.191505,44.092841],[-70.191091,44.092632],[-70.189887,44.09201],[-70.189171,44.091637],[-70.188352,44.091203],[-70.187575,44.0908],[-70.187445,44.090732],[-70.186898,44.090447],[-70.186807,44.090402],[-70.186027,44.090003],[-70.185154,44.089562],[-70.184216,44.089083],[-70.183832,44.088888],[-70.183462,44.088704],[-70.182816,44.088384],[-70.182487,44.088208],[-70.181736,44.087825],[-70.181373,44.087645],[-70.181148,44.08753],[-70.181102,44.087582],[-70.176334,44.092934],[-70.173338,44.093705],[-70.173221,44.093969],[-70.173139,44.094071],[-70.172693,44.094573],[-70.172504,44.094813],[-70.172463,44.094873],[-70.172376,44.095041],[-70.172318,44.095199],[-70.17226,44.095398],[-70.17223,44.095532],[-70.172222,44.095783],[-70.172237,44.096011],[-70.172299,44.096443],[-70.172312,44.096591],[-70.172297,44.096701],[-70.172248,44.096824],[-70.172178,44.096912],[-70.171984,44.097048],[-70.171746,44.097175],[-70.171709,44.09719],[-70.171599,44.097049],[-70.171387,44.096729],[-70.17127,44.096544],[-70.171213,44.096467],[-70.171052,44.096209],[-70.170844,44.095913],[-70.170778,44.095833],[-70.170468,44.095535],[-70.170137,44.095233],[-70.170003,44.095126],[-70.169812,44.094978],[-70.169554,44.094816],[-70.168695,44.094351],[-70.168154,44.094051],[-70.167594,44.093678],[-70.167304,44.093449],[-70.167165,44.093323],[-70.167044,44.093222],[-70.166766,44.092951],[-70.166312,44.092475],[-70.165865,44.091986],[-70.165416,44.091516],[-70.165298,44.09138],[-70.165193,44.091246],[-70.165041,44.090986],[-70.164952,44.0908],[-70.16487,44.090606],[-70.164678,44.090077],[-70.164583,44.089729],[-70.164556,44.089655],[-70.164529,44.089598],[-70.164491,44.089547],[-70.164375,44.089433],[-70.164164,44.089276],[-70.164164,44.089276],[-70.164117,44.089358],[-70.162432,44.091119],[-70.156798,44.097206],[-70.154515,44.099845],[-70.153977,44.100595],[-70.148911,44.106013]]]}},{"type":"Feature","properties":{"ward":"5","population_2020":5183},"geometry":{"type":"Polygon","coordinates":[[[-70.196297,44.098543],[-70.196233,44.098618],[-70.195832,44.099053],[-70.195764,44.099125],[-70.195283,44.09964],[-70.195048,44.099889],[-70.194794,44.10017],[-70.193847,44.101199],[-70.195369,44.101058],[-70.19708,44.100909],[-70.199218,44.100719],[-70.199369,44.100705],[-70.201525,44.100517],[-70.202545,44.100426],[-70.203952,44.100298],[-70.205481,44.10016],[-70.205867,44.100128],[-70.205922,44.100067],[-70.206056,44.099945],[-70.206239,44.099802],[-70.206463,44.099717],[-70.206617,44.099667],[-70.205936,44.098577],[-70.205309,44.097569],[-70.206183,44.097288],[-70.206793,44.097091],[-70.207063,44.097004],[-70.207922,44.09673],[-70.208792,44.096447],[-70.209203,44.096317],[-70.209658,44.096169],[-70.210522,44.095893],[-70.211392,44.095614],[-70.212259,44.095334],[-70.213119,44.095056],[-70.2128,44.094541],[-70.212516,44.094069],[-70.213386,44.093781],[-70.214241,44.093502],[-70.215132,44.093212],[-70.214734,44.092574],[-70.214452,44.092094],[-70.213428,44.090466],[-70.213012,44.089793],[-70.212643,44.089218],[-70.212498,44.089059],[-70.212383,44.088925],[-70.212262,44.088825],[-70.211699,44.089379],[-70.211021,44.090042],[-70.210664,44.090389],[-70.210359,44.090568],[-70.210253,44.090621],[-70.207606,44.09138],[-70.20755,44.091438],[-70.20565,44.090503],[-70.203245,44.089322],[-70.202452,44.088931],[-70.200138,44.087789],[-70.199966,44.088058],[-70.19963,44.08882],[-70.199306,44.08973],[-70.199123,44.090438],[-70.199051,44.090754],[-70.198952,44.092398],[-70.198962,44.092592],[-70.198974,44.092761],[-70.199066,44.093402],[-70.199179,44.094099],[-70.199235,44.094584],[-70.199222,44.094732],[-70.199184,44.094922],[-70.199082,44.095104],[-70.198885,44.095364],[-70.198234,44.096126],[-70.19816,44.096201],[-70.198142,44.096208],[-70.196447,44.095348],[-70.195696,44.09497],[-70.195179,44.094711],[-70.194403,44.094319],[-70.193782,44.093993],[-70.193283,44.094607],[-70.19279,44.095178],[-70.192309,44.095739],[-70.193656,44.096419],[-70.196759,44.097967],[-70.196677,44.098069],[-70.196297,44.098543]]]}},{"type":"Feature","properties":{"ward":"6","population_2020":5213},"geometry":{"type":"Polygon","coordinates":[[[-70.164164,44.089276],[-70.164169,44.089267],[-70.164171,44.089266],[-70.164217,44.089197],[-70.164412,44.088942],[-70.164599,44.088726],[-70.165158,44.088154],[-70.165776,44.087489],[-70.166399,44.086805],[-70.166737,44.086451],[-70.167924,44.085272],[-70.169107,44.084102],[-70.169433,44.08375],[-70.170356,44.082695],[-70.170724,44.082274],[-70.170724,44.082274],[-70.174306,44.08407],[-70.175388,44.084612],[-70.175939,44.084882],[-70.176318,44.085062],[-70.176318,44.085062],[-70.176361,44.085006],[-70.176681,44.084648],[-70.17683,44.084457],[-70.176887,44.084391],[-70.177521,44.083707],[-70.177886,44.083314],[-70.178008,44.083169],[-70.178106,44.083002],[-70.178196,44.082849],[-70.178259,44.082667],[-70.178281,44.082548],[-70.178286,44.082461],[-70.178248,44.082072],[-70.17818,44.081497],[-70.177967,44.080076],[-70.177927,44.079569],[-70.177933,44.079346],[-70.177978,44.079108],[-70.178023,44.078958],[-70.178112,44.078706],[-70.178168,44.078589],[-70.178307,44.078349],[-70.178399,44.078216],[-70.178589,44.077985],[-70.178719,44.07786],[-70.17886,44.077738],[-70.179057,44.077588],[-70.179175,44.077507],[-70.179385,44.077378],[-70.179428,44.07735],[-70.17962,44.077258],[-70.17991,44.077131],[-70.18029,44.077017],[-70.180917,44.076876],[-70.180954,44.076868],[-70.181425,44.07677],[-70.181694,44.076707],[-70.181778,44.07668],[-70.181896,44.07663],[-70.18194,44.076606],[-70.182154,44.076389],[-70.182198,44.076345],[-70.182263,44.076258],[-70.182368,44.076075],[-70.182713,44.07547],[-70.184026,44.07589],[-70.18503,44.076223],[-70.185892,44.076506],[-70.186773,44.076822],[-70.187834,44.077198],[-70.188223,44.077343],[-70.18903,44.077682],[-70.189814,44.078041],[-70.191287,44.078728],[-70.191718,44.078929],[-70.192248,44.079161],[-70.19308,44.079526],[-70.19402,44.079936],[-70.194835,44.080293],[-70.195783,44.080739],[-70.197178,44.081407],[-70.197296,44.081469],[-70.197299,44.081464],[-70.198119,44.081852],[-70.198738,44.082147],[-70.199529,44.082522],[-70.199714,44.08261],[-70.200496,44.082988],[-70.201559,44.083504],[-70.201686,44.083379],[-70.201809,44.083255],[-70.202532,44.082495],[-70.202791,44.082213],[-70.202948,44.082052],[-70.20327,44.081706],[-70.203641,44.081326],[-70.204343,44.080579],[-70.204568,44.080197],[-70.204777,44.079522],[-70.205113,44.079215],[-70.205714,44.078908],[-70.206013,44.078768],[-70.207584,44.078033],[-70.207585,44.078033],[-70.207583,44.078029],[-70.207433,44.077799],[-70.207291,44.077512],[-70.207202,44.077243],[-70.207197,44.076941],[-70.207266,44.076594],[-70.207422,44.075588],[-70.207542,44.075105],[-70.207687,44.074708],[-70.20781,44.074346],[-70.207894,44.074008],[-70.20794,44.073593],[-70.208026,44.072489],[-70.20812,44.071435],[-70.208171,44.070507],[-70.208183,44.069944],[-70.208159,44.069481],[-70.208101,44.069225],[-70.207959,44.068898],[-70.207853,44.068543],[-70.207731,44.068121],[-70.207655,44.06773],[-70.207661,44.067195],[-70.207633,44.066511],[-70.207629,44.065917],[-70.207601,44.065615],[-70.207565,44.065341],[-70.207444,44.064973],[-70.207348,44.064713],[-70.207252,44.064539],[-70.207183,44.064413],[-70.206858,44.064129],[-70.206687,44.063901],[-70.206447,44.063665],[-70.206169,44.06347],[-70.205824,44.063302],[-70.205388,44.063122],[-70.204806,44.062921],[-70.203551,44.062489],[-70.202833,44.062276],[-70.202351,44.062087],[-70.202035,44.061888],[-70.201818,44.061625],[-70.201437,44.061179],[-70.201241,44.06087],[-70.201065,44.060422],[-70.200926,44.059856],[-70.20082,44.059488],[-70.200665,44.0589],[-70.200527,44.05846],[-70.200328,44.057985],[-70.200114,44.057492],[-70.199941,44.057188],[-70.199738,44.056893],[-70.199433,44.056441],[-70.199083,44.055999],[-70.198105,44.05492],[-70.196163,44.05264],[-70.194418,44.050723],[-70.193346,44.049496],[-70.193067,44.049197],[-70.192827,44.048948],[-70.192619,44.04877],[-70.192164,44.048446],[-70.191586,44.048029],[-70.191194,44.047772],[-70.190718,44.047489],[-70.19018,44.047148],[-70.189588,44.046798],[-70.189242,44.046586],[-70.188897,44.046391],[-70.18852,44.046148],[-70.188203,44.045899],[-70.187839,44.045461],[-70.187573,44.045086],[-70.187416,44.044831],[-70.18666,44.04293],[-70.185748,44.038794],[-70.185557,44.037513],[-70.185517,44.036946],[-70.185425,44.036474],[-70.185264,44.036008],[-70.18508,44.03551],[-70.18473,44.034631],[-70.184492,44.034102],[-70.184152,44.033363],[-70.183761,44.032737],[-70.183309,44.032125],[-70.182656,44.031308],[-70.182173,44.030705],[-70.18197,44.030356],[-70.181762,44.029827],[-70.181601,44.029302],[-70.181454,44.02875],[-70.181256,44.028284],[-70.181003,44.027755],[-70.180797,44.027294],[-70.180515,44.026824],[-70.180102,44.026243],[-70.179806,44.025872],[-70.179448,44.025376],[-70.179107,44.025006],[-70.178581,44.024498],[-70.178157,44.024138],[-70.177956,44.023947],[-70.177548,44.023667],[-70.177132,44.02337],[-70.176571,44.022984],[-70.176033,44.022661],[-70.175351,44.022312],[-70.174372,44.021958],[-70.173578,44.021736],[-70.172693,44.02148],[-70.172364,44.021393],[-70.171395,44.021115],[-70.170904,44.02098],[-70.17083,44.020959],[-70.170295,44.020798],[-70.169469,44.020482],[-70.168926,44.020258],[-70.168259,44.019918],[-70.167813,44.019644],[-70.16739,44.019351],[-70.167152,44.019187],[-70.166958,44.018932],[-70.166791,44.018529],[-70.166616,44.018134],[-70.166551,44.01786],[-70.166558,44.017428],[-70.166578,44.016834],[-70.166611,44.015276],[-70.166629,44.014614],[-70.166656,44.014001],[-70.166593,44.01343],[-70.166565,44.012746],[-70.166502,44.012166],[-70.166462,44.011662],[-70.166439,44.011226],[-70.166321,44.010606],[-70.166217,44.01026],[-70.166032,44.00969],[-70.165881,44.009359],[-70.165654,44.008965],[-70.165422,44.008697],[-70.165059,44.008363],[-70.164728,44.008119],[-70.164344,44.007871],[-70.163837,44.007584],[-70.163416,44.007354],[-70.162834,44.007121],[-70.162032,44.006832],[-70.161396,44.006559],[-70.160808,44.00634],[-70.160181,44.006126],[-70.159692,44.005938],[-70.159255,44.005726],[-70.158558,44.005355],[-70.150019,44.014611],[-70.143593,44.021523],[-70.143079,44.022068],[-70.142494,44.024221],[-70.141523,44.027324],[-70.140627,44.030362],[-70.140549,44.030678],[-70.140037,44.031791],[-70.139185,44.033906],[-70.137639,44.038049],[-70.135818,44.042578],[-70.1333,44.048901],[-70.130441,44.056209],[-70.128686,44.06066],[-70.126948,44.065183],[-70.126794,44.065599],[-70.126745,44.065735],[-70.126488,44.066714],[-70.125934,44.06893],[-70.125151,44.071985],[-70.124903,44.073018],[-70.124784,44.073645],[-70.124498,44.075467],[-70.124416,44.076769],[-70.124403,44.076814],[-70.124345,44.077134],[-70.124252,44.077774],[-70.124152,44.078437],[-70.124067,44.079045],[-70.124016,44.079469],[-70.12394,44.079988],[-70.123867,44.080362],[-70.123636,44.081053],[-70.122888,44.083914],[-70.116224,44.107771],[-70.118599,44.114824],[-70.118751,44.115403],[-70.118543,44.116094],[-70.115937,44.125082],[-70.115915,44.125159],[-70.115857,44.12561],[-70.115723,44.126084],[-70.115693,44.126102],[-70.115252,44.126246],[-70.118069,44.127565],[-70.121948,44.129444],[-70.124498,44.130639],[-70.136136,44.136052],[-70.140203,44.137984],[-70.140791,44.137454],[-70.14127,44.137072],[-70.14139,44.136984],[-70.141661,44.136812],[-70.142354,44.136417],[-70.142483,44.136337],[-70.142711,44.136164],[-70.142817,44.136076],[-70.143013,44.135891],[-70.143211,44.135683],[-70.143467,44.135389],[-70.143755,44.135077],[-70.144253,44.134578],[-70.144521,44.134319],[-70.144978,44.133848],[-70.145097,44.133709],[-70.145947,44.13276],[-70.146938,44.131706],[-70.147991,44.130607],[-70.148107,44.130492],[-70.148167,44.130416],[-70.148251,44.130333],[-70.148451,44.130136],[-70.148763,44.12981],[-70.149056,44.129479],[-70.149071,44.129461],[-70.148569,44.129345],[-70.148137,44.129272],[-70.148131,44.129021],[-70.148119,44.128893],[-70.147883,44.12724],[-70.147853,44.126262],[-70.14772,44.124424],[-70.147507,44.122528],[-70.147435,44.122246],[-70.146914,44.120147],[-70.14642,44.118059],[-70.146325,44.11666],[-70.146545,44.115957],[-70.148098,44.111447],[-70.148893,44.10953],[-70.149077,44.109007],[-70.148979,44.108224],[-70.14862,44.106347],[-70.148911,44.106013],[-70.153977,44.100595],[-70.154515,44.099845],[-70.156798,44.097206],[-70.162432,44.091119],[-70.164117,44.089358],[-70.164164,44.089276]]]}},{"type":"Feature","properties":{"ward":"7","population_2020":5293},"geometry":{"type":"Polygon","coordinates":[[[-70.164164,44.089276],[-70.164164,44.089276],[-70.164375,44.089433],[-70.164491,44.089547],[-70.164529,44.089598],[-70.164556,44.089655],[-70.164583,44.089729],[-70.164678,44.090077],[-70.16487,44.090606],[-70.164952,44.0908],[-70.165041,44.090986],[-70.165193,44.091246],[-70.165298,44.09138],[-70.165416,44.091516],[-70.165865,44.091986],[-70.166312,44.092475],[-70.166766,44.092951],[-70.167044,44.093222],[-70.167165,44.093323],[-70.167304,44.093449],[-70.167594,44.093678],[-70.168154,44.094051],[-70.168695,44.094351],[-70.169554,44.094816],[-70.169812,44.094978],[-70.170003,44.095126],[-70.170137,44.095233],[-70.170468,44.095535],[-70.170778,44.095833],[-70.170844,44.095913],[-70.171052,44.096209],[-70.171213,44.096467],[-70.17127,44.096544],[-70.171387,44.096729],[-70.171599,44.097049],[-70.171709,44.09719],[-70.171746,44.097175],[-70.171984,44.097048],[-70.172178,44.096912],[-70.172248,44.096824],[-70.172297,44.096701],[-70.172312,44.096591],[-70.172299,44.096443],[-70.172237,44.096011],[-70.172222,44.095783],[-70.17223,44.095532],[-70.17226,44.095398],[-70.172318,44.095199],[-70.172376,44.095041],[-70.172463,44.094873],[-70.172504,44.094813],[-70.172693,44.094573],[-70.173139,44.094071],[-70.173221,44.093969],[-70.173338,44.093705],[-70.176334,44.092934],[-70.181102,44.087582],[-70.181148,44.08753],[-70.181373,44.087645],[-70.181736,44.087825],[-70.182487,44.088208],[-70.182816,44.088384],[-70.183462,44.088704],[-70.183832,44.088888],[-70.184216,44.089083],[-70.185154,44.089562],[-70.186027,44.090003],[-70.186807,44.090402],[-70.186898,44.090447],[-70.187445,44.090732],[-70.187575,44.0908],[-70.188352,44.091203],[-70.189171,44.091637],[-70.189887,44.09201],[-70.191091,44.092632],[-70.191505,44.092841],[-70.191767,44.092978],[-70.192413,44.093291],[-70.193011,44.09359],[-70.193782,44.093993],[-70.194403,44.094319],[-70.195179,44.094711],[-70.195696,44.09497],[-70.196447,44.095348],[-70.198142,44.096208],[-70.19816,44.096201],[-70.198234,44.096126],[-70.198885,44.095364],[-70.199082,44.095104],[-70.199184,44.094922],[-70.199222,44.094732],[-70.199235,44.094584],[-70.199179,44.094099],[-70.199066,44.093402],[-70.198974,44.092761],[-70.198962,44.092592],[-70.198952,44.092398],[-70.199051,44.090754],[-70.199123,44.090438],[-70.199306,44.08973],[-70.19963,44.08882],[-70.199966,44.088058],[-70.200138,44.087789],[-70.202452,44.088931],[-70.203245,44.089322],[-70.20565,44.090503],[-70.20755,44.091438],[-70.207606,44.09138],[-70.210253,44.090621],[-70.210359,44.090568],[-70.210664,44.090389],[-70.211021,44.090042],[-70.211699,44.089379],[-70.212262,44.088825],[-70.212383,44.088925],[-70.212498,44.089059],[-70.212643,44.089218],[-70.213012,44.089793],[-70.213428,44.090466],[-70.214452,44.092094],[-70.214734,44.092574],[-70.215216,44.092415],[-70.215499,44.092321],[-70.215735,44.092256],[-70.21597,44.09218],[-70.216111,44.092134],[-70.216299,44.092071],[-70.216541,44.091996],[-70.216787,44.091908],[-70.216809,44.091897],[-70.21683,44.09185],[-70.217333,44.091691],[-70.217386,44.091674],[-70.218239,44.091396],[-70.21872,44.091252],[-70.219154,44.091106],[-70.219345,44.091047],[-70.219708,44.09096],[-70.220053,44.090861],[-70.220138,44.090834],[-70.220238,44.090778],[-70.220332,44.0907],[-70.220955,44.089906],[-70.221161,44.089644],[-70.221346,44.089395],[-70.220794,44.089109],[-70.220156,44.08876],[-70.218396,44.087779],[-70.21778,44.087399],[-70.21698,44.08693],[-70.216111,44.086395],[-70.215502,44.08596],[-70.214869,44.08549],[-70.214314,44.085072],[-70.214234,44.085014],[-70.213903,44.084773],[-70.213705,44.084629],[-70.21308,44.084154],[-70.212702,44.083856],[-70.211954,44.08327],[-70.211536,44.082896],[-70.211032,44.082402],[-70.210319,44.081662],[-70.209721,44.081016],[-70.209218,44.080544],[-70.209054,44.080316],[-70.208498,44.079412],[-70.20795,44.078594],[-70.207585,44.078033],[-70.207584,44.078033],[-70.206013,44.078768],[-70.205714,44.078908],[-70.205113,44.079215],[-70.204777,44.079522],[-70.204568,44.080197],[-70.204343,44.080579],[-70.203641,44.081326],[-70.20327,44.081706],[-70.202948,44.082052],[-70.202791,44.082213],[-70.202532,44.082495],[-70.201809,44.083255],[-70.201686,44.083379],[-70.201559,44.083504],[-70.200496,44.082988],[-70.199714,44.08261],[-70.199529,44.082522],[-70.198738,44.082147],[-70.198119,44.081852],[-70.197299,44.081464],[-70.197296,44.081469],[-70.197178,44.081407],[-70.195783,44.080739],[-70.194835,44.080293],[-70.19402,44.079936],[-70.19308,44.079526],[-70.192248,44.079161],[-70.191718,44.078929],[-70.191287,44.078728],[-70.189814,44.078041],[-70.18903,44.077682],[-70.188223,44.077343],[-70.187834,44.077198],[-70.186773,44.076822],[-70.185892,44.076506],[-70.18503,44.076223],[-70.184026,44.07589],[-70.182713,44.07547],[-70.182368,44.076075],[-70.182263,44.076258],[-70.182198,44.076345],[-70.182154,44.076389],[-70.18194,44.076606],[-70.181896,44.07663],[-70.181778,44.07668],[-70.181694,44.076707],[-70.181425,44.07677],[-70.180954,44.076868],[-70.180917,44.076876],[-70.18029,44.077017],[-70.17991,44.077131],[-70.17962,44.077258],[-70.179428,44.07735],[-70.179385,44.077378],[-70.179175,44.077507],[-70.179057,44.077588],[-70.17886,44.077738],[-70.178719,44.07786],[-70.178589,44.077985],[-70.178399,44.078216],[-70.178307,44.078349],[-70.178168,44.078589],[-70.178112,44.078706],[-70.178023,44.078958],[-70.177978,44.079108],[-70.177933,44.079346],[-70.177927,44.079569],[-70.177967,44.080076],[-70.17818,44.081497],[-70.178248,44.082072],[-70.178286,44.082461],[-70.178281,44.082548],[-70.178259,44.082667],[-70.178196,44.082849],[-70.178106,44.083002],[-70.178008,44.083169],[-70.177886,44.083314],[-70.177521,44.083707],[-70.176887,44.084391],[-70.17683,44.084457],[-70.176681,44.084648],[-70.176361,44.085006],[-70.176318,44.085062],[-70.176318,44.085062],[-70.175939,44.084882],[-70.175388,44.084612],[-70.174306,44.08407],[-70.170724,44.082274],[-70.170724,44.082274],[-70.170356,44.082695],[-70.169433,44.08375],[-70.169107,44.084102],[-70.167924,44.085272],[-70.166737,44.086451],[-70.166399,44.086805],[-70.165776,44.087489],[-70.165158,44.088154],[-70.164599,44.088726],[-70.164412,44.088942],[-70.164217,44.089197],[-70.164171,44.089266],[-70.164169,44.089267],[-70.164164,44.089276]]]}}]}