{"type":"FeatureCollection","name":"Lawrence wards and precincts (2022)","source":"MassGIS, Wards and Precincts (2022), https://arcgisserver.digital.mass.gov/arcgisserver/rest/services/AGOL/WardsPrecincts2022/FeatureServer/0","features":[{"type":"Feature","properties":{"ward":"A","precinct":"1","district":"A-1","population_2020":3780},"geometry":{"type":"Polygon","coordinates":[[[-71.149131,42.72184],[-71.150413,42.721875],[-71.151596,42.721913],[-71.152196,42.721929],[-71.153192,42.721952],[-71.154081,42.721977],[-71.156025,42.722032],[-71.156673,42.722044],[-71.157491,42.722065],[-71.157708,42.722081],[-71.158346,42.722094],[-71.158405,42.722096],[-71.159836,42.72213],[-71.16024,42.722143],[-71.160665,42.722154],[-71.161368,42.722173],[-71.161907,42.722187],[-71.162212,42.722196],[-71.162709,42.722209],[-71.16358,42.722233],[-71.164723,42.722273],[-71.165694,42.722305],[-71.165953,42.722191],[-71.166584,42.721904],[-71.167341,42.721562],[-71.167534,42.721489],[-71.167278,42.721322],[-71.166706,42.720859],[-71.167243,42.720472],[-71.167091,42.720321],[-71.167005,42.720156],[-71.166938,42.719983],[-71.166839,42.71946],[-71.166831,42.719108],[-71.166102,42.71927],[-71.165364,42.719435],[-71.164613,42.719602],[-71.163945,42.719754],[-71.162224,42.72015],[-71.162116,42.720054],[-71.161915,42.719919],[-71.161771,42.719851],[-71.161374,42.71971],[-71.161082,42.719625],[-71.16101,42.719604],[-71.160533,42.71956],[-71.160211,42.719544],[-71.159941,42.71953],[-71.159689,42.719479],[-71.159461,42.719396],[-71.159355,42.719313],[-71.158397,42.719897],[-71.157914,42.719439],[-71.156754,42.719901],[-71.155709,42.720317],[-71.155614,42.719848],[-71.155605,42.719801],[-71.155545,42.719606],[-71.155514,42.719553],[-71.155428,42.719407],[-71.15534,42.719224],[-71.153349,42.719436],[-71.153241,42.718745],[-71.153178,42.718532],[-71.153141,42.718409],[-71.153032,42.71818],[-71.152873,42.717972],[-71.152865,42.717951],[-71.152748,42.717639],[-71.152693,42.717394],[-71.151934,42.717306],[-71.151645,42.717275],[-71.150673,42.717205],[-71.149836,42.717176],[-71.149345,42.717153],[-71.148386,42.717116],[-71.148215,42.717126],[-71.148039,42.71713],[-71.147727,42.717184],[-71.147475,42.71724],[-71.147387,42.717263],[-71.147122,42.717331],[-71.146974,42.717382],[-71.146696,42.717485],[-71.146208,42.717674],[-71.146484,42.718058],[-71.146776,42.718448],[-71.147254,42.719085],[-71.147046,42.719193],[-71.147046,42.719241],[-71.147074,42.719326],[-71.147243,42.71955],[-71.147567,42.719922],[-71.147562,42.720073],[-71.147599,42.720171],[-71.14774,42.720368],[-71.147938,42.720599],[-71.148305,42.721048],[-71.148447,42.72116],[-71.148562,42.721282],[-71.148645,42.721371],[-71.149131,42.72184]]]}},{"type":"Feature","properties":{"ward":"A","precinct":"2","district":"A-2","population_2020":3832},"geometry":{"type":"Polygon","coordinates":[[[-71.149345,42.717153],[-71.149836,42.717176],[-71.150673,42.717205],[-71.151645,42.717275],[-71.151934,42.717306],[-71.152693,42.717394],[-71.152748,42.717639],[-71.152865,42.717951],[-71.152873,42.717972],[-71.153032,42.71818],[-71.153141,42.718409],[-71.153178,42.718532],[-71.153241,42.718745],[-71.153349,42.719436],[-71.15534,42.719224],[-71.155428,42.719407],[-71.155514,42.719553],[-71.155545,42.719606],[-71.155605,42.719801],[-71.155614,42.719848],[-71.155709,42.720317],[-71.156754,42.719901],[-71.157914,42.719439],[-71.157899,42.718627],[-71.157893,42.718221],[-71.157418,42.717922],[-71.157292,42.717814],[-71.157172,42.717656],[-71.15684,42.717156],[-71.156599,42.716787],[-71.156289,42.716295],[-71.156179,42.716098],[-71.156065,42.715865],[-71.156089,42.715716],[-71.156113,42.715621],[-71.156181,42.715353],[-71.156289,42.714798],[-71.156337,42.714545],[-71.156355,42.714452],[-71.156234,42.714528],[-71.156202,42.714463],[-71.156195,42.714448],[-71.156125,42.714328],[-71.156085,42.714258],[-71.155684,42.713436],[-71.155631,42.713285],[-71.155622,42.713201],[-71.155623,42.713073],[-71.155631,42.712443],[-71.155114,42.712447],[-71.155117,42.711755],[-71.155099,42.71167],[-71.155065,42.711634],[-71.155109,42.711566],[-71.155143,42.711543],[-71.155188,42.711419],[-71.155188,42.711311],[-71.155535,42.711311],[-71.155633,42.711245],[-71.155493,42.711245],[-71.154797,42.711248],[-71.154702,42.711247],[-71.153439,42.711242],[-71.153315,42.711277],[-71.153197,42.711358],[-71.152936,42.711551],[-71.152894,42.711582],[-71.152849,42.711616],[-71.152786,42.711662],[-71.15248,42.711888],[-71.152315,42.712028],[-71.152865,42.712415],[-71.152947,42.712534],[-71.152966,42.712638],[-71.15296,42.712795],[-71.152921,42.712909],[-71.152842,42.71306],[-71.152735,42.713214],[-71.152613,42.713335],[-71.152457,42.713417],[-71.152037,42.713578],[-71.152497,42.714272],[-71.150993,42.714823],[-71.150286,42.713759],[-71.149776,42.713941],[-71.148923,42.714236],[-71.148978,42.714414],[-71.149073,42.714831],[-71.149131,42.715134],[-71.149193,42.715533],[-71.149195,42.715594],[-71.14921,42.716053],[-71.149345,42.717153]]]}},{"type":"Feature","properties":{"ward":"A","precinct":"3","district":"A-3","population_2020":3851},"geometry":{"type":"Polygon","coordinates":[[[-71.134199,42.721514],[-71.135142,42.721484],[-71.13553,42.721472],[-71.13615,42.72149],[-71.13678,42.721507],[-71.137317,42.721525],[-71.138255,42.721529],[-71.138546,42.721549],[-71.139199,42.721572],[-71.141919,42.721649],[-71.142522,42.721663],[-71.142896,42.721668],[-71.14339,42.721697],[-71.144208,42.721725],[-71.145053,42.721737],[-71.145657,42.721747],[-71.145889,42.721753],[-71.146487,42.721769],[-71.146754,42.721776],[-71.147647,42.7218],[-71.149131,42.72184],[-71.148645,42.721371],[-71.148562,42.721282],[-71.148447,42.72116],[-71.148305,42.721048],[-71.147938,42.720599],[-71.14774,42.720368],[-71.147599,42.720171],[-71.147562,42.720073],[-71.147567,42.719922],[-71.147243,42.71955],[-71.147074,42.719326],[-71.147046,42.719241],[-71.147046,42.719193],[-71.147254,42.719085],[-71.146776,42.718448],[-71.146484,42.718058],[-71.146208,42.717674],[-71.146696,42.717485],[-71.146974,42.717382],[-71.147122,42.717331],[-71.147387,42.717263],[-71.147475,42.71724],[-71.147727,42.717184],[-71.148039,42.71713],[-71.148215,42.717126],[-71.148386,42.717116],[-71.149345,42.717153],[-71.14921,42.716053],[-71.149195,42.715594],[-71.149193,42.715533],[-71.149131,42.715134],[-71.149073,42.714831],[-71.148978,42.714414],[-71.148923,42.714236],[-71.148414,42.714411],[-71.148217,42.714484],[-71.147284,42.714829],[-71.147078,42.714226],[-71.147069,42.714163],[-71.147049,42.714109],[-71.147019,42.714056],[-71.146963,42.714004],[-71.146583,42.713686],[-71.146312,42.713447],[-71.145992,42.713643],[-71.145354,42.71405],[-71.145197,42.714157],[-71.145155,42.714176],[-71.145121,42.714177],[-71.145065,42.714167],[-71.145019,42.714147],[-71.144963,42.714113],[-71.144797,42.713983],[-71.14462,42.713827],[-71.144483,42.713705],[-71.144421,42.713649],[-71.143709,42.713082],[-71.14327,42.713367],[-71.143084,42.713483],[-71.14295,42.713565],[-71.142408,42.713919],[-71.142432,42.713928],[-71.142726,42.714099],[-71.142675,42.714306],[-71.142672,42.714379],[-71.142096,42.714432],[-71.14194,42.714479],[-71.141918,42.714533],[-71.14219,42.715207],[-71.141465,42.715366],[-71.140656,42.715566],[-71.140564,42.715314],[-71.140414,42.715027],[-71.140195,42.714643],[-71.140069,42.714434],[-71.139934,42.71421],[-71.139888,42.714268],[-71.139845,42.714298],[-71.139782,42.714325],[-71.139699,42.714334],[-71.139556,42.714334],[-71.139452,42.714323],[-71.138209,42.714054],[-71.137635,42.713942],[-71.13757,42.71393],[-71.137524,42.713921],[-71.137394,42.713901],[-71.137182,42.713863],[-71.137076,42.71385],[-71.137018,42.713843],[-71.136977,42.713838],[-71.1369,42.713824],[-71.136756,42.713781],[-71.136628,42.713823],[-71.136487,42.713937],[-71.136371,42.713974],[-71.136178,42.714015],[-71.136094,42.714012],[-71.135387,42.713894],[-71.134546,42.713694],[-71.133803,42.7136],[-71.133866,42.714269],[-71.133901,42.715241],[-71.134021,42.715545],[-71.134306,42.716137],[-71.13456,42.716757],[-71.134759,42.71728],[-71.134789,42.717369],[-71.134875,42.717707],[-71.134967,42.718231],[-71.134989,42.718903],[-71.13498,42.71946],[-71.13491,42.7199],[-71.134824,42.720367],[-71.134637,42.720783],[-71.134588,42.720891],[-71.134459,42.721171],[-71.134299,42.721381],[-71.134281,42.721405],[-71.134262,42.721428],[-71.13423,42.721471],[-71.134219,42.721486],[-71.134207,42.721501],[-71.134199,42.721514]]]}},{"type":"Feature","properties":{"ward":"A","precinct":"4","district":"A-4","population_2020":3894},"geometry":{"type":"Polygon","coordinates":[[[-71.133901,42.715241],[-71.133866,42.714269],[-71.133803,42.7136],[-71.134546,42.713694],[-71.135387,42.713894],[-71.136094,42.714012],[-71.136178,42.714015],[-71.136371,42.713974],[-71.136487,42.713937],[-71.136628,42.713823],[-71.136756,42.713781],[-71.1369,42.713824],[-71.136977,42.713838],[-71.137018,42.713843],[-71.137076,42.71385],[-71.137182,42.713863],[-71.137394,42.713901],[-71.137524,42.713921],[-71.13757,42.71393],[-71.137635,42.713942],[-71.138209,42.714054],[-71.139452,42.714323],[-71.139556,42.714334],[-71.139699,42.714334],[-71.139782,42.714325],[-71.139845,42.714298],[-71.139888,42.714268],[-71.139934,42.71421],[-71.140069,42.714434],[-71.140195,42.714643],[-71.140414,42.715027],[-71.140564,42.715314],[-71.140656,42.715566],[-71.141465,42.715366],[-71.14219,42.715207],[-71.141918,42.714533],[-71.14194,42.714479],[-71.142096,42.714432],[-71.142672,42.714379],[-71.142675,42.714306],[-71.142726,42.714099],[-71.142432,42.713928],[-71.142408,42.713919],[-71.14295,42.713565],[-71.143084,42.713483],[-71.14327,42.713367],[-71.143709,42.713082],[-71.144421,42.713649],[-71.144483,42.713705],[-71.14462,42.713827],[-71.144797,42.713983],[-71.144963,42.714113],[-71.145019,42.714147],[-71.145065,42.714167],[-71.145121,42.714177],[-71.145155,42.714176],[-71.145197,42.714157],[-71.145354,42.71405],[-71.145992,42.713643],[-71.146312,42.713447],[-71.146583,42.713686],[-71.146963,42.714004],[-71.147019,42.714056],[-71.147049,42.714109],[-71.147069,42.714163],[-71.147078,42.714226],[-71.147284,42.714829],[-71.148217,42.714484],[-71.148414,42.714411],[-71.148923,42.714236],[-71.149776,42.713941],[-71.150286,42.713759],[-71.150993,42.714823],[-71.152497,42.714272],[-71.152037,42.713578],[-71.152457,42.713417],[-71.152613,42.713335],[-71.152735,42.713214],[-71.152842,42.71306],[-71.152921,42.712909],[-71.15296,42.712795],[-71.152966,42.712638],[-71.152947,42.712534],[-71.152865,42.712415],[-71.152315,42.712028],[-71.15248,42.711888],[-71.152786,42.711662],[-71.152849,42.711616],[-71.152792,42.711592],[-71.15257,42.711519],[-71.152112,42.711387],[-71.151893,42.711308],[-71.151737,42.711236],[-71.151705,42.711217],[-71.151592,42.711153],[-71.15141,42.711032],[-71.151245,42.710898],[-71.151172,42.710827],[-71.151161,42.71078],[-71.15118,42.710738],[-71.151363,42.710503],[-71.151414,42.710422],[-71.151424,42.710377],[-71.151442,42.710059],[-71.151481,42.709597],[-71.151487,42.709327],[-71.151475,42.709169],[-71.151532,42.709169],[-71.152269,42.709169],[-71.153193,42.709171],[-71.15339,42.709172],[-71.153395,42.708509],[-71.153401,42.70775],[-71.153403,42.707094],[-71.153402,42.706488],[-71.153402,42.706381],[-71.153402,42.706335],[-71.153401,42.706261],[-71.153401,42.706159],[-71.15339,42.704845],[-71.153385,42.704217],[-71.151095,42.704378],[-71.150298,42.704434],[-71.145903,42.7055],[-71.14578,42.705521],[-71.140212,42.706449],[-71.138868,42.706673],[-71.138807,42.706683],[-71.138603,42.706752],[-71.138421,42.706813],[-71.138339,42.70684],[-71.137254,42.707206],[-71.137281,42.706742],[-71.137286,42.706649],[-71.136876,42.706811],[-71.136608,42.707003],[-71.136293,42.707223],[-71.135935,42.707656],[-71.13588,42.70774],[-71.135667,42.708053],[-71.135481,42.708265],[-71.135287,42.708481],[-71.135057,42.708779],[-71.13497,42.708887],[-71.134888,42.708992],[-71.134551,42.709424],[-71.134225,42.70992],[-71.133957,42.710423],[-71.133759,42.710947],[-71.133619,42.711444],[-71.133525,42.712053],[-71.133455,42.712489],[-71.133461,42.712857],[-71.133469,42.712998],[-71.133483,42.71326],[-71.133499,42.713558],[-71.133583,42.713928],[-71.133675,42.71448],[-71.133844,42.715095],[-71.133901,42.715241]]]}},{"type":"Feature","properties":{"ward":"B","precinct":"1","district":"B-1","population_2020":3698},"geometry":{"type":"Polygon","coordinates":[[[-71.163964,42.714282],[-71.164075,42.714276],[-71.165703,42.714082],[-71.166346,42.713998],[-71.167099,42.713921],[-71.167112,42.714058],[-71.167192,42.714929],[-71.167901,42.714882],[-71.168794,42.714823],[-71.169511,42.714776],[-71.170407,42.71472],[-71.171162,42.714677],[-71.171871,42.714636],[-71.172619,42.714592],[-71.173133,42.714563],[-71.173356,42.714546],[-71.173349,42.714302],[-71.173348,42.714276],[-71.173383,42.714182],[-71.173407,42.714119],[-71.173421,42.714103],[-71.17351,42.713998],[-71.17354,42.713984],[-71.17425,42.713665],[-71.17387,42.713155],[-71.17327,42.712434],[-71.17257,42.712151],[-71.1723,42.712072],[-71.172176,42.712111],[-71.172059,42.712168],[-71.171929,42.712202],[-71.171239,42.711381],[-71.171819,42.711134],[-71.171073,42.710837],[-71.170984,42.710807],[-71.170481,42.710729],[-71.169508,42.710585],[-71.168475,42.710442],[-71.168376,42.710435],[-71.168315,42.710431],[-71.168124,42.710447],[-71.16804,42.710454],[-71.165724,42.710715],[-71.164894,42.710811],[-71.16459,42.710841],[-71.16276,42.711022],[-71.161848,42.711123],[-71.160365,42.71131],[-71.157872,42.711589],[-71.157662,42.711614],[-71.156561,42.711747],[-71.156555,42.711223],[-71.15651,42.71123],[-71.156243,42.711244],[-71.155633,42.711245],[-71.155535,42.711311],[-71.155188,42.711311],[-71.155188,42.711419],[-71.155143,42.711543],[-71.155109,42.711566],[-71.155065,42.711634],[-71.155099,42.71167],[-71.155117,42.711755],[-71.155114,42.712447],[-71.155631,42.712443],[-71.155623,42.713073],[-71.155622,42.713201],[-71.155631,42.713285],[-71.155684,42.713436],[-71.156085,42.714258],[-71.156125,42.714328],[-71.156195,42.714448],[-71.156202,42.714463],[-71.156234,42.714528],[-71.156355,42.714452],[-71.156372,42.714363],[-71.157014,42.713985],[-71.157114,42.713927],[-71.157696,42.71359],[-71.157872,42.713531],[-71.158626,42.71328],[-71.159216,42.713156],[-71.159526,42.713146],[-71.159789,42.713172],[-71.160068,42.71323],[-71.160822,42.71348],[-71.162781,42.714129],[-71.163083,42.714177],[-71.163316,42.714204],[-71.163914,42.71414],[-71.163941,42.714216],[-71.163964,42.714282]]]}},{"type":"Feature","properties":{"ward":"B","precinct":"2","district":"B-2","population_2020":3662},"geometry":{"type":"Polygon","coordinates":[[[-71.167243,42.720472],[-71.167304,42.720532],[-71.167909,42.721011],[-71.168212,42.720421],[-71.168445,42.719973],[-71.168737,42.719397],[-71.169317,42.719015],[-71.169482,42.719137],[-71.169243,42.717657],[-71.168517,42.717703],[-71.168163,42.717725],[-71.168018,42.716309],[-71.167322,42.716348],[-71.167255,42.715613],[-71.167192,42.714929],[-71.167112,42.714058],[-71.167099,42.713921],[-71.166346,42.713998],[-71.165703,42.714082],[-71.164075,42.714276],[-71.163964,42.714282],[-71.164,42.714385],[-71.164139,42.714779],[-71.164197,42.714917],[-71.163366,42.71517],[-71.163481,42.715354],[-71.163509,42.715484],[-71.163523,42.715974],[-71.163608,42.716586],[-71.162898,42.716613],[-71.162934,42.717141],[-71.16297,42.717671],[-71.163008,42.717965],[-71.162005,42.717988],[-71.161584,42.718663],[-71.161529,42.71875],[-71.161082,42.719625],[-71.161374,42.71971],[-71.161771,42.719851],[-71.161915,42.719919],[-71.162116,42.720054],[-71.162224,42.72015],[-71.163945,42.719754],[-71.164613,42.719602],[-71.165364,42.719435],[-71.166102,42.71927],[-71.166831,42.719108],[-71.166839,42.71946],[-71.166938,42.719983],[-71.167005,42.720156],[-71.167091,42.720321],[-71.167243,42.720472]]]}},{"type":"Feature","properties":{"ward":"B","precinct":"3","district":"B-3","population_2020":3555},"geometry":{"type":"Polygon","coordinates":[[[-71.157914,42.719439],[-71.158397,42.719897],[-71.159355,42.719313],[-71.159461,42.719396],[-71.159689,42.719479],[-71.159941,42.71953],[-71.160211,42.719544],[-71.160533,42.71956],[-71.16101,42.719604],[-71.161082,42.719625],[-71.161529,42.71875],[-71.161584,42.718663],[-71.162005,42.717988],[-71.163008,42.717965],[-71.16297,42.717671],[-71.162934,42.717141],[-71.162898,42.716613],[-71.163608,42.716586],[-71.163523,42.715974],[-71.163509,42.715484],[-71.163481,42.715354],[-71.163366,42.71517],[-71.164197,42.714917],[-71.164139,42.714779],[-71.164,42.714385],[-71.163964,42.714282],[-71.163941,42.714216],[-71.163914,42.71414],[-71.163316,42.714204],[-71.163083,42.714177],[-71.162781,42.714129],[-71.160822,42.71348],[-71.160068,42.71323],[-71.159789,42.713172],[-71.159526,42.713146],[-71.159216,42.713156],[-71.158626,42.71328],[-71.157872,42.713531],[-71.157696,42.71359],[-71.157114,42.713927],[-71.157014,42.713985],[-71.156372,42.714363],[-71.156355,42.714452],[-71.156337,42.714545],[-71.156289,42.714798],[-71.156181,42.715353],[-71.156113,42.715621],[-71.156089,42.715716],[-71.156065,42.715865],[-71.156179,42.716098],[-71.156289,42.716295],[-71.156599,42.716787],[-71.15684,42.717156],[-71.157172,42.717656],[-71.157292,42.717814],[-71.157418,42.717922],[-71.157893,42.718221],[-71.157899,42.718627],[-71.157914,42.719439]]]}},{"type":"Feature","properties":{"ward":"B","precinct":"4","district":"B-4","population_2020":3753},"geometry":{"type":"Polygon","coordinates":[[[-71.155633,42.711245],[-71.156243,42.711244],[-71.15651,42.71123],[-71.156555,42.711223],[-71.156561,42.711747],[-71.157662,42.711614],[-71.157872,42.711589],[-71.160365,42.71131],[-71.161848,42.711123],[-71.16276,42.711022],[-71.16459,42.710841],[-71.164894,42.710811],[-71.165724,42.710715],[-71.16804,42.710454],[-71.168124,42.710447],[-71.167759,42.71001],[-71.167692,42.709923],[-71.167213,42.709301],[-71.167137,42.709203],[-71.166734,42.708719],[-71.166239,42.708118],[-71.165767,42.707539],[-71.165283,42.706941],[-71.164763,42.7063],[-71.164319,42.705755],[-71.16376,42.705071],[-71.162909,42.70565],[-71.162004,42.706049],[-71.161959,42.706056],[-71.161559,42.706194],[-71.16123,42.706308],[-71.161108,42.706455],[-71.161102,42.706609],[-71.161276,42.707087],[-71.159595,42.707095],[-71.15898,42.707098],[-71.157885,42.707103],[-71.156726,42.707101],[-71.155647,42.707099],[-71.153403,42.707094],[-71.153401,42.70775],[-71.153395,42.708509],[-71.15339,42.709172],[-71.153193,42.709171],[-71.152269,42.709169],[-71.151532,42.709169],[-71.151475,42.709169],[-71.151487,42.709327],[-71.151481,42.709597],[-71.151442,42.710059],[-71.151424,42.710377],[-71.151414,42.710422],[-71.151363,42.710503],[-71.15118,42.710738],[-71.151161,42.71078],[-71.151172,42.710827],[-71.151245,42.710898],[-71.15141,42.711032],[-71.151592,42.711153],[-71.151705,42.711217],[-71.151737,42.711236],[-71.151893,42.711308],[-71.152112,42.711387],[-71.15257,42.711519],[-71.152792,42.711592],[-71.152849,42.711616],[-71.152894,42.711582],[-71.152936,42.711551],[-71.153197,42.711358],[-71.153315,42.711277],[-71.153439,42.711242],[-71.154702,42.711247],[-71.154797,42.711248],[-71.155493,42.711245],[-71.155633,42.711245]]]}},{"type":"Feature","properties":{"ward":"C","precinct":"1","district":"C-1","population_2020":3562},"geometry":{"type":"Polygon","coordinates":[[[-71.173349,42.714302],[-71.173424,42.714341],[-71.173711,42.71466],[-71.17392,42.714782],[-71.174285,42.714919],[-71.1743,42.714921],[-71.174656,42.714971],[-71.174943,42.714965],[-71.175106,42.714994],[-71.175245,42.715072],[-71.176013,42.715341],[-71.176447,42.715468],[-71.176749,42.715467],[-71.17684,42.715434],[-71.177115,42.715772],[-71.177669,42.716451],[-71.178629,42.717621],[-71.178772,42.717795],[-71.17883,42.717865],[-71.180111,42.717105],[-71.180683,42.716767],[-71.180941,42.71662],[-71.181039,42.716564],[-71.181232,42.71645],[-71.182383,42.715771],[-71.182455,42.715728],[-71.182499,42.715703],[-71.18279,42.715531],[-71.183143,42.715323],[-71.183591,42.715063],[-71.184737,42.714386],[-71.185193,42.71412],[-71.186159,42.713552],[-71.186677,42.713247],[-71.186933,42.713096],[-71.187055,42.713025],[-71.187207,42.712939],[-71.187884,42.712537],[-71.188581,42.712131],[-71.190016,42.711287],[-71.190925,42.710749],[-71.191213,42.710579],[-71.191177,42.710352],[-71.191051,42.710399],[-71.190781,42.710029],[-71.190606,42.709789],[-71.190305,42.709229],[-71.190178,42.708995],[-71.190084,42.708909],[-71.189994,42.70888],[-71.189842,42.708876],[-71.189658,42.708886],[-71.189491,42.708937],[-71.189166,42.709145],[-71.189039,42.709122],[-71.18858,42.708978],[-71.188278,42.708917],[-71.188187,42.708842],[-71.188132,42.708757],[-71.188084,42.708667],[-71.188035,42.708736],[-71.187934,42.708821],[-71.187729,42.708918],[-71.187512,42.708881],[-71.187271,42.70892],[-71.187012,42.708957],[-71.186542,42.709027],[-71.186453,42.709029],[-71.186377,42.709013],[-71.186298,42.708959],[-71.186207,42.708866],[-71.18611,42.708747],[-71.18607,42.708684],[-71.186071,42.708616],[-71.186093,42.708483],[-71.185396,42.70862],[-71.185298,42.708625],[-71.185256,42.708611],[-71.185212,42.70856],[-71.185168,42.708419],[-71.18515,42.708361],[-71.185075,42.708384],[-71.184906,42.708418],[-71.184845,42.708421],[-71.184855,42.708362],[-71.184842,42.708284],[-71.184799,42.708243],[-71.184489,42.7081],[-71.184493,42.708048],[-71.184522,42.707961],[-71.184362,42.707986],[-71.184302,42.707967],[-71.184177,42.707955],[-71.184133,42.707932],[-71.184098,42.707842],[-71.18407,42.70771],[-71.184075,42.707597],[-71.184165,42.707617],[-71.184308,42.707602],[-71.184809,42.707487],[-71.183794,42.704723],[-71.183322,42.704741],[-71.183234,42.704343],[-71.182992,42.70361],[-71.182841,42.703166],[-71.182748,42.702889],[-71.182507,42.702133],[-71.182458,42.70198],[-71.181909,42.702242],[-71.180307,42.702931],[-71.179708,42.703182],[-71.179841,42.703638],[-71.179957,42.704033],[-71.180076,42.70448],[-71.179833,42.704437],[-71.179576,42.704405],[-71.179338,42.704404],[-71.179235,42.704404],[-71.178968,42.70445],[-71.178734,42.70452],[-71.178545,42.704581],[-71.178306,42.704705],[-71.178063,42.70487],[-71.177967,42.704947],[-71.177626,42.705221],[-71.177224,42.705546],[-71.176594,42.706056],[-71.176442,42.706172],[-71.176121,42.70642],[-71.175835,42.70657],[-71.175256,42.706808],[-71.174753,42.706997],[-71.174159,42.707219],[-71.173903,42.707319],[-71.173407,42.707514],[-71.172483,42.707878],[-71.17261,42.708001],[-71.17276,42.708146],[-71.172986,42.708364],[-71.173626,42.708984],[-71.174239,42.709578],[-71.174482,42.709813],[-71.175134,42.710444],[-71.175278,42.710578],[-71.176002,42.711284],[-71.17619,42.711467],[-71.176581,42.711844],[-71.176919,42.712172],[-71.1775,42.712733],[-71.176785,42.712903],[-71.17511,42.713302],[-71.174974,42.713336],[-71.17425,42.713665],[-71.17354,42.713984],[-71.17351,42.713998],[-71.173421,42.714103],[-71.173407,42.714119],[-71.173383,42.714182],[-71.173348,42.714276],[-71.173349,42.714302]]]}},{"type":"Feature","properties":{"ward":"C","precinct":"2","district":"C-2","population_2020":3708},"geometry":{"type":"Polygon","coordinates":[[[-71.182458,42.70198],[-71.182507,42.702133],[-71.182748,42.702889],[-71.182841,42.703166],[-71.182992,42.70361],[-71.183234,42.704343],[-71.183322,42.704741],[-71.183794,42.704723],[-71.184809,42.707487],[-71.184308,42.707602],[-71.184165,42.707617],[-71.184075,42.707597],[-71.18407,42.70771],[-71.184098,42.707842],[-71.184133,42.707932],[-71.184177,42.707955],[-71.184302,42.707967],[-71.184362,42.707986],[-71.184522,42.707961],[-71.184493,42.708048],[-71.184489,42.7081],[-71.184799,42.708243],[-71.184842,42.708284],[-71.184855,42.708362],[-71.184845,42.708421],[-71.184906,42.708418],[-71.185075,42.708384],[-71.18515,42.708361],[-71.185168,42.708419],[-71.185212,42.70856],[-71.185256,42.708611],[-71.185298,42.708625],[-71.185396,42.70862],[-71.186093,42.708483],[-71.186071,42.708616],[-71.18607,42.708684],[-71.18611,42.708747],[-71.186207,42.708866],[-71.186298,42.708959],[-71.186377,42.709013],[-71.186453,42.709029],[-71.186542,42.709027],[-71.187012,42.708957],[-71.187271,42.70892],[-71.187512,42.708881],[-71.187729,42.708918],[-71.187934,42.708821],[-71.188035,42.708736],[-71.188084,42.708667],[-71.188132,42.708757],[-71.188187,42.708842],[-71.188278,42.708917],[-71.18858,42.708978],[-71.189039,42.709122],[-71.189166,42.709145],[-71.189491,42.708937],[-71.189658,42.708886],[-71.189842,42.708876],[-71.189994,42.70888],[-71.190084,42.708909],[-71.190178,42.708995],[-71.190305,42.709229],[-71.190606,42.709789],[-71.190781,42.710029],[-71.191051,42.710399],[-71.191177,42.710352],[-71.191132,42.710066],[-71.190871,42.708419],[-71.19075,42.707695],[-71.190658,42.707111],[-71.190533,42.706323],[-71.1903,42.704895],[-71.190259,42.704634],[-71.190151,42.703965],[-71.19001,42.7031],[-71.189663,42.700989],[-71.189544,42.700741],[-71.189493,42.70068],[-71.18943,42.700633],[-71.189334,42.700565],[-71.189317,42.700553],[-71.189103,42.700462],[-71.18831,42.700114],[-71.187558,42.699783],[-71.186807,42.699459],[-71.186023,42.69912],[-71.185855,42.699333],[-71.185789,42.699374],[-71.18569,42.699398],[-71.184506,42.699614],[-71.183487,42.699797],[-71.183636,42.700265],[-71.183823,42.700796],[-71.183302,42.700889],[-71.182496,42.701033],[-71.18223,42.701084],[-71.182178,42.701101],[-71.182347,42.701635],[-71.182458,42.70198]]]}},{"type":"Feature","properties":{"ward":"C","precinct":"3","district":"C-3","population_2020":3700},"geometry":{"type":"Polygon","coordinates":[[[-71.169243,42.717657],[-71.169996,42.71761],[-71.170732,42.717564],[-71.171487,42.717521],[-71.17162,42.71879],[-71.171602,42.719116],[-71.172049,42.718858],[-71.172317,42.718732],[-71.17304,42.718392],[-71.173355,42.718243],[-71.173762,42.71807],[-71.174254,42.717859],[-71.17478,42.717617],[-71.174831,42.717601],[-71.175325,42.717446],[-71.175348,42.717483],[-71.175825,42.718074],[-71.175888,42.718153],[-71.176028,42.718365],[-71.176208,42.718559],[-71.1763,42.718676],[-71.176663,42.719139],[-71.176729,42.719096],[-71.17883,42.717865],[-71.178772,42.717795],[-71.178629,42.717621],[-71.177669,42.716451],[-71.177115,42.715772],[-71.17684,42.715434],[-71.176749,42.715467],[-71.176447,42.715468],[-71.176013,42.715341],[-71.175245,42.715072],[-71.175106,42.714994],[-71.174943,42.714965],[-71.174656,42.714971],[-71.1743,42.714921],[-71.174285,42.714919],[-71.17392,42.714782],[-71.173711,42.71466],[-71.173424,42.714341],[-71.173349,42.714302],[-71.173356,42.714546],[-71.173133,42.714563],[-71.172619,42.714592],[-71.171871,42.714636],[-71.171162,42.714677],[-71.170407,42.71472],[-71.169511,42.714776],[-71.168794,42.714823],[-71.167901,42.714882],[-71.167192,42.714929],[-71.167255,42.715613],[-71.167322,42.716348],[-71.168018,42.716309],[-71.168163,42.717725],[-71.168517,42.717703],[-71.169243,42.717657]]]}},{"type":"Feature","properties":{"ward":"C","precinct":"4","district":"C-4","population_2020":3571},"geometry":{"type":"Polygon","coordinates":[[[-71.165694,42.722305],[-71.16642,42.722309],[-71.166919,42.722323],[-71.167488,42.722338],[-71.168071,42.722354],[-71.168955,42.722377],[-71.168973,42.722357],[-71.169579,42.722649],[-71.170879,42.723306],[-71.171153,42.723014],[-71.172418,42.721669],[-71.172382,42.72165],[-71.172416,42.721631],[-71.173142,42.72121],[-71.173867,42.720783],[-71.174416,42.720456],[-71.174598,42.720349],[-71.17487,42.720192],[-71.174895,42.720174],[-71.175002,42.720111],[-71.175055,42.72008],[-71.175962,42.719547],[-71.176035,42.719508],[-71.176663,42.719139],[-71.1763,42.718676],[-71.176208,42.718559],[-71.176028,42.718365],[-71.175888,42.718153],[-71.175825,42.718074],[-71.175348,42.717483],[-71.175325,42.717446],[-71.174831,42.717601],[-71.17478,42.717617],[-71.174254,42.717859],[-71.173762,42.71807],[-71.173355,42.718243],[-71.17304,42.718392],[-71.172317,42.718732],[-71.172049,42.718858],[-71.171602,42.719116],[-71.17162,42.71879],[-71.171487,42.717521],[-71.170732,42.717564],[-71.169996,42.71761],[-71.169243,42.717657],[-71.169482,42.719137],[-71.169317,42.719015],[-71.168737,42.719397],[-71.168445,42.719973],[-71.168212,42.720421],[-71.167909,42.721011],[-71.167304,42.720532],[-71.167243,42.720472],[-71.166706,42.720859],[-71.167278,42.721322],[-71.167534,42.721489],[-71.167341,42.721562],[-71.166584,42.721904],[-71.165953,42.722191],[-71.165694,42.722305]]]}},{"type":"Feature","properties":{"ward":"D","precinct":"1","district":"D-1","population_2020":3712},"geometry":{"type":"Polygon","coordinates":[[[-71.173653,42.700968],[-71.17391,42.701076],[-71.174168,42.701129],[-71.174304,42.701125],[-71.174377,42.701121],[-71.174911,42.700963],[-71.175301,42.700841],[-71.175572,42.700771],[-71.176611,42.70066],[-71.177369,42.700568],[-71.177506,42.700562],[-71.177465,42.700703],[-71.177617,42.701588],[-71.17867,42.701412],[-71.178978,42.701352],[-71.179023,42.701337],[-71.179309,42.701974],[-71.179446,42.702314],[-71.179472,42.702377],[-71.179708,42.703182],[-71.180307,42.702931],[-71.181909,42.702242],[-71.182458,42.70198],[-71.182347,42.701635],[-71.182178,42.701101],[-71.18223,42.701084],[-71.182496,42.701033],[-71.183302,42.700889],[-71.183823,42.700796],[-71.183636,42.700265],[-71.183487,42.699797],[-71.184506,42.699614],[-71.18569,42.699398],[-71.185789,42.699374],[-71.185855,42.699333],[-71.186023,42.69912],[-71.186807,42.699459],[-71.187558,42.699783],[-71.18831,42.700114],[-71.189103,42.700462],[-71.189317,42.700553],[-71.189334,42.700565],[-71.18943,42.700633],[-71.189493,42.70068],[-71.189544,42.700741],[-71.189663,42.700989],[-71.189524,42.700108],[-71.189483,42.699975],[-71.189316,42.698889],[-71.18927,42.698529],[-71.189121,42.697699],[-71.188918,42.696568],[-71.188906,42.696501],[-71.188863,42.696277],[-71.187319,42.695742],[-71.180454,42.693469],[-71.177812,42.693065],[-71.177609,42.693034],[-71.177019,42.693321],[-71.17576,42.693933],[-71.175126,42.694393],[-71.174303,42.69499],[-71.174622,42.695047],[-71.175181,42.695148],[-71.176189,42.695543],[-71.176762,42.695701],[-71.177174,42.695812],[-71.177507,42.695923],[-71.177648,42.695999],[-71.177819,42.696111],[-71.17792,42.696222],[-71.178025,42.696431],[-71.178099,42.696657],[-71.178124,42.697039],[-71.178172,42.697585],[-71.178225,42.69779],[-71.178129,42.697904],[-71.178115,42.697987],[-71.178119,42.698065],[-71.177775,42.697865],[-71.177541,42.697725],[-71.177253,42.697514],[-71.176808,42.698513],[-71.176733,42.698576],[-71.176395,42.698665],[-71.175996,42.699],[-71.175785,42.699557],[-71.175696,42.699883],[-71.175651,42.699974],[-71.175624,42.699999],[-71.175595,42.700015],[-71.175551,42.700022],[-71.175499,42.700018],[-71.175392,42.699988],[-71.175245,42.699965],[-71.175174,42.699953],[-71.175063,42.699965],[-71.174953,42.699974],[-71.174903,42.699972],[-71.174699,42.69992],[-71.174501,42.699875],[-71.174312,42.699822],[-71.174235,42.700056],[-71.174053,42.700466],[-71.174041,42.700494],[-71.174012,42.700533],[-71.173702,42.700916],[-71.173653,42.700968]]]}},{"type":"Feature","properties":{"ward":"D","precinct":"2","district":"D-2","population_2020":3854},"geometry":{"type":"Polygon","coordinates":[[[-71.173199,42.705071],[-71.173558,42.705508],[-71.173901,42.705925],[-71.174753,42.706997],[-71.175256,42.706808],[-71.175835,42.70657],[-71.176121,42.70642],[-71.176442,42.706172],[-71.176594,42.706056],[-71.177224,42.705546],[-71.177626,42.705221],[-71.177967,42.704947],[-71.178063,42.70487],[-71.178306,42.704705],[-71.178545,42.704581],[-71.178734,42.70452],[-71.178968,42.70445],[-71.179235,42.704404],[-71.179338,42.704404],[-71.179576,42.704405],[-71.179833,42.704437],[-71.180076,42.70448],[-71.179957,42.704033],[-71.179841,42.703638],[-71.179708,42.703182],[-71.179472,42.702377],[-71.179446,42.702314],[-71.179309,42.701974],[-71.179023,42.701337],[-71.178978,42.701352],[-71.17867,42.701412],[-71.177617,42.701588],[-71.177465,42.700703],[-71.177506,42.700562],[-71.177369,42.700568],[-71.176611,42.70066],[-71.175572,42.700771],[-71.175301,42.700841],[-71.174911,42.700963],[-71.174377,42.701121],[-71.174304,42.701125],[-71.174168,42.701129],[-71.17391,42.701076],[-71.173653,42.700968],[-71.173619,42.700924],[-71.173527,42.700875],[-71.173346,42.700901],[-71.173345,42.701016],[-71.173293,42.701071],[-71.173224,42.701105],[-71.173148,42.701143],[-71.171275,42.701963],[-71.170783,42.702174],[-71.170504,42.702294],[-71.170205,42.70242],[-71.170054,42.702535],[-71.170002,42.702607],[-71.169972,42.70265],[-71.169827,42.702897],[-71.169699,42.703127],[-71.169698,42.703211],[-71.169767,42.703343],[-71.170194,42.703876],[-71.170421,42.704159],[-71.170935,42.704775],[-71.171569,42.7045],[-71.172432,42.704118],[-71.172874,42.704674],[-71.173199,42.705071]]]}},{"type":"Feature","properties":{"ward":"D","precinct":"3","district":"D-3","population_2020":3634},"geometry":{"type":"Polygon","coordinates":[[[-71.168124,42.710447],[-71.168315,42.710431],[-71.168376,42.710435],[-71.168475,42.710442],[-71.169508,42.710585],[-71.170481,42.710729],[-71.170984,42.710807],[-71.171073,42.710837],[-71.171819,42.711134],[-71.171239,42.711381],[-71.171929,42.712202],[-71.172059,42.712168],[-71.172176,42.712111],[-71.1723,42.712072],[-71.17257,42.712151],[-71.17327,42.712434],[-71.17387,42.713155],[-71.17425,42.713665],[-71.174974,42.713336],[-71.17511,42.713302],[-71.176785,42.712903],[-71.1775,42.712733],[-71.176919,42.712172],[-71.176581,42.711844],[-71.17619,42.711467],[-71.176002,42.711284],[-71.175278,42.710578],[-71.175134,42.710444],[-71.174482,42.709813],[-71.174239,42.709578],[-71.173626,42.708984],[-71.172986,42.708364],[-71.17276,42.708146],[-71.17261,42.708001],[-71.172483,42.707878],[-71.173407,42.707514],[-71.173903,42.707319],[-71.174159,42.707219],[-71.174753,42.706997],[-71.173901,42.705925],[-71.173558,42.705508],[-71.173199,42.705071],[-71.172391,42.705426],[-71.171704,42.705728],[-71.171118,42.705986],[-71.169637,42.706649],[-71.170123,42.707245],[-71.168635,42.70789],[-71.169097,42.708454],[-71.167213,42.709301],[-71.167692,42.709923],[-71.167759,42.71001],[-71.168124,42.710447]]]}},{"type":"Feature","properties":{"ward":"D","precinct":"4","district":"D-4","population_2020":3565},"geometry":{"type":"Polygon","coordinates":[[[-71.161959,42.706056],[-71.162004,42.706049],[-71.162909,42.70565],[-71.16376,42.705071],[-71.164319,42.705755],[-71.164763,42.7063],[-71.165283,42.706941],[-71.165767,42.707539],[-71.166239,42.708118],[-71.166734,42.708719],[-71.167137,42.709203],[-71.167213,42.709301],[-71.169097,42.708454],[-71.168635,42.70789],[-71.170123,42.707245],[-71.169637,42.706649],[-71.171118,42.705986],[-71.171704,42.705728],[-71.172391,42.705426],[-71.173199,42.705071],[-71.172874,42.704674],[-71.172432,42.704118],[-71.171569,42.7045],[-71.170935,42.704775],[-71.170421,42.704159],[-71.170194,42.703876],[-71.169767,42.703343],[-71.169698,42.703211],[-71.169699,42.703127],[-71.169827,42.702897],[-71.169972,42.70265],[-71.170002,42.702607],[-71.170054,42.702535],[-71.170205,42.70242],[-71.170504,42.702294],[-71.170783,42.702174],[-71.171275,42.701963],[-71.173148,42.701143],[-71.173224,42.701105],[-71.173293,42.701071],[-71.173345,42.701016],[-71.173346,42.700901],[-71.173527,42.700875],[-71.173619,42.700924],[-71.173653,42.700968],[-71.173702,42.700916],[-71.174012,42.700533],[-71.174041,42.700494],[-71.174053,42.700466],[-71.174235,42.700056],[-71.174312,42.699822],[-71.174501,42.699875],[-71.174699,42.69992],[-71.174903,42.699972],[-71.174953,42.699974],[-71.175063,42.699965],[-71.175174,42.699953],[-71.175245,42.699965],[-71.175392,42.699988],[-71.175499,42.700018],[-71.175551,42.700022],[-71.175595,42.700015],[-71.175624,42.699999],[-71.175651,42.699974],[-71.175696,42.699883],[-71.175785,42.699557],[-71.175996,42.699],[-71.176395,42.698665],[-71.176733,42.698576],[-71.176808,42.698513],[-71.177253,42.697514],[-71.177541,42.697725],[-71.177775,42.697865],[-71.178119,42.698065],[-71.178115,42.697987],[-71.178129,42.697904],[-71.178225,42.69779],[-71.178172,42.697585],[-71.178124,42.697039],[-71.178099,42.696657],[-71.178025,42.696431],[-71.17792,42.696222],[-71.177819,42.696111],[-71.177648,42.695999],[-71.177507,42.695923],[-71.177174,42.695812],[-71.176762,42.695701],[-71.176189,42.695543],[-71.175181,42.695148],[-71.174622,42.695047],[-71.174303,42.69499],[-71.170398,42.697498],[-71.166479,42.700489],[-71.166308,42.700605],[-71.165529,42.701137],[-71.165136,42.701323],[-71.164251,42.701678],[-71.160197,42.703302],[-71.160283,42.703443],[-71.160626,42.704006],[-71.160761,42.70421],[-71.160801,42.704269],[-71.161541,42.705473],[-71.161618,42.705599],[-71.161696,42.705704],[-71.16178,42.705816],[-71.16183,42.705884],[-71.161873,42.705941],[-71.161959,42.706056]]]}},{"type":"Feature","properties":{"ward":"E","precinct":"1","district":"E-1","population_2020":3646},"geometry":{"type":"Polygon","coordinates":[[[-71.17576,42.693933],[-71.177019,42.693321],[-71.177609,42.693034],[-71.177812,42.693065],[-71.180454,42.693469],[-71.187319,42.695742],[-71.188863,42.696277],[-71.188859,42.696256],[-71.188676,42.695325],[-71.188615,42.694994],[-71.188572,42.694758],[-71.188452,42.694079],[-71.188263,42.692909],[-71.188102,42.691911],[-71.18807,42.691717],[-71.188016,42.691376],[-71.187962,42.690732],[-71.187892,42.690614],[-71.18784,42.690253],[-71.187393,42.687535],[-71.186987,42.685037],[-71.186968,42.684904],[-71.186418,42.681522],[-71.186244,42.680444],[-71.186239,42.680412],[-71.186066,42.679351],[-71.185735,42.677308],[-71.185732,42.677291],[-71.185595,42.676443],[-71.185578,42.676335],[-71.185512,42.675929],[-71.185508,42.675902],[-71.185504,42.675877],[-71.178322,42.677101],[-71.175727,42.677539],[-71.174476,42.677753],[-71.173898,42.677851],[-71.172534,42.67809],[-71.169061,42.678673],[-71.165723,42.679254],[-71.165762,42.679316],[-71.166249,42.680117],[-71.166702,42.680839],[-71.167203,42.681667],[-71.167683,42.682388],[-71.168395,42.682243],[-71.168555,42.682223],[-71.168865,42.682201],[-71.169187,42.682191],[-71.16978,42.682213],[-71.170149,42.682238],[-71.171193,42.68232],[-71.171394,42.682323],[-71.171529,42.68249],[-71.171646,42.682589],[-71.171736,42.682613],[-71.172846,42.682694],[-71.172804,42.683105],[-71.172829,42.68335],[-71.172828,42.683559],[-71.17287,42.683732],[-71.172888,42.683779],[-71.173029,42.684142],[-71.171958,42.684406],[-71.172364,42.685373],[-71.172533,42.685882],[-71.172548,42.685977],[-71.172499,42.686143],[-71.172445,42.686273],[-71.172375,42.686348],[-71.172273,42.686442],[-71.172123,42.686564],[-71.171928,42.686698],[-71.171423,42.687046],[-71.172064,42.687554],[-71.172344,42.687359],[-71.1729,42.687031],[-71.173034,42.686972],[-71.173146,42.686929],[-71.173483,42.686859],[-71.173804,42.686825],[-71.173748,42.687014],[-71.173743,42.687033],[-71.173682,42.687241],[-71.173491,42.687825],[-71.17333,42.68832],[-71.173314,42.688383],[-71.173237,42.688705],[-71.17321,42.688846],[-71.173218,42.689227],[-71.173228,42.689473],[-71.173284,42.689829],[-71.17341,42.690371],[-71.173107,42.690443],[-71.172155,42.690692],[-71.171683,42.690809],[-71.17139,42.690882],[-71.171532,42.69117],[-71.171583,42.691208],[-71.172967,42.692156],[-71.173499,42.691698],[-71.173569,42.691644],[-71.174612,42.692367],[-71.174186,42.693025],[-71.174351,42.693143],[-71.174599,42.693235],[-71.174755,42.693293],[-71.175541,42.693793],[-71.17576,42.693933]]]}},{"type":"Feature","properties":{"ward":"E","precinct":"2","district":"E-2","population_2020":3672},"geometry":{"type":"Polygon","coordinates":[[[-71.160912,42.680063],[-71.160925,42.680122],[-71.16097,42.680328],[-71.160975,42.680426],[-71.160951,42.680499],[-71.160894,42.680696],[-71.160844,42.680881],[-71.160881,42.681078],[-71.160915,42.681126],[-71.160965,42.681196],[-71.161289,42.681524],[-71.161396,42.68165],[-71.161454,42.681718],[-71.161628,42.682042],[-71.161773,42.682236],[-71.161814,42.682291],[-71.161941,42.682394],[-71.162128,42.682532],[-71.162261,42.682596],[-71.162655,42.682766],[-71.162414,42.682877],[-71.16114,42.683548],[-71.160501,42.683871],[-71.160332,42.683956],[-71.159887,42.684191],[-71.159583,42.684397],[-71.159317,42.684584],[-71.159027,42.684817],[-71.158881,42.684935],[-71.158736,42.685033],[-71.158588,42.68512],[-71.158061,42.684253],[-71.157527,42.684467],[-71.155791,42.685143],[-71.155919,42.68532],[-71.1561,42.685583],[-71.154682,42.686121],[-71.154297,42.686268],[-71.154145,42.686295],[-71.154133,42.686337],[-71.154319,42.686597],[-71.154506,42.686859],[-71.154958,42.687415],[-71.155479,42.688034],[-71.155757,42.6884],[-71.15591,42.688626],[-71.156457,42.689345],[-71.157588,42.690683],[-71.158001,42.691189],[-71.158644,42.691058],[-71.158661,42.691025],[-71.158716,42.690986],[-71.159663,42.690647],[-71.161064,42.690133],[-71.161417,42.68998],[-71.161527,42.689938],[-71.161982,42.689766],[-71.162111,42.689704],[-71.162373,42.689543],[-71.162473,42.689471],[-71.162673,42.689327],[-71.164239,42.688254],[-71.164522,42.688472],[-71.164871,42.688755],[-71.165506,42.689267],[-71.166185,42.688792],[-71.166827,42.689295],[-71.167458,42.68979],[-71.168151,42.68931],[-71.168583,42.689011],[-71.170408,42.687746],[-71.171088,42.687277],[-71.171423,42.687046],[-71.171928,42.686698],[-71.172123,42.686564],[-71.172273,42.686442],[-71.172375,42.686348],[-71.172445,42.686273],[-71.172499,42.686143],[-71.172548,42.685977],[-71.172533,42.685882],[-71.172364,42.685373],[-71.171958,42.684406],[-71.173029,42.684142],[-71.172888,42.683779],[-71.17287,42.683732],[-71.172828,42.683559],[-71.172829,42.68335],[-71.172804,42.683105],[-71.172846,42.682694],[-71.171736,42.682613],[-71.171646,42.682589],[-71.171529,42.68249],[-71.171394,42.682323],[-71.171193,42.68232],[-71.170149,42.682238],[-71.16978,42.682213],[-71.169187,42.682191],[-71.168865,42.682201],[-71.168555,42.682223],[-71.168395,42.682243],[-71.167683,42.682388],[-71.167203,42.681667],[-71.166702,42.680839],[-71.166249,42.680117],[-71.165762,42.679316],[-71.165723,42.679254],[-71.165626,42.679271],[-71.161682,42.679933],[-71.160912,42.680063]]]}},{"type":"Feature","properties":{"ward":"E","precinct":"3","district":"E-3","population_2020":3555},"geometry":{"type":"Polygon","coordinates":[[[-71.160293,42.694058],[-71.160487,42.694263],[-71.1609,42.694761],[-71.161161,42.695113],[-71.161403,42.695465],[-71.161601,42.695817],[-71.161691,42.696155],[-71.161914,42.696041],[-71.162194,42.696606],[-71.163055,42.696392],[-71.162764,42.69574],[-71.163844,42.695468],[-71.165538,42.69506],[-71.165985,42.694228],[-71.166233,42.69378],[-71.166357,42.693556],[-71.166568,42.693173],[-71.16674,42.692849],[-71.166898,42.692547],[-71.167123,42.692118],[-71.167331,42.691769],[-71.167496,42.691546],[-71.167728,42.691486],[-71.168881,42.691222],[-71.169179,42.69118],[-71.169427,42.691145],[-71.169954,42.691092],[-71.170452,42.691061],[-71.170875,42.690995],[-71.17139,42.690882],[-71.171683,42.690809],[-71.172155,42.690692],[-71.173107,42.690443],[-71.17341,42.690371],[-71.173284,42.689829],[-71.173228,42.689473],[-71.173218,42.689227],[-71.17321,42.688846],[-71.173237,42.688705],[-71.173314,42.688383],[-71.17333,42.68832],[-71.173491,42.687825],[-71.173682,42.687241],[-71.173743,42.687033],[-71.173748,42.687014],[-71.173804,42.686825],[-71.173483,42.686859],[-71.173146,42.686929],[-71.173034,42.686972],[-71.1729,42.687031],[-71.172344,42.687359],[-71.172064,42.687554],[-71.171423,42.687046],[-71.171088,42.687277],[-71.170408,42.687746],[-71.168583,42.689011],[-71.168151,42.68931],[-71.167458,42.68979],[-71.166827,42.689295],[-71.166185,42.688792],[-71.165506,42.689267],[-71.164871,42.688755],[-71.164522,42.688472],[-71.164239,42.688254],[-71.162673,42.689327],[-71.162473,42.689471],[-71.162373,42.689543],[-71.162111,42.689704],[-71.161982,42.689766],[-71.161527,42.689938],[-71.161417,42.68998],[-71.161064,42.690133],[-71.159663,42.690647],[-71.158716,42.690986],[-71.158661,42.691025],[-71.158644,42.691058],[-71.158001,42.691189],[-71.160293,42.694058]]]}},{"type":"Feature","properties":{"ward":"E","precinct":"4","district":"E-4","population_2020":3584},"geometry":{"type":"Polygon","coordinates":[[[-71.157827,42.695813],[-71.157916,42.696005],[-71.158042,42.696272],[-71.158188,42.696585],[-71.158255,42.696729],[-71.158371,42.696977],[-71.158539,42.697352],[-71.158719,42.697758],[-71.158891,42.698147],[-71.159052,42.698514],[-71.159199,42.698849],[-71.159351,42.699196],[-71.159528,42.699573],[-71.159828,42.700205],[-71.159892,42.700339],[-71.159938,42.700546],[-71.159937,42.700653],[-71.159915,42.700763],[-71.159876,42.700895],[-71.159751,42.701166],[-71.159631,42.701406],[-71.15962,42.701437],[-71.159596,42.701513],[-71.159576,42.701604],[-71.159565,42.701655],[-71.15956,42.701752],[-71.159556,42.701828],[-71.159558,42.701872],[-71.159563,42.702004],[-71.159584,42.702132],[-71.159621,42.70227],[-71.159667,42.702403],[-71.159743,42.702554],[-71.159837,42.702709],[-71.160197,42.703302],[-71.164251,42.701678],[-71.165136,42.701323],[-71.165529,42.701137],[-71.166308,42.700605],[-71.166479,42.700489],[-71.170398,42.697498],[-71.174303,42.69499],[-71.175126,42.694393],[-71.17576,42.693933],[-71.175541,42.693793],[-71.174755,42.693293],[-71.174599,42.693235],[-71.174351,42.693143],[-71.174186,42.693025],[-71.174612,42.692367],[-71.173569,42.691644],[-71.173499,42.691698],[-71.172967,42.692156],[-71.171583,42.691208],[-71.171532,42.69117],[-71.17139,42.690882],[-71.170875,42.690995],[-71.170452,42.691061],[-71.169954,42.691092],[-71.169427,42.691145],[-71.169179,42.69118],[-71.168881,42.691222],[-71.167728,42.691486],[-71.167496,42.691546],[-71.167331,42.691769],[-71.167123,42.692118],[-71.166898,42.692547],[-71.16674,42.692849],[-71.166568,42.693173],[-71.166357,42.693556],[-71.166233,42.69378],[-71.165985,42.694228],[-71.165538,42.69506],[-71.163844,42.695468],[-71.162764,42.69574],[-71.163055,42.696392],[-71.162194,42.696606],[-71.161914,42.696041],[-71.161691,42.696155],[-71.161601,42.695817],[-71.161403,42.695465],[-71.161161,42.695113],[-71.1609,42.694761],[-71.160487,42.694263],[-71.160293,42.694058],[-71.159517,42.694299],[-71.158156,42.69472],[-71.15737,42.69496],[-71.157408,42.695004],[-71.15762,42.695396],[-71.157703,42.695549],[-71.157827,42.695813]]]}},{"type":"Feature","properties":{"ward":"F","precinct":"1","district":"F-1","population_2020":3777},"geometry":{"type":"Polygon","coordinates":[[[-71.139403,42.684486],[-71.139418,42.684495],[-71.139461,42.68452],[-71.139513,42.684551],[-71.140027,42.684834],[-71.140221,42.684933],[-71.140316,42.684991],[-71.140394,42.685039],[-71.141224,42.685476],[-71.141776,42.685771],[-71.142145,42.685976],[-71.142257,42.686031],[-71.142374,42.686104],[-71.142443,42.686152],[-71.142544,42.686202],[-71.142876,42.686374],[-71.142992,42.686434],[-71.143169,42.686514],[-71.143733,42.686802],[-71.144001,42.686949],[-71.144227,42.687057],[-71.144467,42.687182],[-71.144527,42.687211],[-71.144824,42.687371],[-71.144911,42.687418],[-71.145056,42.68749],[-71.145242,42.687594],[-71.145459,42.687704],[-71.145668,42.687804],[-71.14595,42.687946],[-71.146136,42.688008],[-71.146808,42.688375],[-71.147486,42.688745],[-71.147566,42.688788],[-71.149056,42.689715],[-71.150016,42.690324],[-71.150542,42.690658],[-71.151897,42.691506],[-71.152807,42.692076],[-71.153382,42.692444],[-71.153568,42.692563],[-71.153695,42.692526],[-71.155414,42.692084],[-71.155917,42.691973],[-71.155957,42.692086],[-71.156196,42.692626],[-71.156384,42.693049],[-71.156487,42.693253],[-71.156641,42.69356],[-71.15689,42.694035],[-71.156154,42.694214],[-71.157133,42.694809],[-71.15737,42.69496],[-71.158156,42.69472],[-71.159517,42.694299],[-71.160293,42.694058],[-71.158001,42.691189],[-71.157588,42.690683],[-71.156457,42.689345],[-71.15591,42.688626],[-71.155757,42.6884],[-71.155479,42.688034],[-71.154958,42.687415],[-71.154506,42.686859],[-71.154319,42.686597],[-71.154133,42.686337],[-71.154145,42.686295],[-71.154297,42.686268],[-71.154682,42.686121],[-71.1561,42.685583],[-71.155919,42.68532],[-71.155791,42.685143],[-71.157527,42.684467],[-71.158061,42.684253],[-71.158588,42.68512],[-71.158736,42.685033],[-71.158881,42.684935],[-71.159027,42.684817],[-71.159317,42.684584],[-71.159583,42.684397],[-71.159887,42.684191],[-71.160332,42.683956],[-71.160501,42.683871],[-71.16114,42.683548],[-71.162414,42.682877],[-71.162655,42.682766],[-71.162261,42.682596],[-71.162128,42.682532],[-71.161941,42.682394],[-71.161814,42.682291],[-71.161773,42.682236],[-71.161628,42.682042],[-71.161454,42.681718],[-71.161396,42.68165],[-71.161289,42.681524],[-71.160965,42.681196],[-71.160915,42.681126],[-71.160881,42.681078],[-71.160844,42.680881],[-71.160894,42.680696],[-71.160951,42.680499],[-71.160975,42.680426],[-71.16097,42.680328],[-71.160925,42.680122],[-71.160912,42.680063],[-71.159673,42.680275],[-71.159569,42.680293],[-71.155388,42.681005],[-71.154119,42.681221],[-71.153396,42.681344],[-71.152562,42.681486],[-71.152251,42.68154],[-71.152055,42.681573],[-71.151214,42.681716],[-71.149999,42.68136],[-71.148558,42.680937],[-71.148193,42.68083],[-71.148156,42.680819],[-71.148048,42.680787],[-71.147699,42.680684],[-71.145564,42.680062],[-71.145502,42.680043],[-71.145408,42.680015],[-71.14315,42.67935],[-71.141144,42.678761],[-71.140545,42.67858],[-71.138702,42.678044],[-71.138299,42.677926],[-71.13824,42.677922],[-71.138203,42.677898],[-71.137054,42.677556],[-71.136693,42.677454],[-71.13667,42.677448],[-71.134539,42.676822],[-71.134453,42.676787],[-71.134405,42.676949],[-71.134168,42.677668],[-71.134064,42.677969],[-71.134033,42.678065],[-71.134019,42.678108],[-71.133976,42.678241],[-71.1339,42.678501],[-71.133745,42.678963],[-71.133615,42.679353],[-71.133585,42.679437],[-71.133687,42.679544],[-71.134041,42.679884],[-71.13426,42.680079],[-71.134775,42.680575],[-71.135142,42.680917],[-71.135501,42.68122],[-71.13571,42.681399],[-71.135804,42.681482],[-71.135811,42.681491],[-71.136261,42.681838],[-71.136773,42.682321],[-71.13766,42.683067],[-71.138462,42.683753],[-71.138895,42.684116],[-71.13922,42.684385],[-71.139278,42.684416],[-71.139342,42.684451],[-71.139362,42.684462],[-71.139403,42.684486]]]}},{"type":"Feature","properties":{"ward":"F","precinct":"2","district":"F-2","population_2020":3836},"geometry":{"type":"Polygon","coordinates":[[[-71.144858,42.698994],[-71.144945,42.699036],[-71.145392,42.699252],[-71.146071,42.699571],[-71.146445,42.699756],[-71.146256,42.69958],[-71.146373,42.699375],[-71.146443,42.699333],[-71.146518,42.699299],[-71.146634,42.699278],[-71.146963,42.699236],[-71.147061,42.699207],[-71.147154,42.699173],[-71.147218,42.699122],[-71.147305,42.699037],[-71.147432,42.698847],[-71.147451,42.698756],[-71.147451,42.698662],[-71.14744,42.698535],[-71.147351,42.698027],[-71.14734,42.697911],[-71.147357,42.697851],[-71.147415,42.697787],[-71.147497,42.697711],[-71.147595,42.697643],[-71.147647,42.697597],[-71.147671,42.697543],[-71.147683,42.697465],[-71.147678,42.697328],[-71.147688,42.697196],[-71.147662,42.697083],[-71.147617,42.696942],[-71.147577,42.696835],[-71.147548,42.696733],[-71.147457,42.696583],[-71.147314,42.696332],[-71.148699,42.696202],[-71.150734,42.696013],[-71.153167,42.695802],[-71.153404,42.695778],[-71.153958,42.695722],[-71.154413,42.695676],[-71.154621,42.696169],[-71.154807,42.696552],[-71.155154,42.696477],[-71.155583,42.696372],[-71.156591,42.696126],[-71.157221,42.695963],[-71.157827,42.695813],[-71.157703,42.695549],[-71.15762,42.695396],[-71.157408,42.695004],[-71.15737,42.69496],[-71.157133,42.694809],[-71.156154,42.694214],[-71.15689,42.694035],[-71.156641,42.69356],[-71.156487,42.693253],[-71.156384,42.693049],[-71.156196,42.692626],[-71.155957,42.692086],[-71.155917,42.691973],[-71.155414,42.692084],[-71.153695,42.692526],[-71.153568,42.692563],[-71.153382,42.692444],[-71.152807,42.692076],[-71.151897,42.691506],[-71.150542,42.690658],[-71.150016,42.690324],[-71.149056,42.689715],[-71.147566,42.688788],[-71.147486,42.688745],[-71.146808,42.688375],[-71.146136,42.688008],[-71.14595,42.687946],[-71.145668,42.687804],[-71.145459,42.687704],[-71.145242,42.687594],[-71.145056,42.68749],[-71.144911,42.687418],[-71.144824,42.687371],[-71.144527,42.687211],[-71.144467,42.687182],[-71.144227,42.687057],[-71.144001,42.686949],[-71.143733,42.686802],[-71.143169,42.686514],[-71.142992,42.686434],[-71.142876,42.686374],[-71.142544,42.686202],[-71.142443,42.686152],[-71.142374,42.686104],[-71.142257,42.686031],[-71.142145,42.685976],[-71.141776,42.685771],[-71.141224,42.685476],[-71.140394,42.685039],[-71.140316,42.684991],[-71.140221,42.684933],[-71.140027,42.684834],[-71.139513,42.684551],[-71.139461,42.68452],[-71.139418,42.684495],[-71.139403,42.684486],[-71.13926,42.684503],[-71.139185,42.684535],[-71.139111,42.684577],[-71.139024,42.684604],[-71.138934,42.684639],[-71.138887,42.68467],[-71.138821,42.68469],[-71.138759,42.684662],[-71.138698,42.684661],[-71.138537,42.684687],[-71.138301,42.684715],[-71.138079,42.684796],[-71.137979,42.684853],[-71.137928,42.684882],[-71.137917,42.684896],[-71.137878,42.684913],[-71.137823,42.68498],[-71.137819,42.685012],[-71.137788,42.685055],[-71.137795,42.685097],[-71.137783,42.68516],[-71.137841,42.685163],[-71.137826,42.685229],[-71.137879,42.685277],[-71.137999,42.685332],[-71.138099,42.685343],[-71.138188,42.685326],[-71.138269,42.685344],[-71.138323,42.685307],[-71.138458,42.685247],[-71.138584,42.685225],[-71.138629,42.685248],[-71.138706,42.685251],[-71.138726,42.685197],[-71.138942,42.685158],[-71.13902,42.685185],[-71.1391,42.685181],[-71.139178,42.685159],[-71.139364,42.685199],[-71.139424,42.685263],[-71.139468,42.685357],[-71.139479,42.685468],[-71.139428,42.685578],[-71.139316,42.685635],[-71.139167,42.685688],[-71.139108,42.685704],[-71.139,42.685699],[-71.138939,42.685708],[-71.138891,42.685723],[-71.138825,42.685741],[-71.138763,42.685791],[-71.138736,42.685823],[-71.138749,42.685853],[-71.138796,42.685893],[-71.138698,42.685983],[-71.138636,42.686],[-71.138516,42.686008],[-71.1385,42.686066],[-71.138435,42.686048],[-71.138392,42.686108],[-71.138338,42.686096],[-71.138338,42.686142],[-71.138318,42.68619],[-71.138295,42.686184],[-71.138288,42.68613],[-71.138296,42.686087],[-71.138292,42.686045],[-71.138246,42.686016],[-71.138184,42.686028],[-71.138122,42.686053],[-71.138072,42.68611],[-71.138029,42.686164],[-71.138036,42.686218],[-71.138001,42.686258],[-71.137985,42.686323],[-71.137997,42.686365],[-71.13795,42.686412],[-71.137911,42.686431],[-71.137838,42.686383],[-71.137819,42.686357],[-71.137796,42.686365],[-71.137769,42.686388],[-71.137722,42.686414],[-71.13768,42.686447],[-71.137683,42.686505],[-71.13771,42.686567],[-71.137733,42.686593],[-71.137768,42.686587],[-71.137831,42.686554],[-71.137909,42.68658],[-71.137883,42.686622],[-71.137864,42.686639],[-71.137895,42.686656],[-71.13784,42.686699],[-71.13791,42.686736],[-71.137901,42.686804],[-71.137951,42.686867],[-71.137982,42.68691],[-71.138036,42.686913],[-71.138156,42.686853],[-71.138334,42.686857],[-71.138357,42.68682],[-71.1384,42.686818],[-71.138423,42.686795],[-71.138361,42.686763],[-71.138395,42.686715],[-71.13852,42.686704],[-71.138834,42.686722],[-71.138829,42.686747],[-71.138863,42.68677],[-71.138902,42.68675],[-71.138937,42.686779],[-71.13898,42.686734],[-71.139203,42.686744],[-71.139458,42.686789],[-71.139699,42.687072],[-71.13981,42.687195],[-71.139534,42.687484],[-71.139512,42.687508],[-71.139428,42.687604],[-71.139317,42.68766],[-71.139194,42.687747],[-71.139071,42.687721],[-71.138969,42.687714],[-71.138965,42.687664],[-71.138969,42.687648],[-71.138978,42.687618],[-71.139009,42.687571],[-71.138975,42.687486],[-71.138869,42.68746],[-71.138782,42.687464],[-71.138676,42.687503],[-71.138588,42.687533],[-71.1385,42.687603],[-71.138458,42.687648],[-71.138458,42.687676],[-71.138501,42.687672],[-71.138535,42.687698],[-71.138443,42.687751],[-71.138491,42.687829],[-71.138548,42.687918],[-71.138524,42.687961],[-71.138456,42.68795],[-71.138458,42.68799],[-71.138461,42.688043],[-71.138441,42.688111],[-71.138469,42.688169],[-71.13853,42.688203],[-71.138524,42.688294],[-71.138485,42.688322],[-71.138386,42.688334],[-71.138394,42.688364],[-71.138523,42.688392],[-71.138556,42.688469],[-71.138544,42.688537],[-71.138517,42.688582],[-71.138428,42.688598],[-71.138373,42.688622],[-71.138395,42.688671],[-71.138482,42.68876],[-71.138509,42.688846],[-71.138405,42.688894],[-71.138281,42.689084],[-71.138189,42.689071],[-71.138151,42.689031],[-71.138056,42.689045],[-71.137997,42.689034],[-71.137937,42.68903],[-71.137882,42.68907],[-71.137936,42.68918],[-71.137867,42.689229],[-71.137804,42.689216],[-71.137754,42.689269],[-71.137707,42.689216],[-71.137656,42.689228],[-71.137694,42.689317],[-71.137617,42.689337],[-71.137518,42.689231],[-71.137458,42.689219],[-71.137518,42.689296],[-71.137506,42.689361],[-71.137441,42.689373],[-71.137386,42.68932],[-71.13732,42.689352],[-71.137358,42.689433],[-71.137302,42.689523],[-71.137291,42.689591],[-71.137357,42.689571],[-71.137429,42.689494],[-71.137489,42.689503],[-71.137478,42.689555],[-71.137533,42.689604],[-71.13745,42.689641],[-71.137439,42.689697],[-71.137378,42.689766],[-71.137334,42.689725],[-71.137307,42.689749],[-71.137262,42.689802],[-71.137174,42.689826],[-71.137251,42.689895],[-71.137195,42.689984],[-71.137223,42.690045],[-71.137294,42.689988],[-71.137393,42.689961],[-71.137432,42.689989],[-71.137404,42.690042],[-71.137453,42.690082],[-71.137431,42.690127],[-71.137343,42.690159],[-71.137343,42.690191],[-71.137414,42.690257],[-71.13738,42.690305],[-71.137325,42.690358],[-71.137297,42.690422],[-71.13739,42.690471],[-71.137478,42.690496],[-71.137594,42.690528],[-71.137679,42.690618],[-71.137616,42.69066],[-71.137636,42.690733],[-71.137584,42.690802],[-71.137529,42.690849],[-71.137395,42.690829],[-71.137416,42.69091],[-71.137529,42.690914],[-71.137494,42.690956],[-71.137494,42.691029],[-71.137504,42.691099],[-71.137441,42.691129],[-71.137321,42.691145],[-71.137347,42.691164],[-71.137425,42.691179],[-71.137498,42.691245],[-71.137571,42.691254],[-71.137638,42.691296],[-71.137622,42.691365],[-71.137523,42.691415],[-71.137538,42.691469],[-71.137559,42.691539],[-71.137599,42.691545],[-71.137579,42.6916],[-71.1376,42.691658],[-71.137679,42.691542],[-71.137788,42.691559],[-71.137898,42.691547],[-71.137911,42.69161],[-71.137835,42.691678],[-71.137829,42.691717],[-71.137902,42.691717],[-71.137928,42.691775],[-71.13785,42.691782],[-71.137839,42.691817],[-71.137923,42.69183],[-71.137865,42.691894],[-71.137766,42.691855],[-71.137713,42.69189],[-71.137771,42.691917],[-71.137864,42.691934],[-71.137838,42.691994],[-71.137749,42.692009],[-71.137744,42.692048],[-71.137848,42.692052],[-71.137874,42.692094],[-71.137806,42.692144],[-71.137811,42.692171],[-71.137867,42.692174],[-71.137936,42.692232],[-71.137981,42.692269],[-71.137819,42.692291],[-71.13784,42.692324],[-71.13793,42.692308],[-71.13796,42.692328],[-71.137878,42.692374],[-71.137892,42.692401],[-71.138023,42.692407],[-71.138017,42.692477],[-71.137937,42.692516],[-71.138006,42.692587],[-71.138118,42.692568],[-71.138277,42.692641],[-71.138341,42.692697],[-71.138443,42.692723],[-71.138487,42.692721],[-71.138638,42.692765],[-71.138904,42.692746],[-71.139154,42.692727],[-71.139297,42.692752],[-71.139323,42.692853],[-71.13929,42.692956],[-71.139242,42.69301],[-71.139173,42.693069],[-71.139178,42.693159],[-71.13922,42.693218],[-71.139247,42.693195],[-71.139416,42.693305],[-71.139649,42.693408],[-71.139724,42.693392],[-71.139814,42.693424],[-71.13989,42.693485],[-71.14001,42.693526],[-71.140085,42.693492],[-71.14017,42.693429],[-71.140239,42.69348],[-71.140153,42.693598],[-71.140265,42.693672],[-71.140308,42.693598],[-71.140419,42.693598],[-71.140408,42.69372],[-71.140472,42.69376],[-71.140535,42.693756],[-71.140593,42.693822],[-71.140598,42.693862],[-71.140668,42.69385],[-71.14071,42.693909],[-71.140805,42.693945],[-71.140917,42.693913],[-71.141001,42.693942],[-71.141189,42.694018],[-71.141372,42.694067],[-71.141544,42.694096],[-71.14167,42.694093],[-71.141685,42.694199],[-71.141704,42.694326],[-71.142153,42.694289],[-71.142545,42.694257],[-71.143,42.694221],[-71.14315,42.694209],[-71.143176,42.694516],[-71.143229,42.695124],[-71.143281,42.695714],[-71.143307,42.696021],[-71.143358,42.696558],[-71.143396,42.697037],[-71.143762,42.697213],[-71.143829,42.697245],[-71.144014,42.697335],[-71.14486,42.697743],[-71.144904,42.697766],[-71.144938,42.697792],[-71.144967,42.697822],[-71.144999,42.697853],[-71.144993,42.697881],[-71.144969,42.697932],[-71.145006,42.697956],[-71.145041,42.697938],[-71.14507,42.697942],[-71.145059,42.697975],[-71.145096,42.697946],[-71.145134,42.697944],[-71.145155,42.697956],[-71.14515,42.697989],[-71.14515,42.698021],[-71.145173,42.69803],[-71.145206,42.698009],[-71.145248,42.697997],[-71.145312,42.698007],[-71.145376,42.698031],[-71.145413,42.698057],[-71.145461,42.698071],[-71.145472,42.698104],[-71.145495,42.698133],[-71.14547,42.698146],[-71.145415,42.698177],[-71.145447,42.698204],[-71.145504,42.698165],[-71.145514,42.698157],[-71.145618,42.698234],[-71.14566,42.698219],[-71.145682,42.698183],[-71.145719,42.698178],[-71.145732,42.698201],[-71.145695,42.698227],[-71.145716,42.698241],[-71.145759,42.698243],[-71.145791,42.69827],[-71.14578,42.698306],[-71.145788,42.698333],[-71.145771,42.698361],[-71.145758,42.698367],[-71.145723,42.698388],[-71.145731,42.698406],[-71.145758,42.698414],[-71.14577,42.698399],[-71.145779,42.698392],[-71.14584,42.698445],[-71.145858,42.69849],[-71.145818,42.69851],[-71.145792,42.698557],[-71.145743,42.698587],[-71.145732,42.698606],[-71.145749,42.698618],[-71.14568,42.698668],[-71.145572,42.698727],[-71.145471,42.698766],[-71.145438,42.698761],[-71.145369,42.698766],[-71.145329,42.698754],[-71.145285,42.698752],[-71.145244,42.698758],[-71.145218,42.698725],[-71.145191,42.698718],[-71.145135,42.698726],[-71.145094,42.698746],[-71.145036,42.69876],[-71.144977,42.698755],[-71.144948,42.698775],[-71.144953,42.698814],[-71.144897,42.698865],[-71.144872,42.698982],[-71.144858,42.698994]]]}},{"type":"Feature","properties":{"ward":"F","precinct":"3","district":"F-3","population_2020":3879},"geometry":{"type":"Polygon","coordinates":[[[-71.153385,42.704217],[-71.15339,42.704845],[-71.153401,42.706159],[-71.153401,42.706261],[-71.153402,42.706335],[-71.153402,42.706381],[-71.153402,42.706488],[-71.153403,42.707094],[-71.155647,42.707099],[-71.156726,42.707101],[-71.157885,42.707103],[-71.15898,42.707098],[-71.159595,42.707095],[-71.161276,42.707087],[-71.161102,42.706609],[-71.161108,42.706455],[-71.16123,42.706308],[-71.161559,42.706194],[-71.161959,42.706056],[-71.161873,42.705941],[-71.16183,42.705884],[-71.16178,42.705816],[-71.161696,42.705704],[-71.161618,42.705599],[-71.161541,42.705473],[-71.160801,42.704269],[-71.160761,42.70421],[-71.160626,42.704006],[-71.160283,42.703443],[-71.160197,42.703302],[-71.159837,42.702709],[-71.159743,42.702554],[-71.159667,42.702403],[-71.159621,42.70227],[-71.159584,42.702132],[-71.159563,42.702004],[-71.159558,42.701872],[-71.159556,42.701828],[-71.15956,42.701752],[-71.159565,42.701655],[-71.159576,42.701604],[-71.159596,42.701513],[-71.15962,42.701437],[-71.159631,42.701406],[-71.159751,42.701166],[-71.159876,42.700895],[-71.159915,42.700763],[-71.159937,42.700653],[-71.159938,42.700546],[-71.159892,42.700339],[-71.159828,42.700205],[-71.159528,42.699573],[-71.159351,42.699196],[-71.159199,42.698849],[-71.159052,42.698514],[-71.158891,42.698147],[-71.158719,42.697758],[-71.158539,42.697352],[-71.158371,42.696977],[-71.158255,42.696729],[-71.158188,42.696585],[-71.158042,42.696272],[-71.157916,42.696005],[-71.157827,42.695813],[-71.157221,42.695963],[-71.156591,42.696126],[-71.155583,42.696372],[-71.155154,42.696477],[-71.154807,42.696552],[-71.154621,42.696169],[-71.154413,42.695676],[-71.153958,42.695722],[-71.153962,42.696621],[-71.153404,42.696673],[-71.153404,42.697481],[-71.153401,42.698297],[-71.153399,42.698678],[-71.153401,42.6991],[-71.15341,42.699857],[-71.153411,42.700608],[-71.153403,42.701579],[-71.153403,42.701627],[-71.153397,42.702395],[-71.153378,42.703455],[-71.153379,42.70357],[-71.153382,42.703847],[-71.153385,42.704217]]]}},{"type":"Feature","properties":{"ward":"F","precinct":"4","district":"F-4","population_2020":3863},"geometry":{"type":"Polygon","coordinates":[[[-71.137286,42.706649],[-71.137281,42.706742],[-71.137254,42.707206],[-71.138339,42.70684],[-71.138421,42.706813],[-71.138603,42.706752],[-71.138807,42.706683],[-71.138868,42.706673],[-71.140212,42.706449],[-71.14578,42.705521],[-71.145903,42.7055],[-71.150298,42.704434],[-71.151095,42.704378],[-71.153385,42.704217],[-71.153382,42.703847],[-71.153379,42.70357],[-71.153378,42.703455],[-71.153397,42.702395],[-71.153403,42.701627],[-71.153403,42.701579],[-71.153411,42.700608],[-71.15341,42.699857],[-71.153401,42.6991],[-71.153399,42.698678],[-71.153401,42.698297],[-71.153404,42.697481],[-71.153404,42.696673],[-71.153962,42.696621],[-71.153958,42.695722],[-71.153404,42.695778],[-71.153167,42.695802],[-71.150734,42.696013],[-71.148699,42.696202],[-71.147314,42.696332],[-71.147457,42.696583],[-71.147548,42.696733],[-71.147577,42.696835],[-71.147617,42.696942],[-71.147662,42.697083],[-71.147688,42.697196],[-71.147678,42.697328],[-71.147683,42.697465],[-71.147671,42.697543],[-71.147647,42.697597],[-71.147595,42.697643],[-71.147497,42.697711],[-71.147415,42.697787],[-71.147357,42.697851],[-71.14734,42.697911],[-71.147351,42.698027],[-71.14744,42.698535],[-71.147451,42.698662],[-71.147451,42.698756],[-71.147432,42.698847],[-71.147305,42.699037],[-71.147218,42.699122],[-71.147154,42.699173],[-71.147061,42.699207],[-71.146963,42.699236],[-71.146634,42.699278],[-71.146518,42.699299],[-71.146443,42.699333],[-71.146373,42.699375],[-71.146256,42.69958],[-71.146445,42.699756],[-71.146071,42.699571],[-71.145392,42.699252],[-71.144945,42.699036],[-71.144858,42.698994],[-71.144846,42.699005],[-71.144656,42.69921],[-71.144551,42.699255],[-71.144439,42.699283],[-71.144209,42.699273],[-71.144191,42.699216],[-71.144177,42.6992],[-71.144156,42.699175],[-71.1441,42.699179],[-71.144085,42.69919],[-71.144071,42.699214],[-71.144031,42.699222],[-71.143993,42.699231],[-71.143903,42.699214],[-71.143831,42.699193],[-71.143786,42.699161],[-71.143679,42.699087],[-71.142779,42.698932],[-71.142373,42.699393],[-71.142228,42.699781],[-71.141962,42.700493],[-71.141611,42.701435],[-71.141083,42.702842],[-71.141005,42.703047],[-71.140972,42.703136],[-71.140946,42.703205],[-71.140891,42.703354],[-71.140385,42.703373],[-71.140327,42.703375],[-71.140023,42.703387],[-71.139966,42.703389],[-71.13984,42.703392],[-71.139772,42.703395],[-71.139464,42.703407],[-71.13942,42.703409],[-71.139324,42.703413],[-71.139089,42.703494],[-71.138179,42.703871],[-71.137756,42.704065],[-71.137243,42.704329],[-71.137117,42.704396],[-71.137204,42.704485],[-71.137526,42.704815],[-71.137526,42.704844],[-71.137527,42.704946],[-71.137528,42.705035],[-71.137537,42.705416],[-71.137539,42.705476],[-71.137542,42.705616],[-71.137547,42.705877],[-71.137556,42.706314],[-71.13756,42.706534],[-71.137411,42.706594],[-71.137286,42.706649]]]}}]}